<?xml version="1.0" encoding="UTF-8"?>
<kml xmlns="http://www.opengis.net/kml/2.2">
  <Document>
    <name>green coridor </name>
    <description/>
    <Style id="icon-1899-0288D1-nodesc-normal">
      <IconStyle>
        <color>ffd18802</color>
        <scale>1</scale>
        <Icon>
          <href>https://www.gstatic.com/mapspro/images/stock/503-wht-blank_maps.png</href>
        </Icon>
        <hotSpot x="32" xunits="pixels" y="64" yunits="insetPixels"/>
      </IconStyle>
      <LabelStyle>
        <scale>0</scale>
      </LabelStyle>
      <BalloonStyle>
        <text><![CDATA[<h3>$[name]</h3>]]></text>
      </BalloonStyle>
    </Style>
    <Style id="icon-1899-0288D1-nodesc-highlight">
      <IconStyle>
        <color>ffd18802</color>
        <scale>1</scale>
        <Icon>
          <href>https://www.gstatic.com/mapspro/images/stock/503-wht-blank_maps.png</href>
        </Icon>
        <hotSpot x="32" xunits="pixels" y="64" yunits="insetPixels"/>
      </IconStyle>
      <LabelStyle>
        <scale>1</scale>
      </LabelStyle>
      <BalloonStyle>
        <text><![CDATA[<h3>$[name]</h3>]]></text>
      </BalloonStyle>
    </Style>
    <StyleMap id="icon-1899-0288D1-nodesc">
      <Pair>
        <key>normal</key>
        <styleUrl>#icon-1899-0288D1-nodesc-normal</styleUrl>
      </Pair>
      <Pair>
        <key>highlight</key>
        <styleUrl>#icon-1899-0288D1-nodesc-highlight</styleUrl>
      </Pair>
    </StyleMap>
    <Style id="icon-1899-DB4436-nodesc-normal">
      <IconStyle>
        <color>ff3644db</color>
        <scale>1</scale>
        <Icon>
          <href>https://www.gstatic.com/mapspro/images/stock/503-wht-blank_maps.png</href>
        </Icon>
        <hotSpot x="32" xunits="pixels" y="64" yunits="insetPixels"/>
      </IconStyle>
      <LabelStyle>
        <scale>0</scale>
      </LabelStyle>
      <BalloonStyle>
        <text><![CDATA[<h3>$[name]</h3>]]></text>
      </BalloonStyle>
    </Style>
    <Style id="icon-1899-DB4436-nodesc-highlight">
      <IconStyle>
        <color>ff3644db</color>
        <scale>1</scale>
        <Icon>
          <href>https://www.gstatic.com/mapspro/images/stock/503-wht-blank_maps.png</href>
        </Icon>
        <hotSpot x="32" xunits="pixels" y="64" yunits="insetPixels"/>
      </IconStyle>
      <LabelStyle>
        <scale>1</scale>
      </LabelStyle>
      <BalloonStyle>
        <text><![CDATA[<h3>$[name]</h3>]]></text>
      </BalloonStyle>
    </Style>
    <StyleMap id="icon-1899-DB4436-nodesc">
      <Pair>
        <key>normal</key>
        <styleUrl>#icon-1899-DB4436-nodesc-normal</styleUrl>
      </Pair>
      <Pair>
        <key>highlight</key>
        <styleUrl>#icon-1899-DB4436-nodesc-highlight</styleUrl>
      </Pair>
    </StyleMap>
    <Style id="line-1267FF-5000-nodesc-normal">
      <LineStyle>
        <color>ffff6712</color>
        <width>5</width>
      </LineStyle>
      <BalloonStyle>
        <text><![CDATA[<h3>$[name]</h3>]]></text>
      </BalloonStyle>
    </Style>
    <Style id="line-1267FF-5000-nodesc-highlight">
      <LineStyle>
        <color>ffff6712</color>
        <width>7.5</width>
      </LineStyle>
      <BalloonStyle>
        <text><![CDATA[<h3>$[name]</h3>]]></text>
      </BalloonStyle>
    </Style>
    <StyleMap id="line-1267FF-5000-nodesc">
      <Pair>
        <key>normal</key>
        <styleUrl>#line-1267FF-5000-nodesc-normal</styleUrl>
      </Pair>
      <Pair>
        <key>highlight</key>
        <styleUrl>#line-1267FF-5000-nodesc-highlight</styleUrl>
      </Pair>
    </StyleMap>
    <Folder>
      <name>Untitled layer</name>
      <Placemark>
        <name>Ozar Airport</name>
        <styleUrl>#icon-1899-0288D1-nodesc</styleUrl>
        <Point>
          <coordinates>
            73.8936825,20.1129296,0
          </coordinates>
        </Point>
      </Placemark>
    </Folder>
    <Folder>
      <name>raigad nagar</name>
    </Folder>
    <Folder>
      <name>Directions from Ozar Airport to XH3V+X4R, Trimbakeshwar Rd, Anjaneri, Maharashtra 422213, India</name>
      <Placemark>
        <name>Directions from Ozar Airport to XH3V+X4R, Trimbakeshwar Rd, Anjaneri, Maharashtra 422213, India</name>
        <styleUrl>#line-1267FF-5000-nodesc</styleUrl>
        <LineString>
          <tessellate>1</tessellate>
          <coordinates>
            73.89371,20.11293,0
            73.89374,20.11239,0
            73.89373,20.11235,0
            73.89372,20.11234,0
            73.89371,20.11232,0
            73.89369,20.1123,0
            73.89368,20.1123,0
            73.89366,20.11228,0
            73.89363,20.11227,0
            73.89354,20.11227,0
            73.89344,20.11228,0
            73.89328,20.11231,0
            73.893,20.11246,0
            73.89294,20.11252,0
            73.89282,20.11269,0
            73.89278,20.11278,0
            73.89115,20.11266,0
            73.89117,20.11234,0
            73.89133,20.11093,0
            73.89134,20.11061,0
            73.89137,20.11056,0
            73.89138,20.11053,0
            73.8914,20.11051,0
            73.89141,20.11048,0
            73.89141,20.11036,0
            73.89139,20.11032,0
            73.89136,20.11029,0
            73.89136,20.11009,0
            73.89134,20.10984,0
            73.89111,20.10896,0
            73.8902,20.10581,0
            73.89018,20.1057,0
            73.89017,20.10559,0
            73.89017,20.10552,0
            73.89046,20.10453,0
            73.89046,20.10449,0
            73.89049,20.10432,0
            73.8903,20.10298,0
            73.89027,20.10264,0
            73.89015,20.10201,0
            73.89002,20.10107,0
            73.88985,20.10019,0
            73.88983,20.10004,0
            73.88984,20.09959,0
            73.88987,20.0993,0
            73.88992,20.09843,0
            73.88992,20.09815,0
            73.89,20.09673,0
            73.89007,20.09598,0
            73.89018,20.09386,0
            73.8902,20.0937,0
            73.89023,20.09364,0
            73.89031,20.09356,0
            73.89069,20.09326,0
            73.891,20.09299,0
            73.89142,20.09254,0
            73.89167,20.09233,0
            73.89178,20.09226,0
            73.89195,20.09217,0
            73.89266,20.09187,0
            73.89272,20.09182,0
            73.89278,20.09176,0
            73.89283,20.09172,0
            73.89288,20.09166,0
            73.893,20.09147,0
            73.89302,20.09143,0
            73.89312,20.09117,0
            73.89334,20.09052,0
            73.89342,20.09032,0
            73.89343,20.09028,0
            73.89343,20.09027,0
            73.89353,20.08992,0
            73.89355,20.08978,0
            73.89356,20.08975,0
            73.89386,20.08829,0
            73.89386,20.08828,0
            73.89396,20.08787,0
            73.89401,20.08771,0
            73.89412,20.08748,0
            73.89416,20.08736,0
            73.89422,20.08725,0
            73.89425,20.08718,0
            73.89438,20.08699,0
            73.89445,20.08692,0
            73.8961,20.08487,0
            73.8968,20.08406,0
            73.89688,20.08398,0
            73.89697,20.08387,0
            73.89706,20.08374,0
            73.89716,20.08364,0
            73.89738,20.08331,0
            73.89793,20.08255,0
            73.89811,20.08234,0
            73.89813,20.08231,0
            73.89966,20.08049,0
            73.89986,20.08017,0
            73.89994,20.08006,0
            73.90007,20.07982,0
            73.90023,20.07944,0
            73.9004,20.07898,0
            73.90128,20.07701,0
            73.90154,20.07656,0
            73.90214,20.07572,0
            73.90242,20.07537,0
            73.90272,20.07494,0
            73.90343,20.07373,0
            73.90401,20.07243,0
            73.90486,20.07302,0
            73.90487,20.07303,0
            73.90877,20.07561,0
            73.90879,20.07562,0
            73.90936,20.076,0
            73.90937,20.076,0
            73.9095,20.07596,0
            73.90959,20.07592,0
            73.90961,20.0759,0
            73.90962,20.07588,0
            73.90963,20.07576,0
            73.90878,20.07518,0
            73.90613,20.0735,0
            73.90516,20.07285,0
            73.9045,20.07237,0
            73.90267,20.07113,0
            73.90248,20.07099,0
            73.9016,20.07041,0
            73.90068,20.06975,0
            73.90032,20.06951,0
            73.90026,20.06946,0
            73.90023,20.06945,0
            73.90002,20.06943,0
            73.89908,20.0688,0
            73.89652,20.06691,0
            73.89652,20.06682,0
            73.89649,20.06679,0
            73.89435,20.0652,0
            73.89344,20.0644,0
            73.89147,20.06256,0
            73.89081,20.06191,0
            73.89079,20.0619,0
            73.8903,20.06142,0
            73.88953,20.06062,0
            73.88757,20.05849,0
            73.88748,20.05842,0
            73.88746,20.0584,0
            73.88728,20.05839,0
            73.886,20.05719,0
            73.8844,20.05545,0
            73.8841,20.0551,0
            73.88287,20.05377,0
            73.88241,20.05321,0
            73.88194,20.0527,0
            73.88124,20.05181,0
            73.88064,20.05112,0
            73.88062,20.05111,0
            73.88018,20.05065,0
            73.87988,20.05037,0
            73.87987,20.05035,0
            73.87869,20.04924,0
            73.87805,20.04857,0
            73.87612,20.04635,0
            73.87373,20.04377,0
            73.87292,20.04293,0
            73.87241,20.04244,0
            73.8709,20.04085,0
            73.87078,20.04071,0
            73.87023,20.04015,0
            73.87004,20.03998,0
            73.86962,20.03965,0
            73.86861,20.03897,0
            73.8675,20.03829,0
            73.86698,20.03792,0
            73.86263,20.03512,0
            73.86133,20.03415,0
            73.85876,20.03235,0
            73.85833,20.03203,0
            73.85642,20.03069,0
            73.85592,20.0304,0
            73.85552,20.0302,0
            73.85518,20.03005,0
            73.85358,20.02947,0
            73.85344,20.02941,0
            73.85146,20.02869,0
            73.8503,20.02831,0
            73.84752,20.02748,0
            73.84435,20.02647,0
            73.84358,20.0262,0
            73.84278,20.02588,0
            73.84199,20.02553,0
            73.84067,20.02482,0
            73.84027,20.02458,0
            73.84017,20.02451,0
            73.83856,20.02353,0
            73.83848,20.02349,0
            73.83841,20.02344,0
            73.83202,20.01962,0
            73.83192,20.01955,0
            73.83138,20.01924,0
            73.83128,20.01917,0
            73.83055,20.01878,0
            73.82649,20.01686,0
            73.82485,20.01617,0
            73.8233,20.01562,0
            73.81797,20.01394,0
            73.81746,20.01376,0
            73.81639,20.01331,0
            73.81302,20.01179,0
            73.81228,20.01148,0
            73.81139,20.01116,0
            73.81041,20.01085,0
            73.81034,20.01082,0
            73.80802,20.01004,0
            73.80748,20.00981,0
            73.80723,20.00969,0
            73.80682,20.00946,0
            73.80645,20.00922,0
            73.80642,20.00921,0
            73.80616,20.00903,0
            73.80559,20.00857,0
            73.80507,20.00806,0
            73.80455,20.00743,0
            73.80434,20.00713,0
            73.80423,20.00695,0
            73.80417,20.00687,0
            73.80413,20.00679,0
            73.80404,20.00664,0
            73.80373,20.00602,0
            73.80356,20.00557,0
            73.80343,20.00515,0
            73.80328,20.00449,0
            73.80319,20.00359,0
            73.80331,20.00126,0
            73.80332,20.0012,0
            73.80335,20.00035,0
            73.80335,19.99997,0
            73.80331,19.99954,0
            73.80329,19.99948,0
            73.80329,19.99946,0
            73.80323,19.99914,0
            73.80322,19.99912,0
            73.80318,19.99894,0
            73.80312,19.99873,0
            73.80299,19.99838,0
            73.8028,19.99799,0
            73.8026,19.99766,0
            73.80243,19.99741,0
            73.80216,19.99708,0
            73.80198,19.99689,0
            73.8016,19.99655,0
            73.80138,19.99637,0
            73.8012,19.99624,0
            73.80066,19.99591,0
            73.8003,19.99574,0
            73.79562,19.99321,0
            73.79557,19.99319,0
            73.78608,19.98813,0
            73.78572,19.98791,0
            73.78531,19.9876,0
            73.78507,19.98736,0
            73.785,19.9873,0
            73.78464,19.98689,0
            73.78431,19.98642,0
            73.78353,19.98513,0
            73.78313,19.98439,0
            73.7825,19.98298,0
            73.7823,19.98259,0
            73.78197,19.98203,0
            73.78174,19.9817,0
            73.78147,19.98135,0
            73.7788,19.97819,0
            73.77842,19.97771,0
            73.77491,19.97373,0
            73.77455,19.97329,0
            73.77419,19.9729,0
            73.77392,19.97263,0
            73.77344,19.97219,0
            73.77198,19.97098,0
            73.77157,19.97062,0
            73.77112,19.97015,0
            73.77027,19.96916,0
            73.76768,19.96586,0
            73.76652,19.96448,0
            73.76572,19.96357,0
            73.76508,19.96278,0
            73.76405,19.96165,0
            73.76369,19.96128,0
            73.76321,19.96084,0
            73.75823,19.9566,0
            73.75678,19.95531,0
            73.75616,19.95467,0
            73.75431,19.95264,0
            73.75431,19.95263,0
            73.75375,19.95207,0
            73.7522,19.95079,0
            73.75156,19.95029,0
            73.75152,19.95025,0
            73.75134,19.95012,0
            73.75006,19.9491,0
            73.74994,19.94902,0
            73.74982,19.94892,0
            73.7498,19.94891,0
            73.74964,19.94879,0
            73.74896,19.94823,0
            73.74597,19.94553,0
            73.74513,19.9447,0
            73.74424,19.94376,0
            73.74418,19.94372,0
            73.74404,19.94357,0
            73.74393,19.94347,0
            73.74329,19.94295,0
            73.74312,19.94283,0
            73.74136,19.94175,0
            73.74056,19.94109,0
            73.74041,19.94095,0
            73.7397,19.94022,0
            73.73936,19.93984,0
            73.73871,19.93916,0
            73.73871,19.93897,0
            73.73834,19.93856,0
            73.73768,19.93798,0
            73.73735,19.93767,0
            73.73616,19.93663,0
            73.73601,19.93654,0
            73.7359,19.93646,0
            73.73526,19.93608,0
            73.73476,19.93588,0
            73.73406,19.93564,0
            73.73316,19.93538,0
            73.73289,19.93527,0
            73.73194,19.93484,0
            73.73189,19.93481,0
            73.73011,19.93399,0
            73.72925,19.93357,0
            73.72838,19.93318,0
            73.72779,19.93294,0
            73.72745,19.93282,0
            73.72733,19.93282,0
            73.72727,19.93284,0
            73.72706,19.93275,0
            73.72528,19.93219,0
            73.7247,19.93196,0
            73.72417,19.9317,0
            73.72389,19.93154,0
            73.72366,19.93138,0
            73.72301,19.93084,0
            73.72275,19.93065,0
            73.72237,19.93034,0
            73.7222,19.93022,0
            73.72116,19.92939,0
            73.72001,19.92843,0
            73.71934,19.92784,0
            73.71845,19.92714,0
            73.71837,19.92706,0
            73.71834,19.92704,0
            73.7182,19.92691,0
            73.71816,19.92686,0
            73.71794,19.92664,0
            73.71759,19.92622,0
            73.71744,19.92599,0
            73.7174,19.92591,0
            73.71531,19.92233,0
            73.71482,19.92144,0
            73.71288,19.9181,0
            73.71252,19.91753,0
            73.71227,19.91718,0
            73.71206,19.91692,0
            73.71165,19.91649,0
            73.71046,19.91536,0
            73.7095,19.91434,0
            73.70949,19.91432,0
            73.709,19.91376,0
            73.70863,19.91339,0
            73.70856,19.91331,0
            73.70754,19.91229,0
            73.70736,19.91214,0
            73.70542,19.91067,0
            73.70465,19.91006,0
            73.70401,19.90952,0
            73.70361,19.90911,0
            73.70347,19.90895,0
            73.70262,19.90779,0
            73.70261,19.90779,0
            73.70107,19.90556,0
            73.70071,19.90498,0
            73.70015,19.90414,0
            73.70008,19.90401,0
            73.69965,19.90307,0
            73.69895,19.90124,0
            73.69823,19.89921,0
            73.69821,19.89917,0
            73.69817,19.89904,0
            73.6981,19.89887,0
            73.69809,19.89883,0
            73.69802,19.89866,0
            73.69798,19.89853,0
            73.69745,19.89713,0
            73.69686,19.89547,0
            73.69684,19.89544,0
            73.69516,19.89038,0
            73.69479,19.88916,0
            73.69383,19.88633,0
            73.69375,19.88603,0
            73.69359,19.88606,0
            73.69368,19.88639,0
            73.69394,19.8871,0
            73.69412,19.88769,0
            73.69502,19.8903,0
            73.69525,19.89107,0
            73.69517,19.89106,0
            73.69512,19.89104,0
            73.69506,19.89099,0
            73.69495,19.89086,0
            73.69489,19.89076,0
            73.69487,19.89071,0
            73.69455,19.89106,0
            73.69449,19.8912,0
            73.69447,19.89127,0
            73.69437,19.89175,0
            73.69431,19.89185,0
            73.69424,19.89193,0
            73.69413,19.89203,0
            73.69404,19.89208,0
            73.69381,19.89214,0
            73.69366,19.89215,0
            73.69245,19.89207,0
            73.69199,19.89199,0
            73.6914,19.89194,0
            73.69105,19.89188,0
            73.69095,19.89187,0
            73.69055,19.89178,0
            73.69032,19.89169,0
            73.69028,19.89169,0
            73.69025,19.89168,0
            73.69018,19.8917,0
            73.69008,19.89177,0
            73.68999,19.89185,0
            73.68983,19.89194,0
            73.6896,19.89203,0
            73.68955,19.89204,0
            73.68945,19.89205,0
            73.68798,19.89202,0
            73.68789,19.89206,0
            73.68786,19.89212,0
            73.6878,19.89243,0
            73.68777,19.89251,0
            73.68776,19.89255,0
            73.68772,19.89258,0
            73.68768,19.89262,0
            73.68756,19.89268,0
            73.68743,19.89273,0
            73.68734,19.89275,0
            73.68726,19.89276,0
            73.68725,19.89277,0
            73.68716,19.89277,0
            73.68707,19.89276,0
            73.68698,19.89274,0
            73.68691,19.8927,0
            73.6869,19.89269,0
            73.68684,19.8926,0
            73.68683,19.89257,0
            73.68681,19.89253,0
            73.68677,19.89237,0
            73.68668,19.89191,0
            73.68667,19.8919,0
            73.68666,19.8919,0
            73.68665,19.89189,0
            73.68664,19.89189,0
            73.6866,19.89187,0
            73.68654,19.89187,0
            73.68642,19.89185,0
            73.68617,19.89178,0
            73.68611,19.89174,0
            73.68605,19.89169,0
            73.68597,19.8916,0
            73.68595,19.89156,0
            73.68594,19.89155,0
            73.68589,19.89147,0
            73.68587,19.89145,0
            73.68585,19.89145,0
            73.68582,19.89144,0
            73.68575,19.89143,0
            73.68568,19.89143,0
            73.68547,19.89141,0
            73.68544,19.89142,0
            73.68531,19.89144,0
            73.68511,19.89151,0
            73.68487,19.89161,0
            73.68482,19.89165,0
            73.68469,19.89186,0
            73.68461,19.89193,0
            73.68454,19.89195,0
            73.68449,19.89197,0
            73.68434,19.89201,0
            73.68412,19.89202,0
            73.68379,19.89201,0
            73.68369,19.89202,0
            73.68362,19.89205,0
            73.6836,19.89205,0
            73.68343,19.89216,0
            73.68337,19.89221,0
            73.68326,19.89228,0
            73.68325,19.89229,0
            73.6831,19.89237,0
            73.68244,19.89251,0
            73.68197,19.89255,0
            73.68159,19.89261,0
            73.68122,19.89255,0
            73.68068,19.89253,0
            73.68012,19.8924,0
            73.68011,19.89239,0
            73.67999,19.89236,0
            73.67998,19.89236,0
            73.67994,19.89235,0
            73.67992,19.89235,0
            73.67984,19.89237,0
            73.67975,19.89245,0
            73.67956,19.89273,0
            73.67949,19.89281,0
            73.67944,19.89283,0
            73.67933,19.89286,0
            73.67858,19.89283,0
            73.67851,19.89284,0
            73.67842,19.89287,0
            73.67833,19.89293,0
            73.67827,19.89299,0
            73.67818,19.89313,0
            73.67804,19.89344,0
            73.67795,19.89376,0
            73.67788,19.89396,0
            73.67779,19.89405,0
            73.67772,19.89407,0
            73.67759,19.89408,0
            73.67644,19.89399,0
            73.67595,19.894,0
            73.67586,19.89402,0
            73.67584,19.89402,0
            73.67576,19.89405,0
            73.67511,19.89421,0
            73.67499,19.89423,0
            73.67434,19.89418,0
            73.67389,19.89418,0
            73.67346,19.8942,0
            73.67279,19.89427,0
            73.67273,19.89427,0
            73.67207,19.89434,0
            73.67199,19.89434,0
            73.6719,19.89433,0
            73.67182,19.89431,0
            73.67082,19.89398,0
            73.67037,19.89377,0
            73.67016,19.89366,0
            73.67013,19.89365,0
            73.67,19.89356,0
            73.66978,19.89336,0
            73.66944,19.89312,0
            73.66943,19.89312,0
            73.66909,19.89296,0
            73.66811,19.89244,0
            73.66728,19.89212,0
            73.66696,19.89203,0
            73.66676,19.89199,0
            73.66653,19.89198,0
            73.6664,19.89195,0
            73.66616,19.89191,0
            73.66582,19.89179,0
            73.66554,19.89167,0
            73.66508,19.89151,0
            73.66443,19.89117,0
            73.66369,19.89085,0
            73.6631,19.89065,0
            73.66267,19.89055,0
            73.66254,19.89055,0
            73.66251,19.89054,0
            73.66224,19.89057,0
            73.66196,19.89062,0
            73.66171,19.89065,0
            73.66149,19.89065,0
            73.65991,19.89051,0
            73.65933,19.8904,0
            73.65807,19.89051,0
            73.65755,19.89063,0
            73.65669,19.89098,0
            73.65666,19.89098,0
            73.65639,19.89108,0
            73.65627,19.89109,0
            73.65626,19.8911,0
            73.65604,19.89102,0
            73.65527,19.89064,0
            73.65526,19.89063,0
            73.65494,19.89054,0
            73.65489,19.89054,0
            73.65458,19.89051,0
            73.65451,19.89052,0
            73.65406,19.89055,0
            73.6537,19.89064,0
            73.65291,19.89101,0
            73.65245,19.89117,0
            73.65206,19.89127,0
            73.65175,19.89127,0
            73.65144,19.89129,0
            73.65122,19.89128,0
            73.65099,19.89123,0
            73.65043,19.89094,0
            73.64993,19.89063,0
            73.64987,19.89061,0
            73.64986,19.8906,0
            73.64974,19.89056,0
            73.64927,19.8906,0
            73.64903,19.89052,0
            73.64894,19.89047,0
            73.64886,19.89044,0
            73.64872,19.8904,0
            73.64862,19.89042,0
            73.64832,19.89063,0
            73.64756,19.89087,0
            73.64744,19.8909,0
            73.64646,19.89123,0
            73.64611,19.89137,0
            73.6461,19.89138,0
            73.64596,19.89147,0
            73.64587,19.89162,0
            73.64586,19.89163,0
            73.64573,19.89202,0
            73.64565,19.89213,0
            73.64535,19.89229,0
            73.6452,19.89234,0
            73.64496,19.89247,0
            73.64469,19.89272,0
            73.64459,19.89274,0
            73.64432,19.89274,0
            73.64423,19.89273,0
            73.64418,19.8928,0
            73.64418,19.89281,0
            73.64412,19.89307,0
            73.64403,19.89326,0
            73.64397,19.89329,0
            73.64393,19.8933,0
            73.6438,19.89328,0
            73.6437,19.89325,0
            73.64345,19.89321,0
            73.64322,19.89324,0
            73.64309,19.89327,0
            73.64291,19.89333,0
            73.6428,19.89334,0
            73.64278,19.89335,0
            73.64228,19.89325,0
            73.64202,19.89328,0
            73.64137,19.89353,0
            73.64086,19.8937,0
            73.64084,19.8937,0
            73.64081,19.89371,0
            73.6408,19.89369,0
            73.64079,19.89369,0
            73.64065,19.89347,0
            73.64041,19.89316,0
            73.64004,19.89281,0
            73.63976,19.89259,0
            73.63971,19.89258,0
            73.63962,19.89258,0
            73.63955,19.89259,0
            73.63933,19.89264,0
            73.6392,19.89268,0
            73.63898,19.89273,0
            73.63771,19.89319,0
            73.6377,19.89319,0
            73.63739,19.89331,0
            73.63685,19.89345,0
            73.63655,19.89351,0
            73.6364,19.89358,0
            73.63625,19.89368,0
            73.63614,19.89377,0
            73.63606,19.89385,0
            73.63599,19.89395,0
            73.63551,19.89453,0
            73.63525,19.89487,0
            73.63517,19.89499,0
            73.63514,19.89506,0
            73.63514,19.89511,0
            73.63513,19.89513,0
            73.63507,19.89552,0
            73.63503,19.8957,0
            73.63499,19.89576,0
            73.63499,19.89577,0
            73.63473,19.89611,0
            73.63464,19.8962,0
            73.63452,19.8963,0
            73.63397,19.89657,0
            73.63394,19.89658,0
            73.63348,19.89687,0
            73.63318,19.89712,0
            73.63314,19.89714,0
            73.6329,19.89729,0
            73.63267,19.89737,0
            73.63266,19.89737,0
            73.63227,19.8975,0
            73.6318,19.8977,0
            73.63169,19.89776,0
            73.63166,19.89777,0
            73.63156,19.89783,0
            73.63146,19.89791,0
            73.63138,19.89799,0
            73.63119,19.89823,0
            73.6311,19.89837,0
            73.63099,19.89852,0
            73.63082,19.8987,0
            73.6307,19.8988,0
            73.6306,19.89887,0
            73.63045,19.89895,0
            73.63018,19.89905,0
            73.6298,19.89913,0
            73.6298,19.89914,0
            73.62972,19.89916,0
            73.62959,19.89921,0
            73.62928,19.89937,0
            73.62897,19.89951,0
            73.62889,19.89952,0
            73.62884,19.89954,0
            73.62857,19.89958,0
            73.62845,19.89959,0
            73.62834,19.89961,0
            73.62826,19.89961,0
            73.62812,19.89959,0
            73.62786,19.8995,0
            73.62704,19.89931,0
            73.62683,19.89924,0
            73.62647,19.89915,0
            73.62568,19.89912,0
            73.62546,19.8991,0
            73.62535,19.8991,0
            73.62519,19.89913,0
            73.62504,19.89917,0
            73.62477,19.8992,0
            73.6247,19.8992,0
            73.62461,19.89921,0
            73.62456,19.89921,0
            73.62439,19.89926,0
            73.62432,19.89922,0
            73.62429,19.89921,0
            73.62428,19.89921,0
            73.62417,19.89918,0
            73.62402,19.89916,0
            73.62387,19.89915,0
            73.62375,19.89913,0
            73.62357,19.89906,0
            73.62346,19.89903,0
            73.62332,19.89897,0
            73.62307,19.8989,0
            73.62274,19.89878,0
            73.62249,19.89866,0
            73.62235,19.89862,0
            73.62232,19.89862,0
            73.62221,19.8986,0
            73.62201,19.89861,0
            73.62176,19.89867,0
            73.62163,19.89872,0
            73.62149,19.89882,0
            73.62144,19.89884,0
            73.6213,19.89893,0
            73.62092,19.89912,0
            73.62045,19.89941,0
            73.6202,19.8995,0
            73.61979,19.89972,0
            73.61945,19.89988,0
            73.61934,19.89992,0
            73.61925,19.89994,0
            73.61924,19.89994,0
            73.61894,19.90002,0
            73.61878,19.9001,0
            73.61841,19.90032,0
            73.61822,19.90045,0
            73.61808,19.90053,0
            73.61757,19.90074,0
            73.617,19.90095,0
            73.61634,19.90122,0
            73.61633,19.90123,0
            73.61601,19.90136,0
            73.6156,19.9015,0
            73.61537,19.90156,0
            73.61485,19.90179,0
            73.61465,19.90185,0
            73.61443,19.9019,0
            73.61422,19.90196,0
            73.61384,19.90215,0
            73.61363,19.90221,0
            73.61349,19.90223,0
            73.61333,19.90227,0
            73.61312,19.9023,0
            73.61247,19.90233,0
            73.61218,19.90232,0
            73.61211,19.90231,0
            73.612,19.90231,0
            73.61132,19.90226,0
            73.61109,19.90221,0
            73.61108,19.9022,0
            73.61058,19.90209,0
            73.61051,19.9021,0
            73.61045,19.90212,0
            73.6104,19.90216,0
            73.61031,19.90233,0
            73.61013,19.90256,0
            73.61012,19.90256,0
            73.60992,19.90278,0
            73.60955,19.90312,0
            73.60941,19.90321,0
            73.60926,19.90325,0
            73.60925,19.90325,0
            73.60897,19.90331,0
            73.60896,19.90332,0
            73.60877,19.90335,0
            73.60747,19.90341,0
            73.60742,19.90342,0
            73.60709,19.90345,0
            73.60704,19.90345,0
            73.60697,19.90346,0
            73.60637,19.90349,0
            73.60631,19.9035,0
            73.60535,19.90352,0
            73.60519,19.90355,0
            73.6049,19.90357,0
            73.60476,19.90357,0
            73.60454,19.90355,0
            73.60449,19.90355,0
            73.60411,19.90349,0
            73.6039,19.90349,0
            73.60359,19.90352,0
            73.60337,19.90356,0
            73.60335,19.90356,0
            73.6032,19.9036,0
            73.60227,19.90375,0
            73.60211,19.90376,0
            73.60207,19.90377,0
            73.6019,19.90378,0
            73.60175,19.90381,0
            73.60158,19.90386,0
            73.60116,19.90403,0
            73.60115,19.90403,0
            73.59995,19.9049,0
            73.59991,19.90492,0
            73.59975,19.90503,0
            73.59956,19.9052,0
            73.59915,19.90562,0
            73.59909,19.90572,0
            73.59896,19.90603,0
            73.59845,19.90699,0
            73.59833,19.90725,0
            73.59827,19.90741,0
            73.59822,19.90758,0
            73.59797,19.908,0
            73.59786,19.90822,0
            73.59785,19.90823,0
            73.59769,19.90861,0
            73.59757,19.90894,0
            73.59752,19.90919,0
            73.59744,19.90972,0
            73.59742,19.91012,0
            73.59733,19.91097,0
            73.59724,19.91132,0
            73.59721,19.91155,0
            73.59721,19.91195,0
            73.5972,19.91204,0
            73.5972,19.91208,0
            73.59718,19.91221,0
            73.5971,19.91249,0
            73.59687,19.91311,0
            73.59686,19.91318,0
            73.59686,19.91325,0
            73.59689,19.91335,0
            73.59692,19.91342,0
            73.59709,19.91365,0
            73.59714,19.91378,0
            73.59721,19.91412,0
            73.59723,19.9143,0
            73.59746,19.91512,0
            73.59748,19.91522,0
            73.59753,19.91538,0
            73.59761,19.91556,0
            73.59769,19.91585,0
            73.59771,19.916,0
            73.59771,19.91609,0
            73.59772,19.91617,0
            73.59769,19.91635,0
            73.59764,19.91652,0
            73.59756,19.91673,0
            73.59754,19.91685,0
            73.59754,19.91698,0
            73.59758,19.9172,0
            73.5976,19.91727,0
            73.59767,19.91745,0
            73.59774,19.91774,0
            73.59776,19.91788,0
            73.59776,19.91792,0
            73.59773,19.91807,0
            73.59773,19.9181,0
            73.5977,19.91825,0
            73.59769,19.91827,0
            73.59767,19.9184,0
            73.59765,19.91871,0
            73.59774,19.91959,0
            73.59775,19.91962,0
            73.59776,19.9197,0
            73.59777,19.91972,0
            73.59784,19.91995,0
            73.59791,19.92023,0
            73.59801,19.9209,0
            73.59803,19.92095,0
            73.5981,19.92104,0
            73.59815,19.92107,0
            73.59823,19.9211,0
            73.59834,19.92111,0
            73.59842,19.92111,0
            73.59851,19.92112,0
            73.59867,19.92115,0
            73.59871,19.92117,0
            73.59879,19.9212,0
            73.5988,19.92121,0
            73.59888,19.92125,0
            73.59891,19.92126,0
            73.59916,19.92141,0
            73.59928,19.92152,0
            73.59937,19.92164,0
            73.59945,19.92172,0
            73.59947,19.92175,0
            73.59952,19.92177,0
            73.59953,19.92178,0
            73.59957,19.9218,0
            73.59963,19.92182,0
            73.59969,19.92183,0
            73.59989,19.92181,0
            73.59995,19.92182,0
            73.60003,19.92185,0
            73.60019,19.92194,0
            73.60028,19.92201,0
            73.60029,19.92203,0
            73.60037,19.9221,0
            73.60037,19.92211,0
            73.60054,19.92227,0
            73.6006,19.9223,0
            73.60067,19.92232,0
            73.60075,19.92233,0
            73.60084,19.92233,0
            73.60093,19.92235,0
            73.60095,19.92236,0
            73.60101,19.92242,0
            73.60104,19.92246,0
            73.60107,19.92254,0
            73.60113,19.92264,0
            73.60119,19.92277,0
            73.60123,19.92284,0
            73.60132,19.92294,0
            73.60133,19.92296,0
            73.6014,19.92304,0
            73.60142,19.92305,0
            73.60146,19.9231,0
            73.60155,19.92317,0
            73.60174,19.92335,0
            73.60179,19.92338,0
            73.6018,19.92339,0
            73.60184,19.92339,0
            73.60186,19.92338,0
            73.60187,19.92338,0
            73.60199,19.9233,0
            73.60206,19.92322,0
            73.6021,19.92315,0
            73.60211,19.92314,0
            73.60212,19.92312,0
            73.60216,19.9231,0
            73.60219,19.9231,0
            73.60222,19.92311,0
            73.60224,19.92315,0
            73.60224,19.92319,0
            73.60213,19.92335,0
            73.60211,19.92337,0
            73.60205,19.92345,0
            73.60201,19.92353,0
            73.60199,19.92362,0
            73.60198,19.9237,0
            73.60198,19.92373,0
            73.60197,19.9238,0
            73.60198,19.92391,0
            73.602,19.92398,0
            73.60201,19.92405,0
            73.60202,19.92406,0
            73.60206,19.92423,0
            73.60207,19.92436,0
            73.60207,19.92449,0
            73.60206,19.92459,0
            73.60205,19.92461,0
            73.60203,19.92471,0
            73.60198,19.92481,0
            73.60196,19.92487,0
            73.60194,19.92503,0
            73.60185,19.92525,0
            73.60185,19.92528,0
            73.60183,19.92537,0
            73.6018,19.92545,0
            73.60175,19.92555,0
            73.60174,19.9256,0
            73.60174,19.92566,0
            73.60175,19.92569,0
            73.60178,19.92574,0
            73.60182,19.92577,0
            73.60188,19.92583,0
            73.60193,19.92586,0
            73.60199,19.92595,0
            73.60201,19.92601,0
            73.60201,19.92607,0
            73.602,19.92612,0
            73.60198,19.92618,0
            73.60197,19.92625,0
            73.60199,19.92634,0
            73.60201,19.92638,0
            73.60204,19.92641,0
            73.60207,19.92643,0
            73.6022,19.92657,0
            73.60227,19.92668,0
            73.60244,19.927,0
            73.60252,19.92725,0
            73.60252,19.92733,0
            73.60253,19.9274,0
            73.60252,19.92744,0
            73.60249,19.92751,0
            73.60245,19.92755,0
            73.6024,19.92758,0
            73.60236,19.92762,0
            73.60234,19.92766,0
            73.60234,19.92767,0
            73.60233,19.92768,0
            73.60233,19.9277,0
            73.60234,19.92775,0
            73.60245,19.92798,0
            73.60247,19.92806,0
            73.60248,19.92816,0
            73.60248,19.92823,0
            73.60246,19.92829,0
            73.60246,19.9283,0
            73.60245,19.92834,0
            73.60241,19.9284,0
            73.60238,19.92843,0
            73.60235,19.92847,0
            73.60225,19.92857,0
            73.60216,19.92864,0
            73.60208,19.92868,0
            73.60205,19.9287,0
            73.60203,19.92874,0
            73.60203,19.92877,0
            73.60202,19.9288,0
            73.60203,19.92922,0
            73.60202,19.92933,0
            73.60198,19.92944,0
            73.60193,19.92952,0
            73.60192,19.92955,0
            73.60191,19.92955,0
            73.60182,19.92971,0
            73.60179,19.92975,0
            73.6017,19.92994,0
            73.60152,19.93023,0
            73.60127,19.93072,0
            73.60121,19.93087,0
            73.60114,19.93097,0
            73.60103,19.93117,0
            73.60069,19.93167,0
            73.60069,19.93168,0
            73.6006,19.93188,0
            73.60054,19.93211,0
            73.60046,19.93235,0
            73.60027,19.93284,0
            73.60018,19.93315,0
            73.60015,19.93322,0
            73.60013,19.9333,0
            73.59995,19.93372,0
            73.59995,19.93373,0
            73.59985,19.93392,0
            73.59975,19.93419,0
            73.5997,19.9344,0
            73.59969,19.93441,0
            73.59968,19.93449,0
            73.59962,19.93471,0
            73.59952,19.93497,0
            73.59951,19.93501,0
            73.5995,19.93503,0
            73.59947,19.93512,0
            73.5994,19.93523,0
            73.59931,19.93532,0
            73.5991,19.9355,0
            73.59882,19.93569,0
            73.59875,19.9358,0
            73.59868,19.93593,0
            73.59858,19.93627,0
            73.59858,19.9363,0
            73.59853,19.93645,0
            73.59847,19.93657,0
            73.59838,19.93666,0
            73.59822,19.93678,0
            73.59803,19.93689,0
            73.59789,19.93694,0
            73.59768,19.93699,0
            73.59761,19.937,0
            73.59724,19.93701,0
            73.59658,19.93691,0
            73.59642,19.9369,0
            73.59618,19.9369,0
            73.59604,19.93692,0
            73.59594,19.93695,0
            73.59584,19.93699,0
            73.59577,19.93705,0
            73.59572,19.93712,0
            73.59567,19.93727,0
            73.59567,19.93762,0
            73.59565,19.93779,0
            73.59558,19.93791,0
            73.59539,19.93808,0
            73.59523,19.93824,0
            73.59504,19.93836,0
            73.59429,19.93869,0
            73.59394,19.93893,0
            73.59383,19.93902,0
            73.59379,19.93904,0
            73.59371,19.9391,0
            73.59334,19.9392,0
            73.59326,19.93924,0
            73.59319,19.9393,0
            73.59318,19.93934,0
            73.59318,19.93936,0
            73.59319,19.93942,0
            73.59327,19.93961,0
            73.5933,19.93973,0
            73.59329,19.94008,0
            73.59334,19.94041,0
            73.59336,19.94047,0
            73.59336,19.94052,0
            73.59333,19.9408,0
            73.59327,19.94105,0
            73.59323,19.94114,0
            73.59313,19.94124,0
            73.59307,19.94129,0
            73.59249,19.94163,0
            73.59239,19.94168,0
            73.59201,19.94192,0
            73.5917,19.94214,0
            73.59145,19.94235,0
            73.59142,19.94237,0
            73.59123,19.94254,0
            73.59078,19.94298,0
            73.59075,19.94302,0
            73.59062,19.94314,0
            73.59023,19.94334,0
            73.59013,19.94338,0
            73.59003,19.94344,0
            73.58997,19.9435,0
            73.58983,19.94371,0
            73.5897,19.94396,0
            73.58962,19.94409,0
            73.58954,19.94418,0
            73.58948,19.94423,0
            73.58947,19.94423,0
            73.58936,19.94431,0
            73.58921,19.94439,0
            73.58879,19.94455,0
            73.58839,19.94466,0
            73.58823,19.94473,0
            73.58808,19.94482,0
            73.58794,19.94493,0
            73.58788,19.94501,0
            73.58786,19.94503,0
            73.58768,19.94531,0
            73.58768,19.94532,0
            73.58759,19.94553,0
            73.58757,19.94562,0
            73.58757,19.94569,0
            73.58759,19.9458,0
            73.58761,19.94621,0
            73.58766,19.9465,0
            73.58772,19.94661,0
            73.58781,19.9467,0
            73.58799,19.94684,0
            73.58803,19.94688,0
            73.58815,19.94698,0
            73.58825,19.94703,0
            73.58835,19.94705,0
            73.58847,19.94705,0
            73.58887,19.94701,0
            73.5893,19.94692,0
            73.58949,19.94689,0
            73.58957,19.94689,0
            73.58963,19.94692,0
            73.58969,19.94697,0
            73.58973,19.94705,0
            73.58975,19.94728,0
            73.58974,19.94744,0
            73.58974,19.94767,0
            73.58976,19.94779,0
            73.58995,19.94848,0
            73.58996,19.94849,0
            73.59025,19.94922,0
            73.59046,19.94987,0
            73.59061,19.95026,0
            73.59073,19.95062,0
            73.59073,19.95063,0
            73.59084,19.95095,0
            73.59104,19.95163,0
            73.59105,19.95165,0
            73.59105,19.95166,0
            73.59115,19.952,0
            73.59115,19.95201,0
            73.59188,19.95462,0
            73.59122,19.95453,0
            73.59074,19.95449,0
            73.59025,19.95441,0
            73.5883,19.954,0
            73.58828,19.95399,0
            73.58627,19.95354,0
            73.58564,19.95333,0
            73.58538,19.95323,0
            73.58507,19.95318,0
            73.58469,19.95315,0
            73.58398,19.95316,0
            73.57972,19.9526,0
            73.57913,19.95254,0
            73.57765,19.95234,0
            73.57655,19.95216,0
            73.57558,19.95206,0
            73.57468,19.95193,0
            73.573,19.95176,0
            73.5723,19.95176,0
            73.56946,19.95196,0
            73.56909,19.95197,0
            73.56868,19.95194,0
            73.56701,19.95153,0
            73.56628,19.95123,0
            73.56516,19.95086,0
            73.56488,19.95079,0
            73.56411,19.95053,0
            73.56317,19.95007,0
            73.55761,19.94767,0
            73.55691,19.94729,0
            73.55536,19.94633,0
            73.55528,19.94627,0
            73.55403,19.94549,0
            73.55351,19.94521,0
            73.55333,19.94514,0
            73.55293,19.94501,0
            73.55242,19.94491,0
            73.54972,19.94464,0
            73.54944,19.94458,0
            73.54942,19.94458,0
            73.5493,19.94455,0
            73.54926,19.94453,0
            73.54914,19.9445,0
            73.54869,19.94432,0
            73.54846,19.94421,0
            73.54672,19.94328,0
            73.54587,19.94288,0
            73.54328,19.94174,0
            73.54327,19.94174,0
            73.54257,19.94144,0
            73.54152,19.94094,0
            73.54111,19.9407,0
            73.53944,19.93957,0
            73.53819,19.93882,0
            73.53783,19.93862,0
            73.53782,19.93861,0
            73.53726,19.93827,0
            73.53711,19.93815,0
            73.53692,19.93795,0
            73.5362,19.93729,0
            73.53615,19.93735,0
            73.53623,19.93745,0
            73.5369,19.93809,0
            73.53705,19.93825,0
            73.53724,19.9384,0
            73.53738,19.93849,0
            73.53862,19.9392,0
            73.53894,19.9394,0
            73.53895,19.9394,0
            73.54128,19.94092,0
            73.54196,19.9413,0
            73.54254,19.94152,0
            73.54321,19.94182,0
            73.54322,19.94183,0
            73.54339,19.9419,0
            73.5434,19.9419,0
            73.54423,19.94228,0
            73.54426,19.94229,0
            73.54684,19.94346,0
            73.54712,19.9436,0
            73.54715,19.94362,0
            73.54718,19.94363,0
            73.54771,19.94392,0
            73.54786,19.94398,0
            73.54818,19.94417,0
            73.54867,19.94441,0
            73.54905,19.94457,0
            73.54926,19.94464,0
            73.54949,19.94469,0
            73.54967,19.94474,0
            73.54986,19.94477,0
            73.55231,19.94498,0
            73.55254,19.94501,0
            73.55284,19.94508,0
            73.55316,19.94517,0
            73.55373,19.94544,0
            73.55414,19.94568,0
            73.55418,19.94571,0
            73.55711,19.94753,0
            73.55745,19.94771,0
            73.55913,19.94845,0
            73.55976,19.9487,0
            73.56407,19.95061,0
            73.56342,19.95185,0
            73.56231,19.95407,0
            73.56182,19.95493,0
            73.56166,19.95524,0
            73.5616,19.95534,0
            73.56149,19.95558,0
            73.56106,19.95663,0
            73.56058,19.95768,0
            73.56041,19.95809,0
            73.56028,19.95846,0
            73.56016,19.95893,0
            73.56017,19.95912,0
            73.56004,19.95955,0
            73.56,19.95965,0
            73.55996,19.95979,0
            73.55972,19.96028,0
            73.55963,19.9605,0
            73.55946,19.96098,0
            73.55945,19.96099,0
            73.55928,19.96148,0
            73.55927,19.96155,0
            73.55924,19.96167,0
            73.55921,19.96207,0
            73.55921,19.96225,0
            73.55919,19.96239,0
            73.55917,19.96245,0
            73.55912,19.96256,0
            73.55865,19.96301,0
            73.55863,19.96304,0
            73.55852,19.96315,0
            73.55847,19.96321,0
            73.55841,19.96332,0
            73.55838,19.9634,0
            73.55836,19.96349,0
            73.55836,19.9635,0
            73.55835,19.96352,0
            73.55823,19.96418,0
            73.55812,19.96504,0
            73.55805,19.96519,0
            73.558,19.96544,0
            73.55794,19.96565,0
            73.5576,19.96657,0
            73.55723,19.96776,0
            73.55717,19.96791,0
            73.55717,19.96793,0
            73.55707,19.96824,0
            73.55699,19.96869,0
            73.55698,19.96882,0
            73.5569,19.96926,0
            73.5566,19.97054,0
            73.55643,19.97115,0
            73.5564,19.97122,0
            73.55635,19.97129,0
            73.55631,19.97136,0
            73.55622,19.97147,0
            73.55579,19.97238,0
            73.55578,19.97241,0
            73.55565,19.97266,0
            73.55561,19.97282,0
            73.55552,19.97308,0
            73.55545,19.97344,0
            73.55543,19.97368,0
            73.55536,19.97417,0
            73.55536,19.97423,0
            73.55533,19.97446,0
            73.55532,19.97465,0
            73.55537,19.97557,0
            73.55536,19.97609,0
            73.55535,19.9762,0
            73.55535,19.97638,0
            73.55532,19.97658,0
            73.55532,19.97663,0
            73.5553,19.97678,0
            73.55526,19.97692,0
            73.55503,19.97735,0
            73.55476,19.97794,0
            73.55476,19.97796,0
            73.55469,19.9782,0
            73.55468,19.97831,0
            73.55467,19.97835,0
            73.55466,19.97849,0
            73.55457,19.97918,0
            73.55442,19.97987,0
            73.55442,19.97989,0
            73.55434,19.9802,0
            73.55434,19.98022,0
            73.55413,19.98114,0
            73.55413,19.98125,0
            73.5541,19.98166,0
            73.5541,19.98198,0
            73.55414,19.98258,0
            73.55418,19.98291,0
            73.55423,19.98318,0
            73.55435,19.98321,0
            73.55443,19.98325,0
            73.55458,19.98334,0
            73.55478,19.98349,0
            73.55496,19.98361,0
            73.55532,19.98382,0
            73.55583,19.98407,0
            73.5562,19.98423,0
            73.55711,19.98468,0
            73.55723,19.98475,0
            73.55733,19.98482,0
            73.55777,19.98519,0
            73.55795,19.98532,0
            73.55809,19.98544,0
            73.55825,19.98555,0
            73.55839,19.98566,0
            73.55847,19.98571,0
            73.5586,19.98583,0
            73.55872,19.98596,0
            73.55895,19.98634,0
            73.55921,19.98671,0
            73.55948,19.98715,0
            73.55959,19.98731,0
            73.55976,19.98753,0
            73.55984,19.98768,0
            73.55986,19.98773,0
            73.55987,19.9879,0
            73.55987,19.98814,0
            73.55988,19.98825,0
            73.55989,19.98829,0
            73.55989,19.9883,0
            73.55993,19.98837,0
            73.55997,19.9884,0
            73.56,19.98841,0
            73.56001,19.98842,0
            73.56016,19.9885,0
            73.56032,19.98862,0
            73.56033,19.98862,0
            73.56047,19.98874,0
            73.56077,19.98896,0
            73.56107,19.9892,0
            73.56151,19.98952,0
            73.56153,19.98954,0
            73.56272,19.99042,0
            73.56288,19.99051,0
            73.56288,19.99052,0
            73.56296,19.99055,0
            73.56304,19.99057,0
            73.56305,19.99058,0
            73.56314,19.99059,0
            73.56332,19.99059,0
            73.56342,19.9906,0
            73.56388,19.99076,0
            73.56398,19.99078,0
            73.564,19.99078,0
            73.56417,19.99081,0
            73.56435,19.99083,0
            73.56458,19.99087,0
            73.56468,19.99091,0
            73.56475,19.99095,0
            73.56488,19.99104,0
            73.56516,19.99121,0
            73.56537,19.99136,0
            73.56574,19.99167,0
            73.56581,19.99171,0
            73.56586,19.99173,0
            73.56596,19.99173,0
            73.56618,19.99164,0
            73.56639,19.99153,0
            73.5667,19.99143,0
            73.56689,19.99138,0
            73.56689,19.99137,0
            73.56762,19.99116,0
            73.56764,19.99115,0
            73.56926,19.99067,0
            73.56927,19.99066,0
            73.57126,19.99004,0
            73.57127,19.99004,0
            73.57136,19.99002,0
            73.57141,19.99002,0
            73.57149,19.99003,0
            73.57193,19.99018,0
            73.57202,19.99019,0
            73.57294,19.99013,0
            73.57306,19.99013,0
            73.57349,19.99008,0
            73.57384,19.99006,0
            73.57524,19.99007,0
            73.57533,19.99008,0
            73.57546,19.99008,0
            73.57577,19.99005,0
            73.57583,19.99003,0
            73.57592,19.98999,0
            73.5761,19.98987,0
            73.57613,19.98986,0
            73.5762,19.98982,0
            73.57675,19.98941,0
            73.57693,19.98933,0
            73.57751,19.98903,0
            73.57759,19.989,0
            73.57778,19.98898,0
            73.5784,19.98897,0
            73.57867,19.98899,0
            73.57887,19.98877,0
            73.57897,19.98868,0
            73.57927,19.98844,0
            73.57992,19.98786,0
            73.58014,19.98761,0
            73.58019,19.98753,0
            73.58059,19.98699,0
            73.58067,19.98684,0
            73.58068,19.98683,0
            73.58091,19.98627,0
            73.58127,19.9856,0
            73.58151,19.98487,0
            73.58153,19.98477,0
            73.58154,19.98439,0
            73.5815,19.98329,0
            73.58147,19.98304,0
            73.58121,19.98155,0
            73.58117,19.98138,0
            73.58116,19.98127,0
            73.58116,19.98116,0
            73.58121,19.98063,0
            73.58122,19.9806,0
            73.58134,19.97999,0
            73.58136,19.97981,0
            73.58144,19.97939,0
            73.58145,19.97938,0
            73.5815,19.97919,0
            73.58156,19.97905,0
            73.58165,19.97888,0
            73.5819,19.97848,0
            73.58239,19.97776,0
            73.58264,19.97744,0
            73.58315,19.97696,0
            73.58373,19.97636,0
            73.58379,19.97632,0
            73.58393,19.97618,0
            73.58401,19.97612,0
            73.58407,19.97606,0
            73.58433,19.97588,0
            73.58448,19.97579,0
            73.58449,19.97578,0
            73.58558,19.97519,0
            73.58574,19.97509,0
            73.58642,19.97461,0
            73.58701,19.97416,0
            73.58741,19.97383,0
            73.58744,19.9738,0
            73.58792,19.97343,0
            73.58793,19.97343,0
            73.58805,19.97333,0
            73.58853,19.97299,0
            73.5886,19.97291,0
            73.58872,19.97281,0
            73.58885,19.97272,0
            73.58917,19.97239,0
            73.58921,19.97236,0
            73.58947,19.97209,0
            73.58958,19.97196,0
            73.58966,19.97184,0
            73.58983,19.97152,0
            73.58986,19.97148,0
            73.59002,19.9712,0
            73.59011,19.971,0
            73.59016,19.97086,0
            73.59018,19.97076,0
            73.59022,19.97034,0
            73.59025,19.9702,0
            73.59032,19.96995,0
            73.59035,19.96981,0
            73.59035,19.9698,0
            73.59037,19.96973,0
            73.59039,19.96969,0
            73.59043,19.96967,0
            73.59049,19.96966,0
            73.59051,19.96965,0
            73.59052,19.96965,0
            73.59057,19.96964,0
            73.59063,19.96958,0
            73.59065,19.96954,0
            73.59068,19.96951,0
            73.59079,19.9693,0
            73.59086,19.96904,0
            73.59092,19.96868,0
            73.59095,19.96858,0
            73.59095,19.96854,0
            73.59097,19.9684,0
            73.59097,19.96816,0
            73.591,19.96786,0
            73.59102,19.9678,0
            73.59103,19.9678,0
            73.59105,19.96775,0
            73.59119,19.96755,0
            73.59149,19.96702,0
            73.59158,19.9668,0
            73.59163,19.9667,0
            73.59163,19.96668,0
            73.5918,19.96638,0
            73.59184,19.96629,0
            73.59187,19.96619,0
            73.59189,19.96601,0
            73.59189,19.96591,0
            73.5919,19.96584,0
            73.592,19.96551,0
            73.59203,19.96532,0
            73.59204,19.96531,0
            73.59209,19.96495,0
            73.59211,19.96486,0
            73.59234,19.96438,0
            73.59246,19.96407,0
            73.59262,19.9638,0
            73.5927,19.96372,0
            73.59273,19.96368,0
            73.59302,19.96345,0
            73.59304,19.96344,0
            73.59326,19.96328,0
            73.59346,19.96315,0
            73.59368,19.96298,0
            73.594,19.96276,0
            73.59421,19.96263,0
            73.59461,19.96245,0
            73.59552,19.96194,0
            73.5962,19.96151,0
            73.59668,19.96116,0
            73.59706,19.96085,0
            73.59722,19.96066,0
            73.59731,19.96053,0
            73.59739,19.96039,0
            73.59772,19.95968,0
            73.59794,19.95916,0
            73.59803,19.9589,0
            73.59825,19.95844,0
            73.59838,19.95821,0
            73.59872,19.95778,0
            73.59888,19.9576,0
            73.59973,19.95674,0
            73.59979,19.95669,0
            73.60024,19.95625,0
            73.60038,19.95614,0
            73.60042,19.9561,0
            73.60056,19.95599,0
            73.60073,19.95589,0
            73.60073,19.95588,0
            73.60082,19.95583,0
            73.60099,19.95568,0
            73.60113,19.95558,0
            73.60114,19.9555,0
            73.60025,19.95536,0
            73.59902,19.9552,0
            73.59829,19.95508,0
            73.59188,19.95462,0
            73.59122,19.95453,0
            73.59074,19.95449,0
            73.59025,19.95441,0
            73.5883,19.954,0
            73.58828,19.95399,0
            73.58627,19.95354,0
            73.58564,19.95333,0
            73.58538,19.95323,0
            73.58507,19.95318,0
            73.58489,19.95317,0
            73.58488,19.95328,0
            73.58502,19.95329,0
            73.58532,19.95334,0
            73.58628,19.95365,0
            73.58829,19.9541,0
            73.58831,19.9541,0
            73.59025,19.95451,0
            73.59074,19.95459,0
            73.59187,19.9547,0
            73.59265,19.95475,0
          </coordinates>
        </LineString>
      </Placemark>
      <Placemark>
        <name>Ozar Airport</name>
        <styleUrl>#icon-1899-DB4436-nodesc</styleUrl>
        <Point>
          <coordinates>
            73.8937114,20.1129311,0
          </coordinates>
        </Point>
      </Placemark>
      <Placemark>
        <name>VMRR+HW8, Raigadnagar, Maharashtra 422010, India</name>
        <styleUrl>#icon-1899-DB4436-nodesc</styleUrl>
        <Point>
          <coordinates>
            73.6913009,19.8919232,0
          </coordinates>
        </Point>
      </Placemark>
      <Placemark>
        <name>WGQP+HQH, Trimbak, Maharashtra 422212, India</name>
        <styleUrl>#icon-1899-DB4436-nodesc</styleUrl>
        <Point>
          <coordinates>
            73.5377355,19.9386904,0
          </coordinates>
        </Point>
      </Placemark>
      <Placemark>
        <name>XHPH+MG, Beze, Maharashtra 422213, India</name>
        <styleUrl>#icon-1899-DB4436-nodesc</styleUrl>
        <Point>
          <coordinates>
            73.5801354,19.9876056,0
          </coordinates>
        </Point>
      </Placemark>
      <Placemark>
        <name>XH3V+X4R, Trimbakeshwar Rd, Anjaneri, Maharashtra 422213, India</name>
        <styleUrl>#icon-1899-DB4436-nodesc</styleUrl>
        <Point>
          <coordinates>
            73.5926461,19.9547548,0
          </coordinates>
        </Point>
      </Placemark>
    </Folder>
  </Document>
</kml>
