<?xml version="1.0" encoding="UTF-8"?>
<kml xmlns="http://www.opengis.net/kml/2.2" xmlns:gx="http://www.google.com/kml/ext/2.2" xmlns:kml="http://www.opengis.net/kml/2.2" xmlns:atom="http://www.w3.org/2005/Atom">
<Document>
	<name>10 कायम स्वरुपी वॉच टॉवर.kml</name>
	<StyleMap id="m_ylw-pushpin">
		<Pair>
			<key>normal</key>
			<styleUrl>#s_ylw-pushpin</styleUrl>
		</Pair>
		<Pair>
			<key>highlight</key>
			<styleUrl>#s_ylw-pushpin_hl</styleUrl>
		</Pair>
	</StyleMap>
	<Style id="s_ylw-pushpin">
		<IconStyle>
			<scale>1.1</scale>
			<Icon>
				<href>http://maps.google.com/mapfiles/kml/pushpin/ylw-pushpin.png</href>
			</Icon>
			<hotSpot x="20" y="2" xunits="pixels" yunits="pixels"/>
		</IconStyle>
	</Style>
	<Style id="s_ylw-pushpin_hl">
		<IconStyle>
			<scale>1.3</scale>
			<Icon>
				<href>http://maps.google.com/mapfiles/kml/pushpin/ylw-pushpin.png</href>
			</Icon>
			<hotSpot x="20" y="2" xunits="pixels" yunits="pixels"/>
		</IconStyle>
	</Style>
	<Folder>
		<name>10 कायम स्वरुपी वॉच टॉवर</name>
		<Placemark>
			<name>1 कुशावर्त तीर्थ</name>
			<LookAt>
				<longitude>73.52783548480126</longitude>
				<latitude>19.93289074050632</latitude>
				<altitude>0</altitude>
				<heading>-5.664599305445131e-05</heading>
				<tilt>30.00066165073685</tilt>
				<range>147.4190873792749</range>
				<gx:altitudeMode>relativeToSeaFloor</gx:altitudeMode>
			</LookAt>
			<styleUrl>#m_ylw-pushpin</styleUrl>
			<Point>
				<gx:drawOrder>1</gx:drawOrder>
				<coordinates>73.52779611228421,19.93276514944197,0</coordinates>
			</Point>
		</Placemark>
		<Placemark>
			<name>2 डॉ बाबासाहेब आंबेडकर पुतळा चौक</name>
			<LookAt>
				<longitude>73.53235037939073</longitude>
				<latitude>19.93411942964007</latitude>
				<altitude>0</altitude>
				<heading>-1.059759637094878e-05</heading>
				<tilt>30.00036950089629</tilt>
				<range>81.40070994594139</range>
				<gx:altitudeMode>relativeToSeaFloor</gx:altitudeMode>
			</LookAt>
			<styleUrl>#m_ylw-pushpin</styleUrl>
			<Point>
				<gx:drawOrder>1</gx:drawOrder>
				<coordinates>73.5323807372927,19.93398795969905,0</coordinates>
			</Point>
		</Placemark>
		<Placemark>
			<name>3 खंडेराव मंदीर चौक, आवाहन आखाडा जवळ</name>
			<LookAt>
				<longitude>73.52905632378905</longitude>
				<latitude>19.93539018262963</latitude>
				<altitude>0</altitude>
				<heading>0.0005291126180319643</heading>
				<tilt>28.1999699313373</tilt>
				<range>240.446397712991</range>
				<gx:altitudeMode>relativeToSeaFloor</gx:altitudeMode>
			</LookAt>
			<styleUrl>#m_ylw-pushpin</styleUrl>
			<Point>
				<gx:drawOrder>1</gx:drawOrder>
				<coordinates>73.5296154037092,19.93532367236572,0</coordinates>
			</Point>
		</Placemark>
		<Placemark>
			<name>4 संत निवृत्ती नाथ महाराज मंदीर चौक</name>
			<LookAt>
				<longitude>73.52398059756997</longitude>
				<latitude>19.93329571980351</latitude>
				<altitude>0</altitude>
				<heading>5.534253370199523e-05</heading>
				<tilt>28.64422357653687</tilt>
				<range>196.1674573493532</range>
				<gx:altitudeMode>relativeToSeaFloor</gx:altitudeMode>
			</LookAt>
			<styleUrl>#m_ylw-pushpin</styleUrl>
			<Point>
				<gx:drawOrder>1</gx:drawOrder>
				<coordinates>73.52395126391801,19.93326070673181,0</coordinates>
			</Point>
		</Placemark>
		<Placemark>
			<name>5 जुना जव्हार फाटा</name>
			<LookAt>
				<longitude>73.53278395204633</longitude>
				<latitude>19.94089750532451</latitude>
				<altitude>0</altitude>
				<heading>-0.0001321707689524894</heading>
				<tilt>28.83554385756268</tilt>
				<range>213.2812531083159</range>
				<gx:altitudeMode>relativeToSeaFloor</gx:altitudeMode>
			</LookAt>
			<styleUrl>#m_ylw-pushpin</styleUrl>
			<Point>
				<gx:drawOrder>1</gx:drawOrder>
				<coordinates>73.53325771404809,19.94061078841552,0</coordinates>
			</Point>
		</Placemark>
		<Placemark>
			<name>6 नवीन घाट 1</name>
			<LookAt>
				<longitude>73.5424550192849</longitude>
				<latitude>19.94453607092892</latitude>
				<altitude>0</altitude>
				<heading>-25.00261477674437</heading>
				<tilt>28.84236445039712</tilt>
				<range>1787.628739671963</range>
				<gx:altitudeMode>relativeToSeaFloor</gx:altitudeMode>
			</LookAt>
			<styleUrl>#m_ylw-pushpin</styleUrl>
			<Point>
				<gx:drawOrder>1</gx:drawOrder>
				<coordinates>73.54038702835936,19.94472985825929,0</coordinates>
			</Point>
		</Placemark>
		<Placemark>
			<name>7 नवीन घाट 2</name>
			<LookAt>
				<longitude>73.5424550192849</longitude>
				<latitude>19.94453607092892</latitude>
				<altitude>0</altitude>
				<heading>-25.00261477674437</heading>
				<tilt>28.84236445039712</tilt>
				<range>1787.628739671963</range>
				<gx:altitudeMode>relativeToSeaFloor</gx:altitudeMode>
			</LookAt>
			<styleUrl>#m_ylw-pushpin</styleUrl>
			<Point>
				<gx:drawOrder>1</gx:drawOrder>
				<coordinates>73.54498860741039,19.94549219629167,0</coordinates>
			</Point>
		</Placemark>
		<Placemark>
			<name>8 नवीन घाट 3</name>
			<LookAt>
				<longitude>73.5424550192849</longitude>
				<latitude>19.94453607092892</latitude>
				<altitude>0</altitude>
				<heading>-25.00261477674437</heading>
				<tilt>28.84236445039712</tilt>
				<range>1787.628739671963</range>
				<gx:altitudeMode>relativeToSeaFloor</gx:altitudeMode>
			</LookAt>
			<styleUrl>#m_ylw-pushpin</styleUrl>
			<Point>
				<gx:drawOrder>1</gx:drawOrder>
				<coordinates>73.55030149306084,19.9482056905389,0</coordinates>
			</Point>
		</Placemark>
		<Placemark>
			<name>9 प्रयाग तीर्थ</name>
			<LookAt>
				<longitude>73.55157285332783</longitude>
				<latitude>19.94457207072684</latitude>
				<altitude>0</altitude>
				<heading>3.043961078573662e-05</heading>
				<tilt>23.13521964153812</tilt>
				<range>283.6476354655964</range>
				<gx:altitudeMode>relativeToSeaFloor</gx:altitudeMode>
			</LookAt>
			<styleUrl>#m_ylw-pushpin</styleUrl>
			<Point>
				<gx:drawOrder>1</gx:drawOrder>
				<coordinates>73.55143850483886,19.9450000761632,0</coordinates>
			</Point>
		</Placemark>
		<Placemark>
			<name>10 सप्तश्रृंगी गड</name>
			<LookAt>
				<longitude>73.90795740795531</longitude>
				<latitude>20.39883531916739</latitude>
				<altitude>0</altitude>
				<heading>-30.78363356572716</heading>
				<tilt>30.00074796822591</tilt>
				<range>166.312777653234</range>
				<gx:altitudeMode>relativeToSeaFloor</gx:altitudeMode>
			</LookAt>
			<styleUrl>#m_ylw-pushpin</styleUrl>
			<Point>
				<gx:drawOrder>1</gx:drawOrder>
				<coordinates>73.90791229519891,20.3986936091651,0</coordinates>
			</Point>
		</Placemark>
		<atom:link rel="app" href="https://www.google.com/earth/about/versions/#earth-pro" title="Google Earth Pro 7.3.7.1155"></atom:link>
	</Folder>
</Document>
</kml>
