{
  "type": "FeatureCollection",
  "features": [
    {
      "type": "Feature",
      "properties": {
        "name": "Vip Root New 2"
      },
      "geometry": {
        "type": "LineString",
        "coordinates": [
          [
            73.89114820745232,
            20.11267161670721
          ],
          [
            73.89122096782546,
            20.11119648975389
          ],
          [
            73.89135120695887,
            20.11061082292251
          ],
          [
            73.89186786223404,
            20.11011111887014
          ],
          [
            73.89265191754683,
            20.10990406626652
          ],
          [
            73.89379215014867,
            20.10955981482439
          ],
          [
            73.89514387064101,
            20.10898001711006
          ],
          [
            73.89668709384803,
            20.10843154859939
          ],
          [
            73.8984992326753,
            20.10775398279888
          ],
          [
            73.90039402207147,
            20.1072129490302
          ],
          [
            73.9019154194463,
            20.10667592617008
          ],
          [
            73.90304238769043,
            20.10662420740378
          ],
          [
            73.90435996526789,
            20.10639748006369
          ],
          [
            73.90616347211449,
            20.10611418114906
          ],
          [
            73.90802648673738,
            20.10548865201156
          ],
          [
            73.90952472957555,
            20.10488964733535
          ],
          [
            73.91114452612504,
            20.10433399774925
          ],
          [
            73.91244122784438,
            20.10396249463778
          ],
          [
            73.91360810746171,
            20.10363999551709
          ],
          [
            73.91533967777801,
            20.10328696007853
          ],
          [
            73.91709192504078,
            20.10311055393645
          ],
          [
            73.9191550146271,
            20.10317558197169
          ],
          [
            73.92066491816647,
            20.10274379819502
          ],
          [
            73.9220059730214,
            20.10224710669643
          ],
          [
            73.92322245472248,
            20.10185693120276
          ],
          [
            73.9242322588854,
            20.10155342074063
          ],
          [
            73.92487221006228,
            20.1016082017714
          ],
          [
            73.92569043594997,
            20.10175399072833
          ],
          [
            73.92601946230847,
            20.10183363611935
          ],
          [
            73.92714575062021,
            20.10097843261844
          ],
          [
            73.92830083311334,
            20.0999170323094
          ],
          [
            73.92667686720036,
            20.09764744908954
          ],
          [
            73.92440160389971,
            20.09481049988446
          ],
          [
            73.9236535945429,
            20.0926542860049
          ],
          [
            73.92329172309074,
            20.08959712398834
          ],
          [
            73.92050479348185,
            20.08625861040066
          ],
          [
            73.91627613151292,
            20.08199951294487
          ],
          [
            73.91115685331204,
            20.07706098479489
          ],
          [
            73.9065072351755,
            20.07392630147157
          ],
          [
            73.89999888392049,
            20.06947270812637
          ],
          [
            73.8899304483478,
            20.06124734538615
          ],
          [
            73.88411585509819,
            20.0554202778512
          ],
          [
            73.87929240308291,
            20.04985988330425
          ],
          [
            73.87545006380338,
            20.04578107955033
          ],
          [
            73.87256989054413,
            20.04264691992122
          ],
          [
            73.86932651266548,
            20.03964468726318
          ],
          [
            73.86376444432422,
            20.03598785511873
          ],
          [
            73.85920357890215,
            20.0326672303399
          ],
          [
            73.85520587878457,
            20.03008170210677
          ],
          [
            73.85046458526661,
            20.02839459147776
          ],
          [
            73.84413020977954,
            20.02635224854021
          ],
          [
            73.84189611315799,
            20.02539572698739
          ],
          [
            73.83070329027656,
            20.01882988902384
          ],
          [
            73.82063667733807,
            20.0148638621726
          ],
          [
            73.81195052264727,
            20.01152234489208
          ],
          [
            73.80561010264407,
            20.00884320559001
          ],
          [
            73.80329897865985,
            20.00535874786345
          ],
          [
            73.80328541843843,
            20.00045654284941
          ],
          [
            73.80203192970372,
            19.99701400260637
          ],
          [
            73.7944282952457,
            19.992690280789
          ],
          [
            73.78774790786754,
            19.98895244821068
          ],
          [
            73.78417475858866,
            19.98683962783829
          ],
          [
            73.7812703899868,
            19.981267425824
          ],
          [
            73.77764083649814,
            19.97723924859147
          ],
          [
            73.77227867443807,
            19.97116768261399
          ],
          [
            73.76727451553114,
            19.96586096069786
          ],
          [
            73.76334847395891,
            19.96099178632734
          ],
          [
            73.75805225922691,
            19.95647870578964
          ],
          [
            73.75340053191107,
            19.95205645592131
          ],
          [
            73.74758659510137,
            19.94724795316456
          ],
          [
            73.74314679241827,
            19.94294980077091
          ],
          [
            73.74051571065361,
            19.94121706658973
          ],
          [
            73.73604206620783,
            19.93664203813353
          ],
          [
            73.73084294464667,
            19.93449613638501
          ],
          [
            73.72827803786797,
            19.93322186621743
          ],
          [
            73.72358803601831,
            19.93146094549321
          ],
          [
            73.7201619039737,
            19.92872161135384
          ],
          [
            73.71770572223275,
            19.92644081573547
          ],
          [
            73.71686225555263,
            19.92483502606937
          ],
          [
            73.71417535556837,
            19.92048271648563
          ],
          [
            73.71154893011834,
            19.91647876338526
          ],
          [
            73.70835199252139,
            19.9132189198551
          ],
          [
            73.70525882127927,
            19.91065848765007
          ],
          [
            73.70284203222127,
            19.90831843505238
          ],
          [
            73.70121690138797,
            19.90571278740494
          ],
          [
            73.6993808185765,
            19.90257373794418
          ],
          [
            73.69808390843085,
            19.89925090380055
          ],
          [
            73.6970859851135,
            19.89629771380043
          ],
          [
            73.6960434584877,
            19.89321013050722
          ],
          [
            73.6953874062844,
            19.8911850231609
          ],
          [
            73.69529237115329,
            19.8908871077193
          ],
          [
            73.69486890011389,
            19.89080041044602
          ],
          [
            73.69438838529244,
            19.89161441065771
          ],
          [
            73.69415991994815,
            19.89203171954528
          ],
          [
            73.69388019961222,
            19.89211625364106
          ],
          [
            73.69325068570834,
            19.89211016273249
          ],
          [
            73.69220777493328,
            19.89199638455799
          ],
          [
            73.69138762277389,
            19.89192020674985
          ],
          [
            73.69077551905089,
            19.89181239763508
          ],
          [
            73.69036852328585,
            19.89172508934898
          ],
          [
            73.69022006762015,
            19.89172366487547
          ],
          [
            73.68958809541378,
            19.89205071438608
          ],
          [
            73.68815170220495,
            19.8920461309448
          ],
          [
            73.68789538029203,
            19.89206312092009
          ],
          [
            73.68782324590406,
            19.89222944351629
          ],
          [
            73.68779713810503,
            19.89239190049632
          ],
          [
            73.68775230654727,
            19.89252605206515
          ],
          [
            73.68765279761409,
            19.89259361450824
          ],
          [
            73.68756278623833,
            19.8926666063893
          ],
          [
            73.68737527152268,
            19.89274998990857
          ],
          [
            73.6872336666733,
            19.8927707801149
          ],
          [
            73.68707637250722,
            19.89272342250061
          ],
          [
            73.68697225610232,
            19.89270416425001
          ],
          [
            73.68687298446746,
            19.89257824509226
          ],
          [
            73.68679581051764,
            19.89239989671129
          ],
          [
            73.68674357782673,
            19.89223155902367
          ],
          [
            73.68672458083178,
            19.89203423833744
          ],
          [
            73.68665682238698,
            19.89190898431716
          ],
          [
            73.6865226190535,
            19.89186984227197
          ],
          [
            73.68638835086254,
            19.89182063894164
          ],
          [
            73.68616611757776,
            19.89178713892784
          ],
          [
            73.68592422479611,
            19.8915484247999
          ],
          [
            73.68584436962024,
            19.89146465583397
          ],
          [
            73.68549915469546,
            19.89143028113378
          ],
          [
            73.68527282210984,
            19.8914752795326
          ],
          [
            73.68495783607229,
            19.89157496464883
          ],
          [
            73.6848090723642,
            19.89167439251885
          ],
          [
            73.68474710531412,
            19.89179377473749
          ],
          [
            73.68457996129789,
            19.8919441667972
          ],
          [
            73.6843817495979,
            19.89200453824975
          ],
          [
            73.68422558949165,
            19.89204006762991
          ],
          [
            73.68399700971106,
            19.89200924750442
          ],
          [
            73.68372505192583,
            19.89199574837096
          ],
          [
            73.68357072118187,
            19.89208736965406
          ],
          [
            73.68327896883223,
            19.89227685053744
          ],
          [
            73.68311630996524,
            19.8923493803953
          ],
          [
            73.68290708574528,
            19.89241993163285
          ],
          [
            73.68254981487229,
            19.89249408226579
          ],
          [
            73.68222681913029,
            19.89252921293449
          ],
          [
            73.68185124331224,
            19.89257453081543
          ],
          [
            73.68157586182885,
            19.89261383661897
          ],
          [
            73.6808848826556,
            19.89255081115394
          ],
          [
            73.68056107920431,
            19.89252193039627
          ],
          [
            73.6802106631545,
            19.89241099286823
          ],
          [
            73.67998292333867,
            19.89236439172121
          ],
          [
            73.67979718273685,
            19.89243054991229
          ],
          [
            73.67967139465834,
            19.89258207334847
          ],
          [
            73.67958955643367,
            19.89271413004591
          ],
          [
            73.67945809436684,
            19.89282418938456
          ],
          [
            73.67929338425674,
            19.89283004575606
          ],
          [
            73.67907414040477,
            19.89283466088563
          ],
          [
            73.67879841446663,
            19.89283798756691
          ],
          [
            73.67851724221754,
            19.89285672880644
          ],
          [
            73.67836809360249,
            19.8929037112773
          ],
          [
            73.67827928462702,
            19.89299550572601
          ],
          [
            73.67821301691006,
            19.89314899364345
          ],
          [
            73.67814809920661,
            19.89329563687675
          ],
          [
            73.6780951917047,
            19.89347049676136
          ],
          [
            73.67802522789981,
            19.89369080038518
          ],
          [
            73.67798481384149,
            19.89381938891506
          ],
          [
            73.67797283601908,
            19.89383444429749
          ],
          [
            73.67791730577555,
            19.89398617017185
          ],
          [
            73.67780901203608,
            19.89408487555457
          ],
          [
            73.67757008510716,
            19.89409350758913
          ],
          [
            73.67735331645886,
            19.89407619387909
          ],
          [
            73.6771521961716,
            19.89405622492328
          ],
          [
            73.6769692655475,
            19.89402865067632
          ],
          [
            73.6768265354521,
            19.8940223443695
          ],
          [
            73.67663313538976,
            19.89400426614674
          ],
          [
            73.67648684815602,
            19.89399061055181
          ],
          [
            73.67608948325582,
            19.89397991742893
          ],
          [
            73.67587577678772,
            19.89404205870313
          ],
          [
            73.67569291454257,
            19.89408120817912
          ],
          [
            73.67542285631687,
            19.89414898288095
          ],
          [
            73.675196502534,
            19.89419893481111
          ],
          [
            73.67496799055735,
            19.89420725707987
          ],
          [
            73.67467111498708,
            19.89419649052413
          ],
          [
            73.67424747315445,
            19.89419820874292
          ],
          [
            73.67403123803868,
            19.894205197537
          ],
          [
            73.67372462232932,
            19.89421874882836
          ],
          [
            73.67335032859457,
            19.89424261132728
          ],
          [
            73.6733345173637,
            19.89424903540371
          ],
          [
            73.67301492933686,
            19.8942582233248
          ],
          [
            73.67301179422815,
            19.89425677490335
          ],
          [
            73.67278079539426,
            19.8942977983659
          ],
          [
            73.67276829147222,
            19.89430220668382
          ],
          [
            73.67244822423679,
            19.89433450649812
          ],
          [
            73.67193513763351,
            19.89435023796596
          ],
          [
            73.67132705434197,
            19.89416908750231
          ],
          [
            73.67071751281364,
            19.89393494207306
          ],
          [
            73.67018209007135,
            19.89369018269946
          ],
          [
            73.66972335557338,
            19.89334807128537
          ],
          [
            73.66926738777263,
            19.89303130232904
          ],
          [
            73.6681384779408,
            19.89245103795099
          ],
          [
            73.66746537932603,
            19.89218603868259
          ],
          [
            73.66696917957087,
            19.89204319634257
          ],
          [
            73.66623881889211,
            19.89192046943615
          ],
          [
            73.66515582714578,
            19.89153172888516
          ],
          [
            73.66418808716162,
            19.89105740303304
          ],
          [
            73.66307225916024,
            19.89063301269942
          ],
          [
            73.66252441703338,
            19.89054133551283
          ],
          [
            73.6617998187852,
            19.89064148306134
          ],
          [
            73.66107119540584,
            19.89061068896434
          ],
          [
            73.66035217013152,
            19.89055675862637
          ],
          [
            73.65976190046081,
            19.89047046059356
          ],
          [
            73.65896552500486,
            19.89042680992687
          ],
          [
            73.65852727795644,
            19.89049185287541
          ],
          [
            73.65805979400264,
            19.89053381499772
          ],
          [
            73.65743068051339,
            19.89067692111236
          ],
          [
            73.65701703636367,
            19.89085663024
          ],
          [
            73.6565688554625,
            19.89103841912913
          ],
          [
            73.6561785827918,
            19.89110265114835
          ],
          [
            73.65557147415245,
            19.8907951483025
          ],
          [
            73.65499762945639,
            19.89057326414025
          ],
          [
            73.65470287349417,
            19.89053671787667
          ],
          [
            73.65436141978051,
            19.89054152120308
          ],
          [
            73.65407043757767,
            19.89055930811229
          ],
          [
            73.65380692968878,
            19.8906123591012
          ],
          [
            73.6536519190315,
            19.89066896436484
          ],
          [
            73.65315061690333,
            19.89091030808336
          ],
          [
            73.65278081689974,
            19.89107029777916
          ],
          [
            73.65242052292245,
            19.89119657632123
          ],
          [
            73.65206464301592,
            19.89126114465853
          ],
          [
            73.65181186819515,
            19.89126494377959
          ],
          [
            73.65155878345162,
            19.89127487150395
          ],
          [
            73.65131465881196,
            19.89127320090908
          ],
          [
            73.6510329430472,
            19.8912311823474
          ],
          [
            73.65069208496246,
            19.89107856780302
          ],
          [
            73.65023060282041,
            19.89080900098335
          ],
          [
            73.6499067481796,
            19.89061318980708
          ],
          [
            73.64971477378671,
            19.89056522253069
          ],
          [
            73.64930038640682,
            19.89059814015925
          ],
          [
            73.64895101272472,
            19.89050687585336
          ],
          [
            73.64883317457502,
            19.89052597880439
          ],
          [
            73.64862527616745,
            19.89054657206388
          ],
          [
            73.64849663890912,
            19.89060503829692
          ],
          [
            73.64826505388561,
            19.89067796456782
          ],
          [
            73.64808610232623,
            19.89073920940277
          ],
          [
            73.64781252037788,
            19.89081419605732
          ],
          [
            73.64760323180934,
            19.89086106224888
          ],
          [
            73.64708240693344,
            19.89104053609438
          ],
          [
            73.64666111015,
            19.89116536001184
          ],
          [
            73.64631213412937,
            19.89130078655707
          ],
          [
            73.64598402958212,
            19.89150991788863
          ],
          [
            73.64590156177476,
            19.89166565959679
          ],
          [
            73.64583262709537,
            19.89184858343429
          ],
          [
            73.6457740292937,
            19.89201225674861
          ],
          [
            73.64567283061503,
            19.89212306775929
          ],
          [
            73.64553580838027,
            19.89221663072508
          ],
          [
            73.64531061007538,
            19.89231165970606
          ],
          [
            73.64507213324414,
            19.89241540689333
          ],
          [
            73.64486096778013,
            19.89257554549059
          ],
          [
            73.64470744737922,
            19.89270754260382
          ],
          [
            73.64463908535537,
            19.89273980249367
          ],
          [
            73.64445545653383,
            19.89274439528175
          ],
          [
            73.64429716203757,
            19.8927578951499
          ],
          [
            73.64420719835292,
            19.89279434100238
          ],
          [
            73.64415831565762,
            19.89289609569446
          ],
          [
            73.64411744526777,
            19.89303529902359
          ],
          [
            73.64407329065085,
            19.89317520416117
          ],
          [
            73.64400281281904,
            19.8932653336737
          ],
          [
            73.64386891101486,
            19.89325274545599
          ],
          [
            73.64367753610186,
            19.89323939103684
          ],
          [
            73.64345963155489,
            19.89321022148349
          ],
          [
            73.64325462912676,
            19.8932603428595
          ],
          [
            73.64298698577075,
            19.89331330565425
          ],
          [
            73.64277936839379,
            19.89335226704793
          ],
          [
            73.64232843451146,
            19.89325020498483
          ],
          [
            73.64208963179009,
            19.89327008295008
          ],
          [
            73.64181082940506,
            19.89337455450722
          ],
          [
            73.64151420050347,
            19.89347577481609
          ],
          [
            73.64129372188538,
            19.89357233383247
          ],
          [
            73.6410964171688,
            19.89362233384045
          ],
          [
            73.64093103333646,
            19.89369359700237
          ],
          [
            73.64081094502845,
            19.89371683319019
          ],
          [
            73.64056371595709,
            19.89336797230131
          ],
          [
            73.64025050279119,
            19.89303118969932
          ],
          [
            73.6399896776546,
            19.89279706154612
          ],
          [
            73.63978679468991,
            19.89263127660134
          ],
          [
            73.63967931608691,
            19.89260344404527
          ],
          [
            73.639297613137,
            19.89269292949055
          ],
          [
            73.63874787585391,
            19.89283555929168
          ],
          [
            73.63800692183902,
            19.89313253093441
          ],
          [
            73.63726998373912,
            19.8933788105395
          ],
          [
            73.63681340930846,
            19.89347936583055
          ],
          [
            73.63644056220477,
            19.89359591759958
          ],
          [
            73.63620959068275,
            19.89376807541298
          ],
          [
            73.63600185234353,
            19.89401176494111
          ],
          [
            73.63574141384576,
            19.89431337867452
          ],
          [
            73.63524804785511,
            19.89493111495433
          ],
          [
            73.63515150122187,
            19.89510159392485
          ],
          [
            73.63512738644916,
            19.89537846642423
          ],
          [
            73.6350493096639,
            19.89563692681783
          ],
          [
            73.63489100675123,
            19.89591792572951
          ],
          [
            73.63457578291468,
            19.89626554883622
          ],
          [
            73.63423198119617,
            19.8964455224067
          ],
          [
            73.63381102558871,
            19.89668113767243
          ],
          [
            73.63340355947469,
            19.89697220411766
          ],
          [
            73.63311053629869,
            19.89718222536013
          ],
          [
            73.63275386382192,
            19.89734622000523
          ],
          [
            73.63235934690478,
            19.89750128370425
          ],
          [
            73.63197116687887,
            19.8976439416941
          ],
          [
            73.63157743104502,
            19.89783978106871
          ],
          [
            73.63125306404466,
            19.8981985121723
          ],
          [
            73.63104449855254,
            19.89849506702559
          ],
          [
            73.63075889141548,
            19.89879395634541
          ],
          [
            73.63031008908554,
            19.89902487822324
          ],
          [
            73.62998648081124,
            19.89911066426446
          ],
          [
            73.62957709816432,
            19.89923382489986
          ],
          [
            73.62922805022083,
            19.89942016544775
          ],
          [
            73.62886248024228,
            19.89956360989774
          ],
          [
            73.62841267990852,
            19.89962307728966
          ],
          [
            73.62811425507915,
            19.89959171699672
          ],
          [
            73.627531259652,
            19.89943585527027
          ],
          [
            73.62713151149363,
            19.89935291157992
          ],
          [
            73.62674493594012,
            19.89922925956933
          ],
          [
            73.62636986641154,
            19.89917315852285
          ],
          [
            73.62590941002918,
            19.89912999581671
          ],
          [
            73.62522775232854,
            19.89912995830147
          ],
          [
            73.62479697640134,
            19.89921342758442
          ],
          [
            73.62457757684724,
            19.89922892757575
          ],
          [
            73.62437323072082,
            19.89922101529813
          ],
          [
            73.62417559899745,
            19.89920729258284
          ],
          [
            73.62374965880097,
            19.8991347673567
          ],
          [
            73.6233544480922,
            19.89899335392201
          ],
          [
            73.62292194702222,
            19.89884133875279
          ],
          [
            73.62244704644131,
            19.89864440945757
          ],
          [
            73.62220892108726,
            19.89863125145613
          ],
          [
            73.62192299567877,
            19.89863989885182
          ],
          [
            73.62173247168444,
            19.898718691557
          ],
          [
            73.62153515785744,
            19.89881207681479
          ],
          [
            73.62128257382348,
            19.89895643731754
          ],
          [
            73.62082662731349,
            19.89920849114689
          ],
          [
            73.6206341382384,
            19.89932230385931
          ],
          [
            73.62023844898023,
            19.89950796438577
          ],
          [
            73.61995567864383,
            19.89963208930083
          ],
          [
            73.61960118236404,
            19.8998206214625
          ],
          [
            73.61929136034682,
            19.89993567194832
          ],
          [
            73.6189260184149,
            19.90005675810126
          ],
          [
            73.61862552961674,
            19.90021192513484
          ],
          [
            73.61839341739359,
            19.90036804448841
          ],
          [
            73.6181045017599,
            19.90054813865061
          ],
          [
            73.6173296724056,
            19.90084609267512
          ],
          [
            73.61661616805247,
            19.90112266423895
          ],
          [
            73.61590296271567,
            19.90141030259935
          ],
          [
            73.6149504737553,
            19.90176297935191
          ],
          [
            73.61435863352874,
            19.90192804169586
          ],
          [
            73.6140807897961,
            19.90206511973897
          ],
          [
            73.6139091360606,
            19.90215673194937
          ],
          [
            73.61359617636313,
            19.9022418144467
          ],
          [
            73.61323787698242,
            19.90229181179064
          ],
          [
            73.61283549106645,
            19.90233087788897
          ],
          [
            73.6121416068983,
            19.9023305268248
          ],
          [
            73.6115989865473,
            19.90229788419753
          ],
          [
            73.61119541543374,
            19.90223624199425
          ],
          [
            73.61088628446021,
            19.90217860445049
          ],
          [
            73.61056919192643,
            19.90213843054512
          ],
          [
            73.61047039368943,
            19.90214110806095
          ],
          [
            73.61037361160054,
            19.90225420649957
          ],
          [
            73.61026822850005,
            19.90243383628801
          ],
          [
            73.6100956954941,
            19.90263657244034
          ],
          [
            73.60989995880612,
            19.90285552848693
          ],
          [
            73.60944739270533,
            19.90322974181947
          ],
          [
            73.60888855599768,
            19.90335127537524
          ],
          [
            73.6079707120875,
            19.90339471560726
          ],
          [
            73.60721523818684,
            19.90344126608158
          ],
          [
            73.60586269171813,
            19.90353339105229
          ],
          [
            73.60502321948616,
            19.90357501121284
          ],
          [
            73.60420001965414,
            19.90351144427862
          ],
          [
            73.60376217488793,
            19.90352276885704
          ],
          [
            73.6029930159448,
            19.9036517551059
          ],
          [
            73.60244061010297,
            19.90373306635131
          ],
          [
            73.60212417257362,
            19.90379002305992
          ],
          [
            73.6017609625094,
            19.90382294497231
          ],
          [
            73.60136416499766,
            19.90396256760852
          ],
          [
            73.60098907777326,
            19.90416916918612
          ],
          [
            73.60060131871,
            19.90444125732626
          ],
          [
            73.60025286009795,
            19.90470455080989
          ],
          [
            73.59997801630495,
            19.90488343201712
          ],
          [
            73.59957276465572,
            19.90522134609317
          ],
          [
            73.59925235321597,
            19.90551488785838
          ],
          [
            73.59901912018802,
            19.90589871603096
          ],
          [
            73.59857437035451,
            19.90677753564695
          ],
          [
            73.59837626484446,
            19.90720667373336
          ],
          [
            73.5981741643367,
            19.90772168581847
          ],
          [
            73.59796353973478,
            19.90805115168185
          ],
          [
            73.59767038318758,
            19.90871075910053
          ],
          [
            73.5975140907976,
            19.90922148819864
          ],
          [
            73.59748949327273,
            19.9095530614649
          ],
          [
            73.5974592526643,
            19.90985800837484
          ],
          [
            73.59741898363423,
            19.91023836802834
          ],
          [
            73.59737461792076,
            19.91072362924205
          ],
          [
            73.59731917171875,
            19.911071925889
          ],
          [
            73.59725452574418,
            19.9112934858714
          ],
          [
            73.59722464439174,
            19.91147340325613
          ],
          [
            73.59723253788772,
            19.91163757208769
          ],
          [
            73.59722647317955,
            19.91178325070069
          ],
          [
            73.59722969428509,
            19.9119599781049
          ],
          [
            73.59723087642861,
            19.91209418253725
          ],
          [
            73.59719187972063,
            19.91237563296405
          ],
          [
            73.59698890976077,
            19.91288375356051
          ],
          [
            73.59688889546248,
            19.91308811478801
          ],
          [
            73.596876265483,
            19.91323797280465
          ],
          [
            73.59687522904417,
            19.91324171051767
          ],
          [
            73.5969233886257,
            19.9133919894726
          ],
          [
            73.59698837785565,
            19.91353920305276
          ],
          [
            73.59711520438235,
            19.91367104671744
          ],
          [
            73.59716936239566,
            19.91380383718614
          ],
          [
            73.59718594856189,
            19.91397299784402
          ],
          [
            73.59721386041703,
            19.91419692923669
          ],
          [
            73.59729477640784,
            19.91459390125121
          ],
          [
            73.5974335619986,
            19.91497351109915
          ],
          [
            73.59752022193656,
            19.91534147574697
          ],
          [
            73.59765011623679,
            19.91562614804304
          ],
          [
            73.59771371763073,
            19.91592560405567
          ],
          [
            73.59773060179616,
            19.91616585810159
          ],
          [
            73.59771118809547,
            19.91640259163146
          ],
          [
            73.59763419841984,
            19.91662991409065
          ],
          [
            73.59756848375258,
            19.9167857040516
          ],
          [
            73.59755057491824,
            19.91698368772324
          ],
          [
            73.59760532436951,
            19.91722032173296
          ],
          [
            73.59773741873136,
            19.91775958923844
          ],
          [
            73.59776277662043,
            19.91802343877527
          ],
          [
            73.59770810523953,
            19.91829817493513
          ],
          [
            73.5976843494043,
            19.91845999273843
          ],
          [
            73.59768718384379,
            19.91866848676456
          ],
          [
            73.59768542954754,
            19.91867940838141
          ],
          [
            73.5976769118034,
            19.91885053278454
          ],
          [
            73.59771642798465,
            19.9190660303633
          ],
          [
            73.59772883893088,
            19.91937017174541
          ],
          [
            73.59776849497531,
            19.91954836920715
          ],
          [
            73.59780434697824,
            19.91977905065468
          ],
          [
            73.59787766384376,
            19.92006325943887
          ],
          [
            73.5979526618557,
            19.92027788883946
          ],
          [
            73.59795555454694,
            19.92052363929462
          ],
          [
            73.59800716910789,
            19.92074172423705
          ],
          [
            73.59804276000305,
            19.92091529223173
          ],
          [
            73.59813232265435,
            19.9210600673625
          ],
          [
            73.59825495411619,
            19.92110728128867
          ],
          [
            73.59837273336171,
            19.92111875246598
          ],
          [
            73.59849258000115,
            19.92114011184639
          ],
          [
            73.59870568890233,
            19.9211605111337
          ],
          [
            73.5989585471862,
            19.92126279886263
          ],
          [
            73.59908026719954,
            19.92137595248982
          ],
          [
            73.59924950410068,
            19.92150690171491
          ],
          [
            73.59943971097196,
            19.92169480172768
          ],
          [
            73.5996093669565,
            19.92182333539036
          ],
          [
            73.59975028662932,
            19.92183292117959
          ],
          [
            73.59989954014561,
            19.92184479870023
          ],
          [
            73.60001367849385,
            19.92185758430144
          ],
          [
            73.60012483273876,
            19.92191017400788
          ],
          [
            73.60022589784994,
            19.92200182174113
          ],
          [
            73.60029929099976,
            19.92206957678183
          ],
          [
            73.60051094970716,
            19.92225584973231
          ],
          [
            73.6005566217529,
            19.92229470509016
          ],
          [
            73.60070821098743,
            19.92234675552335
          ],
          [
            73.60092971029775,
            19.92237723888343
          ],
          [
            73.60100104401943,
            19.92241188979639
          ],
          [
            73.6010925313936,
            19.92255837478213
          ],
          [
            73.60113813363635,
            19.92267414985999
          ],
          [
            73.60118930260998,
            19.92276168005932
          ],
          [
            73.6013085712828,
            19.92294978968434
          ],
          [
            73.60138699767653,
            19.92304100819536
          ],
          [
            73.60147680152774,
            19.92314034150773
          ],
          [
            73.60160271749835,
            19.92325046728573
          ],
          [
            73.6016790767934,
            19.92333472447427
          ],
          [
            73.6017743861464,
            19.92339524650908
          ],
          [
            73.60186666688314,
            19.92338825798234
          ],
          [
            73.60191819781772,
            19.92336273046043
          ],
          [
            73.60198375243355,
            19.92331264907068
          ],
          [
            73.6020389732586,
            19.92328048582721
          ],
          [
            73.60205290357834,
            19.92322575275695
          ],
          [
            73.60210128806548,
            19.92315660365618
          ],
          [
            73.60210224685885,
            19.92315262688694
          ],
          [
            73.60214481895416,
            19.92311919147359
          ],
          [
            73.60219179205123,
            19.92312021063743
          ],
          [
            73.60223962098337,
            19.92314519279345
          ],
          [
            73.60225493522877,
            19.92317495831659
          ],
          [
            73.60225118941968,
            19.92318463695078
          ],
          [
            73.60224733908646,
            19.9231860033081
          ],
          [
            73.60222747934849,
            19.92321943386422
          ],
          [
            73.60221054979417,
            19.92328703231494
          ],
          [
            73.60216085445343,
            19.92335277022103
          ],
          [
            73.60215853400767,
            19.92335443113001
          ],
          [
            73.60212558481398,
            19.92341894676174
          ],
          [
            73.60207646280654,
            19.92347580193573
          ],
          [
            73.60203540647132,
            19.92355459959753
          ],
          [
            73.60200816459556,
            19.92361791949878
          ],
          [
            73.60198426777966,
            19.92381592923534
          ],
          [
            73.60200753078225,
            19.92399948158355
          ],
          [
            73.6020626349942,
            19.9241884471354
          ],
          [
            73.60208368718556,
            19.92442322401056
          ],
          [
            73.60207870254611,
            19.92460058295723
          ],
          [
            73.60199626818843,
            19.92489796725258
          ],
          [
            73.60194065862093,
            19.9250405175962
          ],
          [
            73.60184810896538,
            19.92536003183416
          ],
          [
            73.60178394401416,
            19.92552798647455
          ],
          [
            73.60175764839646,
            19.92566967837834
          ],
          [
            73.60179475390784,
            19.92576878523523
          ],
          [
            73.60190821650076,
            19.92586035136004
          ],
          [
            73.60199824776078,
            19.92597133388254
          ],
          [
            73.60202592068447,
            19.92604655646957
          ],
          [
            73.60200809536478,
            19.92612313927038
          ],
          [
            73.6020071909682,
            19.9261259925255
          ],
          [
            73.60198990747182,
            19.92629135106869
          ],
          [
            73.60200870201054,
            19.92633683526918
          ],
          [
            73.60206992798666,
            19.9264343145899
          ],
          [
            73.60207658905219,
            19.92644286407908
          ],
          [
            73.60218914973464,
            19.92654063422994
          ],
          [
            73.60225305683164,
            19.92664686955162
          ],
          [
            73.60227731283628,
            19.92669727476337
          ],
          [
            73.60235255056195,
            19.9268597718292
          ],
          [
            73.60242268001787,
            19.92703330655079
          ],
          [
            73.60252147889142,
            19.92720447405602
          ],
          [
            73.60253361177395,
            19.92734970927744
          ],
          [
            73.60252977230724,
            19.92749070660227
          ],
          [
            73.60244825546931,
            19.92758824677245
          ],
          [
            73.60244165215401,
            19.92759797888902
          ],
          [
            73.60236766899729,
            19.92767204130144
          ],
          [
            73.60236655383422,
            19.92767480113888
          ],
          [
            73.60235806004589,
            19.92778728334896
          ],
          [
            73.60241262354872,
            19.92790432173381
          ],
          [
            73.60241984758585,
            19.92791565930298
          ],
          [
            73.60242108434768,
            19.9279200077265
          ],
          [
            73.6024510135899,
            19.92801885220686
          ],
          [
            73.60247680937731,
            19.92814359609762
          ],
          [
            73.6024829990258,
            19.92825432728836
          ],
          [
            73.60245105959028,
            19.92833757752089
          ],
          [
            73.60234096369071,
            19.9284949202253
          ],
          [
            73.60223334221797,
            19.92858204046363
          ],
          [
            73.60214682418,
            19.92867299130039
          ],
          [
            73.60207892059351,
            19.92871967447599
          ],
          [
            73.60200851134306,
            19.92882779732973
          ],
          [
            73.6020272263875,
            19.92894623542245
          ],
          [
            73.60204222357662,
            19.92910519955923
          ],
          [
            73.60204355487038,
            19.92910934198234
          ],
          [
            73.60204805968547,
            19.92926709926206
          ],
          [
            73.60202312776761,
            19.92943275201529
          ],
          [
            73.60194616653548,
            19.92954504768594
          ],
          [
            73.60190669739404,
            19.92963197217036
          ],
          [
            73.6017035301601,
            19.92995551912177
          ],
          [
            73.60157411138097,
            19.93014809511424
          ],
          [
            73.60147473055474,
            19.93034818212274
          ],
          [
            73.60139614467477,
            19.93054828305612
          ],
          [
            73.60125121165038,
            19.93082048196424
          ],
          [
            73.60110116891573,
            19.93109715121508
          ],
          [
            73.60086562190747,
            19.9314691861773
          ],
          [
            73.60074816621034,
            19.93158395667538
          ],
          [
            73.60062571046491,
            19.93185941492002
          ],
          [
            73.60051538822509,
            19.93222557795859
          ],
          [
            73.60040995336603,
            19.93256954000392
          ],
          [
            73.6002814454389,
            19.93289986345777
          ],
          [
            73.60017040599828,
            19.93316022731566
          ],
          [
            73.60007388423004,
            19.93348276258716
          ],
          [
            73.599959056354,
            19.93373853302247
          ],
          [
            73.59987449774815,
            19.93389390391236
          ],
          [
            73.59979579699586,
            19.93412025791996
          ],
          [
            73.59971674172837,
            19.93442687917244
          ],
          [
            73.59965048356003,
            19.93477570616695
          ],
          [
            73.59955643570318,
            19.93495752000128
          ],
          [
            73.59949605110438,
            19.9351532115918
          ],
          [
            73.59936643954026,
            19.9353324834611
          ],
          [
            73.59935597407858,
            19.93534421947168
          ],
          [
            73.59935208363451,
            19.93534659884775
          ],
          [
            73.59917315294615,
            19.93545517986147
          ],
          [
            73.59902019482743,
            19.9355904825212
          ],
          [
            73.59881966078966,
            19.93573057700813
          ],
          [
            73.59870249657455,
            19.93587774793373
          ],
          [
            73.59864141882883,
            19.93609403180157
          ],
          [
            73.59856383051728,
            19.93641509690773
          ],
          [
            73.59846958654293,
            19.93660878707608
          ],
          [
            73.59830908460243,
            19.93675390664048
          ],
          [
            73.59804141565954,
            19.93692213305668
          ],
          [
            73.59795898289211,
            19.93693914791939
          ],
          [
            73.59767891911261,
            19.93701212339988
          ],
          [
            73.59740129938679,
            19.93703440762045
          ],
          [
            73.59701542439791,
            19.9369892765594
          ],
          [
            73.59671023570684,
            19.93695274698484
          ],
          [
            73.59645393291237,
            19.93690971946463
          ],
          [
            73.59616584143873,
            19.93693609909667
          ],
          [
            73.59596619370988,
            19.93697854167781
          ],
          [
            73.59581773537172,
            19.93704377992616
          ],
          [
            73.59573104797109,
            19.93714767414443
          ],
          [
            73.59573577353336,
            19.93715542741197
          ],
          [
            73.59568300235611,
            19.93728597756199
          ],
          [
            73.59568613196109,
            19.93745922600923
          ],
          [
            73.59568585031639,
            19.93746652164425
          ],
          [
            73.5956730977709,
            19.93763303587833
          ],
          [
            73.59566473655595,
            19.93779713275988
          ],
          [
            73.59561339585213,
            19.9379303651497
          ],
          [
            73.59561034541635,
            19.9379378374418
          ],
          [
            73.59546439704614,
            19.9380841979665
          ],
          [
            73.5954586407123,
            19.93809021943257
          ],
          [
            73.5952550039661,
            19.9382436271942
          ],
          [
            73.59508597468539,
            19.93837034017537
          ],
          [
            73.5947794965143,
            19.9384929634843
          ],
          [
            73.59453368016472,
            19.93859890211502
          ],
          [
            73.59433716109703,
            19.93870672862423
          ],
          [
            73.59406011547199,
            19.93887344042977
          ],
          [
            73.59389331187336,
            19.93899721906092
          ],
          [
            73.59372622157193,
            19.93910495156843
          ],
          [
            73.59357859417388,
            19.93915312088327
          ],
          [
            73.59344459064395,
            19.93919246660003
          ],
          [
            73.59329994730867,
            19.93925336174716
          ],
          [
            73.59322078660271,
            19.93932244357384
          ],
          [
            73.59319508014777,
            19.93940291057491
          ],
          [
            73.59324886110122,
            19.93951923384853
          ],
          [
            73.59326644163383,
            19.93967660610869
          ],
          [
            73.59330310394259,
            19.93984626365917
          ],
          [
            73.59329698314752,
            19.94010361867276
          ],
          [
            73.59333890105268,
            19.94031342368687
          ],
          [
            73.59336072781666,
            19.94062025715467
          ],
          [
            73.59336794599122,
            19.94082653481681
          ],
          [
            73.59327856732423,
            19.94111568166222
          ],
          [
            73.59317454134059,
            19.94119808266084
          ],
          [
            73.5929846563417,
            19.94138865663616
          ],
          [
            73.59280920619246,
            19.941482800155
          ],
          [
            73.59252334721364,
            19.94163427100763
          ],
          [
            73.59220319277524,
            19.94181516000142
          ],
          [
            73.59183237266102,
            19.94207718174044
          ],
          [
            73.59150289523362,
            19.94234901473007
          ],
          [
            73.59125424115237,
            19.9425754336874
          ],
          [
            73.59077124112024,
            19.94307603357555
          ],
          [
            73.59054027240019,
            19.94323791564159
          ],
          [
            73.59031262893185,
            19.94336910513283
          ],
          [
            73.59010047454993,
            19.9434647282386
          ],
          [
            73.58998730335291,
            19.94357495576013
          ],
          [
            73.58989961623848,
            19.94370108987416
          ],
          [
            73.58976965035914,
            19.94394502749354
          ],
          [
            73.58962182817304,
            19.94416206428872
          ],
          [
            73.5894434661896,
            19.94428954087112
          ],
          [
            73.58931738533494,
            19.94438766234513
          ],
          [
            73.58897802512038,
            19.94453882519119
          ],
          [
            73.58872769374914,
            19.94461778659424
          ],
          [
            73.58850940304532,
            19.94469015808814
          ],
          [
            73.58827436126265,
            19.9447615616185
          ],
          [
            73.58809919339807,
            19.94485955970475
          ],
          [
            73.587944728058,
            19.94497213094234
          ],
          [
            73.58780220337444,
            19.94520000509937
          ],
          [
            73.58771081417787,
            19.94538729932139
          ],
          [
            73.58763074050202,
            19.94551210787698
          ],
          [
            73.58759780980249,
            19.94559923511062
          ],
          [
            73.58756438335978,
            19.9457862392592
          ],
          [
            73.587614083267,
            19.94598798283835
          ],
          [
            73.5876107744886,
            19.94625128658156
          ],
          [
            73.58767854903863,
            19.94647756137569
          ],
          [
            73.58775194704823,
            19.94661708754999
          ],
          [
            73.58784420583171,
            19.94674621576705
          ],
          [
            73.5879648535266,
            19.94684798617422
          ],
          [
            73.58812095210315,
            19.94696705928946
          ],
          [
            73.58824926420687,
            19.94704995073839
          ],
          [
            73.58856048955114,
            19.94706039468251
          ],
          [
            73.58878740231644,
            19.94704361904037
          ],
          [
            73.58896074749953,
            19.94699209270876
          ],
          [
            73.58915843255818,
            19.94699673599712
          ],
          [
            73.58943369574932,
            19.94691041276027
          ],
          [
            73.58962800009135,
            19.94694544014339
          ],
          [
            73.58970969380825,
            19.94696766656684
          ],
          [
            73.58975036584064,
            19.94708675349418
          ],
          [
            73.58974941821613,
            19.94709412346229
          ],
          [
            73.58975368320847,
            19.94724256595797
          ],
          [
            73.58976235321974,
            19.9473921606279
          ],
          [
            73.58974993139564,
            19.94753293350757
          ],
          [
            73.58976600353782,
            19.94783610867293
          ],
          [
            73.58985354298967,
            19.94810117536844
          ],
          [
            73.58993363025971,
            19.94836103715379
          ],
          [
            73.59004518956648,
            19.94867773812447
          ],
          [
            73.59020947181592,
            19.94907566593733
          ],
          [
            73.59036365796149,
            19.94953357471762
          ],
          [
            73.59054262217286,
            19.94995141734688
          ],
          [
            73.59065591757516,
            19.95033786397586
          ],
          [
            73.59078542577429,
            19.95079124191252
          ],
          [
            73.59098567907795,
            19.95140452634085
          ],
          [
            73.59118298574587,
            19.95208652173985
          ],
          [
            73.59125337651163,
            19.95244915003872
          ],
          [
            73.59142192051762,
            19.95291920949696
          ],
          [
            73.59153193669786,
            19.95334231873579
          ],
          [
            73.59159742498893,
            19.95364038188506
          ],
          [
            73.59172386193775,
            19.95400673838755
          ],
          [
            73.59179565520489,
            19.95428623681985
          ],
          [
            73.59182995000124,
            19.95447053321926
          ],
          [
            73.59186680403747,
            19.95458201987421
          ],
          [
            73.59196425421,
            19.95463810912588
          ],
          [
            73.59212751593905,
            19.95464575392871
          ],
          [
            73.59243450704287,
            19.95465502542822
          ],
          [
            73.59297572874102,
            19.95470592758304
          ],
          [
            73.59354474433322,
            19.95474648180182
          ],
          [
            73.59376357050243,
            19.95476498117296
          ],
          [
            73.59448752895786,
            19.95479873729893
          ],
          [
            73.59520675228292,
            19.95487127808422
          ],
          [
            73.5959508159182,
            19.95488438436197
          ],
          [
            73.59670196418908,
            19.9549639347914
          ],
          [
            73.5974156249708,
            19.95499064866269
          ],
          [
            73.59812864924174,
            19.95511938448014
          ],
          [
            73.59890178646222,
            19.95520578878351
          ],
          [
            73.59954348230579,
            19.95527199517539
          ],
          [
            73.6002485885511,
            19.95541431380622
          ],
          [
            73.60072938207607,
            19.9554413776903
          ],
          [
            73.60096797059956,
            19.95550024201134
          ],
          [
            73.60117179561708,
            19.95554344711082
          ],
          [
            73.60103267663544,
            19.95568147221782
          ],
          [
            73.600864653825,
            19.9557890284404
          ],
          [
            73.6008487756587,
            19.95580417859108
          ],
          [
            73.60062837168928,
            19.95595509333663
          ],
          [
            73.60034933727336,
            19.95619098661815
          ],
          [
            73.60005117537892,
            19.95642666236648
          ],
          [
            73.59975744620043,
            19.95673150894663
          ],
          [
            73.5994565610117,
            19.95697266525714
          ],
          [
            73.5991775862622,
            19.95734004969426
          ],
          [
            73.5988134564527,
            19.95771571976297
          ],
          [
            73.59846815813671,
            19.9581032528202
          ],
          [
            73.59830317511609,
            19.95838626077169
          ],
          [
            73.59818833402528,
            19.95864570361948
          ],
          [
            73.59800722754568,
            19.95902419126449
          ],
          [
            73.59784169302236,
            19.95945017466256
          ],
          [
            73.59762709212666,
            19.95993058042402
          ],
          [
            73.59742276106421,
            19.9603383069574
          ],
          [
            73.59716971756022,
            19.96072865406603
          ],
          [
            73.59682807488589,
            19.96105307532172
          ],
          [
            73.59648073650989,
            19.96131009635772
          ],
          [
            73.59581527857371,
            19.96174016511447
          ],
          [
            73.5945537790244,
            19.96247148937185
          ],
          [
            73.59350456345474,
            19.96311726197392
          ],
          [
            73.59264178364357,
            19.96380068254019
          ],
          [
            73.59218942451133,
            19.96466498541337
          ],
          [
            73.59208499694637,
            19.96498787739488
          ],
          [
            73.59202416776387,
            19.96537170560183
          ],
          [
            73.591926752005,
            19.96567634866351
          ],
          [
            73.5919223969235,
            19.96603102755108
          ],
          [
            73.59178600420489,
            19.96645544990603
          ],
          [
            73.59140669045271,
            19.96718049496604
          ],
          [
            73.59122539754838,
            19.96751220133619
          ],
          [
            73.59103107605786,
            19.9678008339777
          ],
          [
            73.59100088215446,
            19.96816647823781
          ],
          [
            73.59094373442568,
            19.96853654204689
          ],
          [
            73.59090653066664,
            19.96886092268118
          ],
          [
            73.59075323016785,
            19.96941041871857
          ],
          [
            73.59060318928377,
            19.9695997825135
          ],
          [
            73.59047987297747,
            19.96968217141984
          ],
          [
            73.59040676482564,
            19.96975119306968
          ],
          [
            73.59032919444736,
            19.969976949927
          ],
          [
            73.59019397149608,
            19.9704357572998
          ],
          [
            73.59013058512876,
            19.9709404123104
          ],
          [
            73.5899736775617,
            19.9712911247566
          ],
          [
            73.58965112316226,
            19.97190321182197
          ],
          [
            73.58854496801759,
            19.97297774756416
          ],
          [
            73.58804790113247,
            19.9733755371925
          ],
          [
            73.58761836581348,
            19.97365917483982
          ],
          [
            73.58696348444299,
            19.97420667060038
          ],
          [
            73.58642271477561,
            19.97463472088462
          ],
          [
            73.58551743942795,
            19.9752395143707
          ],
          [
            73.58526055007185,
            19.97537362343904
          ],
          [
            73.58443830181116,
            19.97585561201587
          ],
          [
            73.58402495185321,
            19.97611387516962
          ],
          [
            73.58298928959854,
            19.97714166488582
          ],
          [
            73.5825884522502,
            19.9775002487464
          ],
          [
            73.58158138888803,
            19.97904705493145
          ],
          [
            73.5813937770611,
            19.9796955984516
          ],
          [
            73.58134293515936,
            19.98009154821968
          ],
          [
            73.5812184887066,
            19.98062417625048
          ],
          [
            73.58116360541578,
            19.98107116640173
          ],
          [
            73.58117434947687,
            19.98147155994773
          ],
          [
            73.58128490773504,
            19.9818835420292
          ],
          [
            73.5813741799913,
            19.98244761296044
          ],
          [
            73.58147957476852,
            19.98299976996786
          ],
          [
            73.58153348686713,
            19.98356990499303
          ],
          [
            73.58152917256756,
            19.98413489309566
          ],
          [
            73.58153039658784,
            19.98466624193395
          ],
          [
            73.58147474668921,
            19.98501013190774
          ],
          [
            73.5813192481278,
            19.98543451661975
          ],
          [
            73.58117129387243,
            19.98578955666173
          ],
          [
            73.5809871118234,
            19.98624546826742
          ],
          [
            73.58082765680162,
            19.98649247197286
          ],
          [
            73.58049982754595,
            19.98718533880871
          ],
          [
            73.5801934519185,
            19.98750292973659
          ],
          [
            73.57969109991377,
            19.98804656701802
          ],
          [
            73.5793069191573,
            19.98849518528053
          ],
          [
            73.57893470651406,
            19.98889290350353
          ],
          [
            73.57868927850413,
            19.98898392073837
          ],
          [
            73.57853054952227,
            19.98896894466642
          ],
          [
            73.57827691478593,
            19.98898180898608
          ],
          [
            73.5779284076186,
            19.9889715624311
          ],
          [
            73.577655325919,
            19.98900778468042
          ],
          [
            73.57735465358707,
            19.98910257591519
          ],
          [
            73.57698875187293,
            19.9893230167967
          ],
          [
            73.57655072152008,
            19.98959264616629
          ],
          [
            73.57603464898531,
            19.98990618496403
          ],
          [
            73.57582724562732,
            19.99003197367281
          ],
          [
            73.5754289133088,
            19.99005969721369
          ],
          [
            73.57505377721597,
            19.99009863792488
          ],
          [
            73.57459613333712,
            19.9900867398976
          ],
          [
            73.57405863827029,
            19.99009192121948
          ],
          [
            73.5732703251244,
            19.99011091773295
          ],
          [
            73.57293739770083,
            19.99017239885127
          ],
          [
            73.57246933338253,
            19.9901720008774
          ],
          [
            73.57204101988607,
            19.9902008064576
          ],
          [
            73.57143552591621,
            19.99004922084563
          ],
          [
            73.57063326166946,
            19.99022751184434
          ],
          [
            73.57033020979196,
            19.9903181180853
          ],
          [
            73.56988600069619,
            19.99048600866058
          ],
          [
            73.56950044103397,
            19.99058218506731
          ],
          [
            73.56928669617723,
            19.99062742988128
          ],
          [
            73.56906270621997,
            19.99071250512224
          ],
          [
            73.568831023888,
            19.99077419397218
          ],
          [
            73.56853758074756,
            19.99084567291956
          ],
          [
            73.56827129627587,
            19.99096041639651
          ],
          [
            73.56780961301685,
            19.9910819378781
          ],
          [
            73.567040302664,
            19.99133097717192
          ],
          [
            73.56659729999016,
            19.9914722127136
          ],
          [
            73.56626693494168,
            19.9916140320973
          ],
          [
            73.56589446047164,
            19.9917451518992
          ],
          [
            73.56541495755015,
            19.99145724600663
          ],
          [
            73.56475552843428,
            19.99097837948354
          ],
          [
            73.56451468217456,
            19.99087232434067
          ],
          [
            73.56395061871486,
            19.99071897903551
          ],
          [
            73.56342749171995,
            19.99062531183658
          ],
          [
            73.56289997019701,
            19.99051976840805
          ],
          [
            73.56270981404934,
            19.99038188639104
          ],
          [
            73.56251022451548,
            19.99024794263735
          ],
          [
            73.56238739908179,
            19.9901458011913
          ],
          [
            73.56223840136941,
            19.99004695422059
          ],
          [
            73.56201262752998,
            19.98986936863011
          ],
          [
            73.56148162713853,
            19.98949576783722
          ],
          [
            73.56122228541459,
            19.98928209441143
          ],
          [
            73.56093794385367,
            19.98905491246257
          ],
          [
            73.56070506590598,
            19.98890273014998
          ],
          [
            73.5600652403702,
            19.98843639584907
          ],
          [
            73.55994475341771,
            19.98830966600899
          ],
          [
            73.55988922653857,
            19.98800316986014
          ],
          [
            73.5598094437565,
            19.98772335368252
          ],
          [
            73.55972336951645,
            19.98748839286838
          ],
          [
            73.55948474988058,
            19.9871800283373
          ],
          [
            73.55929929989833,
            19.98687742164158
          ],
          [
            73.55910183405904,
            19.98651901616931
          ],
          [
            73.55880604032359,
            19.98610290382552
          ],
          [
            73.55869951455763,
            19.98591983725593
          ],
          [
            73.55823476255755,
            19.98554628133866
          ],
          [
            73.55775886959208,
            19.98513294661125
          ],
          [
            73.55723831132633,
            19.98473019933266
          ],
          [
            73.55673959231696,
            19.98447877853741
          ],
          [
            73.55616904857557,
            19.98417875759635
          ],
          [
            73.55560884851856,
            19.98393874393468
          ],
          [
            73.55496573791919,
            19.9835980209755
          ],
          [
            73.55470667497407,
            19.9834320566942
          ],
          [
            73.55444206853664,
            19.98326873068132
          ],
          [
            73.55435034701947,
            19.98321820895455
          ],
          [
            73.55417384862267,
            19.98267197729531
          ],
          [
            73.55413761956501,
            19.98205573554475
          ],
          [
            73.55417135942021,
            19.98145652970801
          ],
          [
            73.55427106666825,
            19.98074311493458
          ],
          [
            73.55441610542793,
            19.98011444824402
          ],
          [
            73.55457376808964,
            19.97942786495085
          ],
          [
            73.55467323031793,
            19.97880897475493
          ],
          [
            73.554742269168,
            19.97822738545499
          ],
          [
            73.55475584800855,
            19.97799104043815
          ],
          [
            73.5549201249735,
            19.97776041001605
          ],
          [
            73.55528448857555,
            19.9770416455137
          ],
          [
            73.55545382549948,
            19.97617917351694
          ],
          [
            73.55542910738664,
            19.97530069008712
          ],
          [
            73.55543162688123,
            19.97463571432106
          ],
          [
            73.5554184873667,
            19.97408758014968
          ],
          [
            73.55550466262176,
            19.97357007703449
          ],
          [
            73.55564390829778,
            19.97291078048321
          ],
          [
            73.55568226745089,
            19.97266920077311
          ],
          [
            73.5552395137466,
            19.97275974755221
          ],
          [
            73.55501841630286,
            19.9728305286995
          ],
          [
            73.5546407487001,
            19.97285835973602
          ],
          [
            73.55425724730105,
            19.97263982427429
          ],
          [
            73.55405892031094,
            19.97233479653994
          ],
          [
            73.55370306232524,
            19.97208543096885
          ],
          [
            73.55330738414902,
            19.97191981025188
          ],
          [
            73.55295951919192,
            19.97191330739901
          ],
          [
            73.5519418189712,
            19.97174060849915
          ],
          [
            73.55137423970825,
            19.97172518997964
          ],
          [
            73.55038502255839,
            19.97131940741448
          ],
          [
            73.54973289040824,
            19.97122537536204
          ],
          [
            73.54924382773294,
            19.97112124515391
          ],
          [
            73.54848524111117,
            19.97089359382412
          ],
          [
            73.54776241417332,
            19.97081740512548
          ],
          [
            73.5473397252012,
            19.97066556255312
          ],
          [
            73.54663257272772,
            19.97053553827574
          ],
          [
            73.54592302332297,
            19.97011056199786
          ],
          [
            73.54537085260598,
            19.96991525117821
          ],
          [
            73.54461504097684,
            19.96989898057947
          ],
          [
            73.54382939131301,
            19.96975888574665
          ],
          [
            73.54327388873763,
            19.96942842296743
          ],
          [
            73.54297607054826,
            19.96920884021615
          ],
          [
            73.54270306625922,
            19.96906449098226
          ],
          [
            73.54241942667467,
            19.96904698730159
          ],
          [
            73.54208806546914,
            19.96907690277821
          ],
          [
            73.54160912790942,
            19.96910435650387
          ],
          [
            73.54094723050578,
            19.96893591026891
          ],
          [
            73.5404525142886,
            19.96876580889956
          ],
          [
            73.54029374790302,
            19.96872804745467
          ],
          [
            73.5396503193398,
            19.96874554582017
          ],
          [
            73.5389019086311,
            19.9688565743886
          ],
          [
            73.53789661458293,
            19.9688904180713
          ],
          [
            73.53696629605777,
            19.96901566669114
          ],
          [
            73.53583923650982,
            19.9691362486855
          ],
          [
            73.53484878819316,
            19.96905592316422
          ],
          [
            73.53411660501015,
            19.96890178819487
          ],
          [
            73.53348167523897,
            19.96868647371054
          ],
          [
            73.5328965642172,
            19.96822490842701
          ],
          [
            73.53254804174722,
            19.96792350116903
          ],
          [
            73.53171828844381,
            19.96780195617163
          ],
          [
            73.53115281715134,
            19.96778127562435
          ],
          [
            73.5305314608794,
            19.96725207664691
          ],
          [
            73.52981053627485,
            19.96678770496908
          ],
          [
            73.52939086746089,
            19.96650374899507
          ],
          [
            73.5290118054885,
            19.96606911736752
          ],
          [
            73.52900720059051,
            19.96604184642216
          ],
          [
            73.52865282387127,
            19.96579907609311
          ],
          [
            73.52844605837336,
            19.96558119725477
          ],
          [
            73.52822886144067,
            19.9652690375607
          ],
          [
            73.52790487995978,
            19.96504970758669
          ],
          [
            73.5275447476597,
            19.96494549888643
          ],
          [
            73.52710874923561,
            19.96467061786561
          ],
          [
            73.52687497993415,
            19.96428882694133
          ],
          [
            73.52666395421929,
            19.96386783085547
          ],
          [
            73.5265275559004,
            19.96342739382401
          ],
          [
            73.52633992661093,
            19.96305194196664
          ],
          [
            73.52591082236293,
            19.96250802211526
          ],
          [
            73.52564141344851,
            19.9621301462063
          ],
          [
            73.52533135168015,
            19.9618668167634
          ],
          [
            73.524904401803,
            19.96148040180882
          ],
          [
            73.52433274596336,
            19.96106919498036
          ],
          [
            73.5235868992571,
            19.960484374188
          ],
          [
            73.5229708081422,
            19.96003859659578
          ],
          [
            73.52243600154057,
            19.95956683921569
          ],
          [
            73.52200743532892,
            19.95908190771136
          ],
          [
            73.5215902366239,
            19.95849540144253
          ],
          [
            73.52137712377183,
            19.95802622596886
          ],
          [
            73.52129709233347,
            19.95756473635385
          ],
          [
            73.5212339727929,
            19.95717424491409
          ],
          [
            73.52121742221104,
            19.95662058056249
          ],
          [
            73.52130631143142,
            19.95595074559752
          ],
          [
            73.52141077342353,
            19.95563233023178
          ],
          [
            73.5215742176849,
            19.95537379549976
          ],
          [
            73.52182905815835,
            19.95518842184168
          ],
          [
            73.52303772785959,
            19.95394546371873
          ],
          [
            73.5237472152297,
            19.9530317489932
          ],
          [
            73.52445924228806,
            19.95214319466484
          ],
          [
            73.52502823898547,
            19.95121486395406
          ],
          [
            73.52563651264094,
            19.95044859294475
          ],
          [
            73.5261411193695,
            19.94971781005762
          ],
          [
            73.52655816150212,
            19.94921055612333
          ],
          [
            73.52765007993042,
            19.94779780325415
          ],
          [
            73.52858010702442,
            19.94650608646729
          ],
          [
            73.5292489553671,
            19.94573330669609
          ],
          [
            73.52972378566028,
            19.94523815602347
          ],
          [
            73.52955476018222,
            19.94507030350351
          ],
          [
            73.52850033519032,
            19.94458518317741
          ],
          [
            73.52813963488671,
            19.94444614038294
          ],
          [
            73.52783666317754,
            19.94457590167349
          ],
          [
            73.5273747211395,
            19.94461737417375
          ],
          [
            73.52689247150586,
            19.94442509305626
          ],
          [
            73.52659809172006,
            19.94441120656889
          ],
          [
            73.52654868722412,
            19.94401286831285
          ],
          [
            73.52644962100278,
            19.9438006793776
          ],
          [
            73.5261506760148,
            19.94352667117585
          ],
          [
            73.52611571929312,
            19.94351130469266
          ],
          [
            73.52581400537427,
            19.94318986131849
          ],
          [
            73.52564970854489,
            19.94281408711686
          ],
          [
            73.52556929620516,
            19.94236485897539
          ],
          [
            73.52547202994582,
            19.94202449661639
          ],
          [
            73.52547106074738,
            19.94153193115107
          ],
          [
            73.52557181486462,
            19.94137659277238
          ],
          [
            73.52572392783357,
            19.94129383801627
          ],
          [
            73.5259286997188,
            19.94124480740428
          ],
          [
            73.52612746307331,
            19.94123292880455
          ],
          [
            73.52627192193059,
            19.941094731987
          ],
          [
            73.52634434529797,
            19.94094784252384
          ],
          [
            73.52642937301317,
            19.940719899421
          ],
          [
            73.52642760272943,
            19.94047235248686
          ],
          [
            73.52642564786488,
            19.940446375969
          ],
          [
            73.5263874647061,
            19.9402530760184
          ],
          [
            73.5263488927576,
            19.94007053099264
          ],
          [
            73.52630142690668,
            19.93984988742412
          ],
          [
            73.52622621502084,
            19.93963736632555
          ],
          [
            73.52616393572363,
            19.93944908436437
          ],
          [
            73.52592485669274,
            19.93921740259137
          ],
          [
            73.52591560408368,
            19.93919175151091
          ],
          [
            73.52573547470304,
            19.9390417758101
          ],
          [
            73.52562721919291,
            19.93886127366099
          ],
          [
            73.52557503719026,
            19.93872996805604
          ],
          [
            73.52558139274137,
            19.93839970494414
          ],
          [
            73.52590637419968,
            19.93792580405372
          ],
          [
            73.5263957869722,
            19.93735837526108
          ],
          [
            73.52675982491344,
            19.93710588964593
          ],
          [
            73.52694944371868,
            19.9369201421874
          ],
          [
            73.52715089017417,
            19.93681917627126
          ],
          [
            73.52743232702088,
            19.93679881062846
          ],
          [
            73.52776082069636,
            19.93675783186593
          ],
          [
            73.5280873774156,
            19.93668117093402
          ],
          [
            73.5285177563113,
            19.93657526582041
          ],
          [
            73.52893706136238,
            19.9364859401783
          ],
          [
            73.5291245400359,
            19.93634811512181
          ],
          [
            73.52913721265804,
            19.93632222590076
          ],
          [
            73.52913907935294,
            19.93631531828094
          ],
          [
            73.52925977042446,
            19.93601493263457
          ],
          [
            73.52925479373782,
            19.93601295787622
          ],
          [
            73.52934532138764,
            19.93574022348306
          ],
          [
            73.52938823911168,
            19.93547928362486
          ],
          [
            73.5293929953232,
            19.93546088233608
          ],
          [
            73.52936409882878,
            19.93531501106005
          ],
          [
            73.52916654712521,
            19.93530193784989
          ],
          [
            73.52883840683025,
            19.93519798861398
          ],
          [
            73.52846668973396,
            19.93496655566369
          ],
          [
            73.5282899891932,
            19.93487387878703
          ],
          [
            73.52830747461951,
            19.93445169250082
          ],
          [
            73.52829045385766,
            19.93410436872433
          ],
          [
            73.52825620360463,
            19.93395334427921
          ],
          [
            73.52815622566425,
            19.93364198210536
          ],
          [
            73.52802750952029,
            19.93338816457859
          ],
          [
            73.52798681371733,
            19.93315167738779
          ],
          [
            73.52790204808086,
            19.93307741750742
          ]
        ]
      }
    },
    {
      "type": "Feature",
      "properties": {
        "name": "Vip root 1"
      },
      "geometry": {
        "type": "LineString",
        "coordinates": [
          [
            73.59174118374395,
            19.95460795055309
          ],
          [
            73.59012505123485,
            19.95442905428459
          ],
          [
            73.58758809877533,
            19.95374383221957
          ],
          [
            73.58556983432752,
            19.95319868813569
          ],
          [
            73.58317440622479,
            19.95302650670725
          ],
          [
            73.58043814431593,
            19.9526679066634
          ],
          [
            73.57826510390522,
            19.95238860705484
          ],
          [
            73.57579043030123,
            19.95205363958848
          ],
          [
            73.5732966850212,
            19.95181394884453
          ],
          [
            73.56962319567066,
            19.95201602090047
          ],
          [
            73.56837231522951,
            19.95199936693496
          ],
          [
            73.56497489067972,
            19.95097271126255
          ],
          [
            73.56365762707986,
            19.95041182886775
          ],
          [
            73.56212413916066,
            19.94963560208084
          ],
          [
            73.56095772532343,
            19.94915318666982
          ],
          [
            73.55998359967047,
            19.94872878555807
          ],
          [
            73.55938807336906,
            19.94847138861628
          ],
          [
            73.55773956180045,
            19.94774254943107
          ],
          [
            73.55691467593523,
            19.94736027939383
          ],
          [
            73.55692093714107,
            19.94736247210859
          ],
          [
            73.55593495013372,
            19.94674069222979
          ],
          [
            73.55514488969312,
            19.94622133115749
          ],
          [
            73.55410282362968,
            19.9456106745215
          ],
          [
            73.55331913090048,
            19.94517015867573
          ],
          [
            73.55253852082235,
            19.94496966825815
          ],
          [
            73.55196479867799,
            19.94484854146505
          ],
          [
            73.55125770976987,
            19.94480100217791
          ],
          [
            73.54994316613977,
            19.94473184716861
          ],
          [
            73.54905666237454,
            19.94451250088409
          ],
          [
            73.5483662840619,
            19.94420128698853
          ],
          [
            73.54771342806013,
            19.94383428602569
          ],
          [
            73.54685721864361,
            19.94341477026591
          ],
          [
            73.54590574738957,
            19.94293907595813
          ],
          [
            73.5452819119768,
            19.94270202380651
          ],
          [
            73.54357537556389,
            19.9419047508538
          ],
          [
            73.54206768929059,
            19.94125562648146
          ],
          [
            73.54107560840572,
            19.94073895717429
          ],
          [
            73.53996730426003,
            19.93997995169015
          ],
          [
            73.53880882837908,
            19.93924431302532
          ],
          [
            73.5377166574782,
            19.93864541649291
          ],
          [
            73.53711558250501,
            19.93824781442749
          ],
          [
            73.53663042923449,
            19.93786744042383
          ],
          [
            73.53631831033688,
            19.93748653323108
          ],
          [
            73.53631302250065,
            19.93748454091908
          ],
          [
            73.536041921067,
            19.93721689862109
          ],
          [
            73.53576425641319,
            19.93697073893242
          ],
          [
            73.53524012944928,
            19.93647910162766
          ],
          [
            73.53444577505037,
            19.93565294864186
          ],
          [
            73.53388832366744,
            19.93505122421869
          ],
          [
            73.5333698815432,
            19.93465173581839
          ],
          [
            73.53265763820413,
            19.93421344389521
          ],
          [
            73.53243332407558,
            19.93398006954398
          ],
          [
            73.53192200827621,
            19.93360502867277
          ],
          [
            73.5315356811512,
            19.93314895397619
          ],
          [
            73.53116930341777,
            19.93288499366965
          ],
          [
            73.53080554500117,
            19.93271390267679
          ],
          [
            73.53079485143789,
            19.93270988971513
          ],
          [
            73.53046554282577,
            19.93265095698873
          ],
          [
            73.53012425450099,
            19.93260949167756
          ],
          [
            73.5298055736962,
            19.93261668141946
          ],
          [
            73.52962900323178,
            19.93278422964467
          ],
          [
            73.52940357229575,
            19.93291999872989
          ],
          [
            73.52927164993059,
            19.93305032654264
          ],
          [
            73.52903529169053,
            19.93315014806194
          ],
          [
            73.52877371729834,
            19.93320999107036
          ],
          [
            73.52843509478069,
            19.9332507634049
          ],
          [
            73.52821903278281,
            19.93319487901423
          ],
          [
            73.52805717856242,
            19.93313855070624
          ],
          [
            73.52790249794067,
            19.93303030923326
          ],
          [
            73.52778835302678,
            19.93295356363642
          ],
          [
            73.52779607242675,
            19.93292160483206
          ],
          [
            73.52779756281011,
            19.9327714959522
          ]
        ]
      }
    }
  ]
}