{
  "type": "FeatureCollection",
  "features": [
    {
      "type": "Feature",
      "properties": { "name": "Bus Stand", "type": "police-quarter", "fileName": "Laddha Land.kml" },
      "geometry": {
        "type": "Polygon",
        "coordinates": [[
          [73.56096190634925,19.94610190983207],
          [73.56085832658754,19.94614398611301],
          [73.5606057998443,19.94622941625935],
          [73.56059964774713,19.94622981610348],
          [73.56028332062482,19.94628660338953],
          [73.56002945603116,19.94629131675363],
          [73.55972824898517,19.94605526379935],
          [73.55940751269128,19.94568908731292],
          [73.55912815876654,19.94486388502501],
          [73.5611075602895,19.94435627574989],
          [73.56126156759268,19.9446935060944],
          [73.56168622163597,19.94575464587013],
          [73.56096190634925,19.94610190983207]
        ]]
      }
    },
    {
      "type": "Feature",
      "properties": { 
        "name": "accomodation", 
        "type": "police-quarter", 
        "fileName": "Laddha Land.kml",
        "capacity": 6600,
        "existingCapacity": 0,
        "temporaryCapacity": 6600
      },
      "geometry": {
        "type": "Polygon",
        "coordinates": [[
          [73.55916066046534,19.94483516204218],
          [73.5591147324678,19.94404668810142],
          [73.55928206322962,19.94376690866019],
          [73.55926470111859,19.94278477342351],
          [73.56049208405905,19.94299441654358],
          [73.56062034860668,19.94366216386279],
          [73.56108644395111,19.94435018372794],
          [73.55916066046534,19.94483516204218]
        ]]
      }
    },
    {
      "type": "Feature",
      "properties": { 
        "name": "goraksha dairy", 
        "type": "police-quarter", 
        "fileName": "Laddha Land.kml",
        "capacity": 6800,
        "existingCapacity": 1400,
        "temporaryCapacity": 5400,
        "mtAccommodated": true
      },
      "geometry": {
        "type": "Polygon",
        "coordinates": [[
          [73.56286155770131,19.95273217908891],
          [73.56094701488796,19.95210674098718],
          [73.55996644266047,19.95145382887496],
          [73.55996358974866,19.94899558557858],
          [73.56389614225758,19.95067308624792],
          [73.56286155770131,19.95273217908891]
        ]]
      }
    }
  ]
}
