{
  "type": "FeatureCollection",
  "features": [
    {
      "type": "Feature",
      "properties": {
        "id": "green-corridor-route",
        "scenarioId": "green-corridor",
        "name": "Emergency Evacuation Route",
        "type": "route"
      },
      "geometry": {
        "type": "LineString",
        "coordinates": [
          [
            73.91422,
            20.116345
          ],
          [
            73.91611,
            20.116483
          ],
          [
            73.916248,
            20.116467
          ],
          [
            73.916374,
            20.116416
          ],
          [
            73.916485,
            20.116316
          ],
          [
            73.91659,
            20.116164
          ],
          [
            73.917668,
            20.114503
          ],
          [
            73.920703,
            20.109826
          ],
          [
            73.921274,
            20.108953
          ],
          [
            73.921335,
            20.10886
          ],
          [
            73.921739,
            20.108242
          ],
          [
            73.921775,
            20.108187
          ],
          [
            73.921835,
            20.108141
          ],
          [
            73.922092,
            20.107777
          ],
          [
            73.92271,
            20.106809
          ],
          [
            73.923422,
            20.105715
          ],
          [
            73.923707,
            20.105282
          ],
          [
            73.924016,
            20.104814
          ],
          [
            73.924219,
            20.1045
          ],
          [
            73.924757,
            20.103669
          ],
          [
            73.925295,
            20.102896
          ],
          [
            73.925386,
            20.102787
          ],
          [
            73.925572,
            20.102563
          ],
          [
            73.926141,
            20.101879
          ],
          [
            73.926439,
            20.101604
          ],
          [
            73.926854,
            20.10123
          ],
          [
            73.927619,
            20.10054
          ],
          [
            73.927697,
            20.10047
          ],
          [
            73.9283,
            20.099938
          ],
          [
            73.928371,
            20.099881
          ],
          [
            73.928546,
            20.100018
          ],
          [
            73.929022,
            20.100381
          ],
          [
            73.929585,
            20.100714
          ],
          [
            73.930183,
            20.101013
          ],
          [
            73.930811,
            20.101296
          ],
          [
            73.932326,
            20.101925
          ],
          [
            73.933976,
            20.102638
          ],
          [
            73.935864,
            20.103444
          ],
          [
            73.936915,
            20.103917
          ],
          [
            73.936936,
            20.103862
          ],
          [
            73.937057,
            20.10362
          ],
          [
            73.937084,
            20.103561
          ],
          [
            73.936124,
            20.103154
          ],
          [
            73.934137,
            20.102288
          ],
          [
            73.931948,
            20.101387
          ],
          [
            73.931863,
            20.101351
          ],
          [
            73.931805,
            20.101457
          ],
          [
            73.931729,
            20.101424
          ],
          [
            73.930097,
            20.100718
          ],
          [
            73.929716,
            20.100541
          ],
          [
            73.929392,
            20.100335
          ],
          [
            73.92889,
            20.099947
          ],
          [
            73.928485,
            20.099559
          ],
          [
            73.927679,
            20.098646
          ],
          [
            73.92724,
            20.098155
          ],
          [
            73.926967,
            20.097852
          ],
          [
            73.926471,
            20.097283
          ],
          [
            73.925533,
            20.096184
          ],
          [
            73.925229,
            20.095827
          ],
          [
            73.924972,
            20.095524
          ],
          [
            73.92477,
            20.095281
          ],
          [
            73.924727,
            20.09523
          ],
          [
            73.924509,
            20.09494
          ],
          [
            73.924344,
            20.094696
          ],
          [
            73.924245,
            20.094496
          ],
          [
            73.924143,
            20.094223
          ],
          [
            73.92403,
            20.093865
          ],
          [
            73.923973,
            20.093584
          ],
          [
            73.923905,
            20.093149
          ],
          [
            73.923902,
            20.093064
          ],
          [
            73.923897,
            20.092888
          ],
          [
            73.923826,
            20.092308
          ],
          [
            73.92373,
            20.09173
          ],
          [
            73.923545,
            20.090319
          ],
          [
            73.92345,
            20.089862
          ],
          [
            73.923309,
            20.089447
          ],
          [
            73.923201,
            20.089197
          ],
          [
            73.923017,
            20.088809
          ],
          [
            73.922815,
            20.088497
          ],
          [
            73.922446,
            20.088003
          ],
          [
            73.922024,
            20.08757
          ],
          [
            73.921634,
            20.087211
          ],
          [
            73.921295,
            20.086884
          ],
          [
            73.919885,
            20.085521
          ],
          [
            73.917958,
            20.083647
          ],
          [
            73.916662,
            20.082394
          ],
          [
            73.916567,
            20.082302
          ],
          [
            73.915545,
            20.081271
          ],
          [
            73.915124,
            20.080846
          ],
          [
            73.914264,
            20.079993
          ],
          [
            73.913046,
            20.078784
          ],
          [
            73.912951,
            20.07869
          ],
          [
            73.912365,
            20.078116
          ],
          [
            73.911273,
            20.077147
          ],
          [
            73.910265,
            20.07636
          ],
          [
            73.909274,
            20.075643
          ],
          [
            73.906806,
            20.074039
          ],
          [
            73.904987,
            20.072832
          ],
          [
            73.904446,
            20.072451
          ],
          [
            73.904107,
            20.072212
          ],
          [
            73.904055,
            20.072176
          ],
          [
            73.903655,
            20.071932
          ],
          [
            73.902128,
            20.070894
          ],
          [
            73.900103,
            20.069518
          ],
          [
            73.900025,
            20.069463
          ],
          [
            73.89898,
            20.068737
          ],
          [
            73.89843,
            20.068326
          ],
          [
            73.89732,
            20.067495
          ],
          [
            73.895318,
            20.066018
          ],
          [
            73.894408,
            20.065358
          ],
          [
            73.893794,
            20.064835
          ],
          [
            73.893059,
            20.064193
          ],
          [
            73.891175,
            20.062412
          ],
          [
            73.890642,
            20.061895
          ],
          [
            73.890212,
            20.061464
          ],
          [
            73.890082,
            20.061334
          ],
          [
            73.889633,
            20.060891
          ],
          [
            73.889121,
            20.060318
          ],
          [
            73.887662,
            20.058736
          ],
          [
            73.88635,
            20.057499
          ],
          [
            73.885694,
            20.056829
          ],
          [
            73.884422,
            20.055468
          ],
          [
            73.882971,
            20.053863
          ],
          [
            73.882431,
            20.053258
          ],
          [
            73.881402,
            20.052007
          ],
          [
            73.881033,
            20.051565
          ],
          [
            73.880376,
            20.050855
          ],
          [
            73.879478,
            20.049973
          ],
          [
            73.878912,
            20.04946
          ],
          [
            73.878115,
            20.048637
          ],
          [
            73.877563,
            20.047987
          ],
          [
            73.875982,
            20.046174
          ],
          [
            73.874132,
            20.044273
          ],
          [
            73.872259,
            20.042258
          ],
          [
            73.870985,
            20.040901
          ],
          [
            73.870469,
            20.040381
          ],
          [
            73.869898,
            20.039852
          ],
          [
            73.869251,
            20.039394
          ],
          [
            73.868765,
            20.039091
          ],
          [
            73.868448,
            20.038886
          ],
          [
            73.867987,
            20.038588
          ],
          [
            73.866799,
            20.03782
          ],
          [
            73.866659,
            20.037732
          ],
          [
            73.866423,
            20.037583
          ],
          [
            73.865987,
            20.037309
          ],
          [
            73.865023,
            20.036701
          ],
          [
            73.863251,
            20.035532
          ],
          [
            73.862677,
            20.035122
          ],
          [
            73.861441,
            20.034238
          ],
          [
            73.861193,
            20.034074
          ],
          [
            73.860459,
            20.033587
          ],
          [
            73.858334,
            20.032044
          ],
          [
            73.857286,
            20.031308
          ],
          [
            73.856592,
            20.030845
          ],
          [
            73.855681,
            20.030297
          ],
          [
            73.855072,
            20.030013
          ],
          [
            73.853627,
            20.029493
          ],
          [
            73.852243,
            20.02903
          ],
          [
            73.851503,
            20.028756
          ],
          [
            73.850573,
            20.028453
          ],
          [
            73.850016,
            20.028278
          ],
          [
            73.849117,
            20.02801
          ],
          [
            73.848955,
            20.027893
          ],
          [
            73.848009,
            20.027566
          ],
          [
            73.846931,
            20.02721
          ],
          [
            73.845337,
            20.0267
          ],
          [
            73.844704,
            20.026499
          ],
          [
            73.844144,
            20.026315
          ],
          [
            73.84368,
            20.026152
          ],
          [
            73.843081,
            20.025922
          ],
          [
            73.842449,
            20.025669
          ],
          [
            73.842033,
            20.025492
          ],
          [
            73.84196,
            20.025461
          ],
          [
            73.841717,
            20.025339
          ],
          [
            73.841392,
            20.025169
          ],
          [
            73.841074,
            20.024995
          ],
          [
            73.840818,
            20.024852
          ],
          [
            73.839732,
            20.024202
          ],
          [
            73.837531,
            20.022844
          ],
          [
            73.831629,
            20.019342
          ],
          [
            73.830601,
            20.018758
          ],
          [
            73.82745,
            20.017263
          ],
          [
            73.826914,
            20.017017
          ],
          [
            73.826418,
            20.016799
          ],
          [
            73.826059,
            20.016629
          ],
          [
            73.825657,
            20.01644
          ],
          [
            73.825432,
            20.016361
          ],
          [
            73.825291,
            20.0163
          ],
          [
            73.825109,
            20.016227
          ],
          [
            73.824418,
            20.015965
          ],
          [
            73.823921,
            20.015782
          ],
          [
            73.823336,
            20.01559
          ],
          [
            73.822576,
            20.015356
          ],
          [
            73.821763,
            20.015097
          ],
          [
            73.821358,
            20.014971
          ],
          [
            73.820676,
            20.014762
          ],
          [
            73.820014,
            20.014554
          ],
          [
            73.819758,
            20.014459
          ],
          [
            73.819501,
            20.014363
          ],
          [
            73.819163,
            20.014245
          ],
          [
            73.818564,
            20.014068
          ],
          [
            73.818113,
            20.013918
          ],
          [
            73.817601,
            20.01374
          ],
          [
            73.817079,
            20.01354
          ],
          [
            73.816264,
            20.013189
          ],
          [
            73.815488,
            20.012827
          ],
          [
            73.815106,
            20.012656
          ],
          [
            73.815006,
            20.012612
          ],
          [
            73.814593,
            20.012441
          ],
          [
            73.81417,
            20.012276
          ],
          [
            73.813238,
            20.011884
          ],
          [
            73.812298,
            20.011491
          ],
          [
            73.810928,
            20.011022
          ],
          [
            73.81021,
            20.010787
          ],
          [
            73.809512,
            20.01054
          ],
          [
            73.808575,
            20.010222
          ],
          [
            73.807945,
            20.009986
          ],
          [
            73.807215,
            20.009668
          ],
          [
            73.80688,
            20.009488
          ],
          [
            73.80625,
            20.009101
          ],
          [
            73.806045,
            20.009218
          ],
          [
            73.805936,
            20.009258
          ],
          [
            73.805877,
            20.009279
          ],
          [
            73.804418,
            20.00915
          ],
          [
            73.803686,
            20.009061
          ],
          [
            73.803616,
            20.009051
          ],
          [
            73.803317,
            20.00901
          ],
          [
            73.802688,
            20.008814
          ],
          [
            73.802206,
            20.008675
          ],
          [
            73.801868,
            20.008617
          ],
          [
            73.801745,
            20.00861
          ],
          [
            73.801523,
            20.008656
          ],
          [
            73.800956,
            20.008796
          ],
          [
            73.800699,
            20.008879
          ],
          [
            73.800235,
            20.009025
          ],
          [
            73.799627,
            20.009232
          ],
          [
            73.799043,
            20.009584
          ],
          [
            73.798351,
            20.01003
          ],
          [
            73.798319,
            20.010047
          ],
          [
            73.798235,
            20.010107
          ],
          [
            73.798026,
            20.010242
          ],
          [
            73.796722,
            20.011005
          ],
          [
            73.796466,
            20.011161
          ],
          [
            73.796163,
            20.01133
          ],
          [
            73.796035,
            20.011332
          ],
          [
            73.795909,
            20.011338
          ],
          [
            73.795874,
            20.011288
          ],
          [
            73.795842,
            20.01127
          ],
          [
            73.795789,
            20.011252
          ],
          [
            73.795737,
            20.011234
          ],
          [
            73.795669,
            20.01122
          ],
          [
            73.795564,
            20.011208
          ],
          [
            73.795511,
            20.011214
          ],
          [
            73.795482,
            20.011239
          ],
          [
            73.795463,
            20.011269
          ],
          [
            73.795454,
            20.011317
          ],
          [
            73.795508,
            20.011641
          ],
          [
            73.795571,
            20.011754
          ],
          [
            73.79542,
            20.011797
          ],
          [
            73.794928,
            20.01196
          ],
          [
            73.7946,
            20.012064
          ],
          [
            73.794367,
            20.012133
          ],
          [
            73.793867,
            20.012281
          ],
          [
            73.793574,
            20.012358
          ],
          [
            73.793074,
            20.012476
          ],
          [
            73.792946,
            20.012496
          ],
          [
            73.792728,
            20.012531
          ],
          [
            73.792497,
            20.012605
          ],
          [
            73.792233,
            20.012728
          ],
          [
            73.792125,
            20.012793
          ],
          [
            73.792046,
            20.012819
          ],
          [
            73.791443,
            20.013115
          ],
          [
            73.791364,
            20.013144
          ],
          [
            73.79129,
            20.013158
          ],
          [
            73.791229,
            20.013159
          ],
          [
            73.791171,
            20.01315
          ],
          [
            73.791092,
            20.013114
          ],
          [
            73.791037,
            20.013075
          ],
          [
            73.790956,
            20.012999
          ],
          [
            73.790792,
            20.012826
          ],
          [
            73.79056,
            20.012573
          ],
          [
            73.790358,
            20.012363
          ],
          [
            73.790301,
            20.012308
          ],
          [
            73.790286,
            20.01229
          ],
          [
            73.790154,
            20.012145
          ],
          [
            73.789993,
            20.011984
          ],
          [
            73.789793,
            20.011827
          ],
          [
            73.789651,
            20.011726
          ],
          [
            73.789487,
            20.011631
          ],
          [
            73.789362,
            20.011566
          ],
          [
            73.789276,
            20.011522
          ],
          [
            73.789027,
            20.011392
          ],
          [
            73.78883,
            20.011231
          ],
          [
            73.788702,
            20.011085
          ],
          [
            73.788663,
            20.011063
          ],
          [
            73.788605,
            20.011035
          ],
          [
            73.78852,
            20.011011
          ],
          [
            73.788431,
            20.011002
          ],
          [
            73.788282,
            20.011014
          ],
          [
            73.788078,
            20.011036
          ],
          [
            73.787685,
            20.011077
          ],
          [
            73.787222,
            20.011125
          ],
          [
            73.787054,
            20.011122
          ],
          [
            73.78688,
            20.011106
          ],
          [
            73.786746,
            20.011094
          ],
          [
            73.786297,
            20.010998
          ],
          [
            73.785743,
            20.010863
          ],
          [
            73.785681,
            20.010824
          ],
          [
            73.785638,
            20.010766
          ],
          [
            73.785607,
            20.010659
          ],
          [
            73.785592,
            20.010517
          ],
          [
            73.785583,
            20.009328
          ],
          [
            73.785577,
            20.00924
          ],
          [
            73.78559,
            20.009048
          ],
          [
            73.785588,
            20.008538
          ],
          [
            73.785587,
            20.008175
          ],
          [
            73.785586,
            20.007689
          ],
          [
            73.785565,
            20.00749
          ],
          [
            73.785492,
            20.007397
          ],
          [
            73.785424,
            20.007341
          ],
          [
            73.785243,
            20.007206
          ],
          [
            73.78518,
            20.007129
          ],
          [
            73.785082,
            20.007009
          ],
          [
            73.784978,
            20.006814
          ],
          [
            73.784962,
            20.006791
          ],
          [
            73.784938,
            20.006775
          ],
          [
            73.78491,
            20.006767
          ],
          [
            73.784881,
            20.006768
          ],
          [
            73.784854,
            20.006779
          ],
          [
            73.784832,
            20.006797
          ],
          [
            73.784818,
            20.006822
          ],
          [
            73.784814,
            20.006849
          ],
          [
            73.784668,
            20.006869
          ],
          [
            73.784601,
            20.006875
          ],
          [
            73.784569,
            20.006878
          ],
          [
            73.784502,
            20.006873
          ],
          [
            73.783991,
            20.006784
          ],
          [
            73.783923,
            20.006769
          ],
          [
            73.78392,
            20.00686
          ],
          [
            73.783894,
            20.007755
          ],
          [
            73.783887,
            20.007997
          ],
          [
            73.783887,
            20.007997
          ],
          [
            73.783894,
            20.007755
          ],
          [
            73.78392,
            20.00686
          ],
          [
            73.784386,
            20.006923
          ],
          [
            73.784464,
            20.006933
          ],
          [
            73.784593,
            20.006938
          ],
          [
            73.784758,
            20.006934
          ],
          [
            73.784877,
            20.006924
          ],
          [
            73.784904,
            20.006926
          ],
          [
            73.784931,
            20.006921
          ],
          [
            73.784954,
            20.006908
          ],
          [
            73.784972,
            20.006888
          ],
          [
            73.784983,
            20.006865
          ],
          [
            73.784985,
            20.006839
          ],
          [
            73.784978,
            20.006814
          ],
          [
            73.784962,
            20.006791
          ],
          [
            73.784938,
            20.006775
          ],
          [
            73.78491,
            20.006767
          ],
          [
            73.784881,
            20.006768
          ],
          [
            73.784854,
            20.006779
          ],
          [
            73.784781,
            20.006729
          ],
          [
            73.784729,
            20.006668
          ],
          [
            73.784547,
            20.006201
          ],
          [
            73.784366,
            20.005736
          ],
          [
            73.784026,
            20.004861
          ],
          [
            73.783695,
            20.003953
          ],
          [
            73.783381,
            20.003026
          ],
          [
            73.783113,
            20.002217
          ],
          [
            73.782881,
            20.001559
          ],
          [
            73.782658,
            20.000974
          ],
          [
            73.782559,
            20.000729
          ],
          [
            73.782518,
            20.000626
          ],
          [
            73.782447,
            20.000451
          ],
          [
            73.782405,
            20.000345
          ],
          [
            73.782169,
            19.99969
          ],
          [
            73.782059,
            19.999395
          ],
          [
            73.782025,
            19.99931
          ],
          [
            73.781899,
            19.99899
          ],
          [
            73.781664,
            19.998429
          ],
          [
            73.781552,
            19.998098
          ],
          [
            73.781413,
            19.997675
          ],
          [
            73.781405,
            19.997588
          ],
          [
            73.7814,
            19.997525
          ],
          [
            73.781395,
            19.997474
          ],
          [
            73.781394,
            19.997323
          ],
          [
            73.781421,
            19.997222
          ],
          [
            73.781502,
            19.997051
          ],
          [
            73.78184,
            19.996337
          ],
          [
            73.782155,
            19.995676
          ],
          [
            73.782225,
            19.995447
          ],
          [
            73.782283,
            19.995237
          ],
          [
            73.782359,
            19.994873
          ],
          [
            73.782533,
            19.993882
          ],
          [
            73.782632,
            19.993616
          ],
          [
            73.782637,
            19.993541
          ],
          [
            73.782697,
            19.99326
          ],
          [
            73.782811,
            19.992576
          ],
          [
            73.78282,
            19.992531
          ],
          [
            73.782855,
            19.992323
          ],
          [
            73.782917,
            19.991965
          ],
          [
            73.782922,
            19.991932
          ],
          [
            73.783003,
            19.991465
          ],
          [
            73.783002,
            19.991298
          ],
          [
            73.782998,
            19.990918
          ],
          [
            73.78301,
            19.990203
          ],
          [
            73.783011,
            19.990084
          ],
          [
            73.783012,
            19.990027
          ],
          [
            73.783019,
            19.989587
          ],
          [
            73.78301,
            19.989149
          ],
          [
            73.783036,
            19.989062
          ],
          [
            73.783082,
            19.988907
          ],
          [
            73.783326,
            19.988715
          ],
          [
            73.783485,
            19.988542
          ],
          [
            73.783616,
            19.988367
          ],
          [
            73.783685,
            19.988145
          ],
          [
            73.783714,
            19.987949
          ],
          [
            73.783789,
            19.987407
          ],
          [
            73.783827,
            19.987323
          ],
          [
            73.783927,
            19.987261
          ],
          [
            73.784025,
            19.987295
          ],
          [
            73.784149,
            19.987292
          ],
          [
            73.784313,
            19.987237
          ],
          [
            73.784477,
            19.987165
          ],
          [
            73.784516,
            19.987139
          ],
          [
            73.784553,
            19.987114
          ],
          [
            73.784608,
            19.987032
          ],
          [
            73.784632,
            19.986986
          ],
          [
            73.78464,
            19.986949
          ],
          [
            73.784655,
            19.986885
          ],
          [
            73.784623,
            19.986821
          ],
          [
            73.784566,
            19.986729
          ],
          [
            73.784461,
            19.986632
          ],
          [
            73.784051,
            19.986034
          ],
          [
            73.784036,
            19.986005
          ],
          [
            73.783821,
            19.985603
          ],
          [
            73.78378,
            19.985524
          ],
          [
            73.783452,
            19.984923
          ],
          [
            73.783073,
            19.984155
          ],
          [
            73.782914,
            19.983766
          ],
          [
            73.782746,
            19.983366
          ],
          [
            73.782647,
            19.983146
          ],
          [
            73.782613,
            19.983076
          ],
          [
            73.782571,
            19.982989
          ],
          [
            73.78254,
            19.982922
          ],
          [
            73.782398,
            19.98262
          ],
          [
            73.782244,
            19.982347
          ],
          [
            73.782122,
            19.982122
          ],
          [
            73.781973,
            19.981905
          ],
          [
            73.781708,
            19.981575
          ],
          [
            73.780296,
            19.979882
          ],
          [
            73.780091,
            19.979639
          ],
          [
            73.780027,
            19.97955
          ],
          [
            73.779861,
            19.979406
          ],
          [
            73.778723,
            19.978053
          ],
          [
            73.778593,
            19.977989
          ],
          [
            73.778467,
            19.97784
          ],
          [
            73.775529,
            19.97449
          ],
          [
            73.774694,
            19.973543
          ],
          [
            73.774108,
            19.972907
          ],
          [
            73.773684,
            19.972451
          ],
          [
            73.772901,
            19.971812
          ],
          [
            73.771624,
            19.97075
          ],
          [
            73.771293,
            19.97039
          ],
          [
            73.771146,
            19.97023
          ],
          [
            73.770967,
            19.97002
          ],
          [
            73.770593,
            19.969602
          ],
          [
            73.770567,
            19.969506
          ],
          [
            73.770491,
            19.969356
          ],
          [
            73.770356,
            19.969154
          ],
          [
            73.770244,
            19.968966
          ],
          [
            73.769989,
            19.968665
          ],
          [
            73.769611,
            19.968202
          ],
          [
            73.769261,
            19.96775
          ],
          [
            73.768691,
            19.967016
          ],
          [
            73.767987,
            19.966064
          ],
          [
            73.767897,
            19.965952
          ],
          [
            73.767181,
            19.965091
          ],
          [
            73.766326,
            19.964091
          ],
          [
            73.765461,
            19.963112
          ],
          [
            73.765159,
            19.962796
          ],
          [
            73.764896,
            19.962517
          ],
          [
            73.764508,
            19.962151
          ],
          [
            73.764421,
            19.962119
          ],
          [
            73.763986,
            19.961636
          ],
          [
            73.7635,
            19.961146
          ],
          [
            73.762814,
            19.960559
          ],
          [
            73.762362,
            19.960149
          ],
          [
            73.760798,
            19.958844
          ],
          [
            73.760583,
            19.95866
          ],
          [
            73.757487,
            19.956024
          ],
          [
            73.75635,
            19.954946
          ],
          [
            73.755311,
            19.953786
          ],
          [
            73.755057,
            19.953521
          ],
          [
            73.754284,
            19.952645
          ],
          [
            73.754033,
            19.952138
          ],
          [
            73.7534,
            19.951647
          ],
          [
            73.753017,
            19.951345
          ],
          [
            73.752552,
            19.950955
          ],
          [
            73.751815,
            19.950373
          ],
          [
            73.75114,
            19.949838
          ],
          [
            73.750744,
            19.949523
          ],
          [
            73.750563,
            19.949392
          ],
          [
            73.749711,
            19.948696
          ],
          [
            73.746782,
            19.945996
          ],
          [
            73.746695,
            19.946129
          ],
          [
            73.746517,
            19.946326
          ],
          [
            73.746468,
            19.946382
          ],
          [
            73.748478,
            19.948226
          ],
          [
            73.748532,
            19.948271
          ],
          [
            73.749334,
            19.948931
          ],
          [
            73.749431,
            19.94902
          ],
          [
            73.752367,
            19.951384
          ],
          [
            73.753212,
            19.952082
          ],
          [
            73.753646,
            19.952469
          ],
          [
            73.754607,
            19.953499
          ],
          [
            73.754607,
            19.953499
          ],
          [
            73.755141,
            19.954071
          ],
          [
            73.755993,
            19.954938
          ],
          [
            73.756478,
            19.95543
          ],
          [
            73.756592,
            19.955547
          ],
          [
            73.756632,
            19.955588
          ],
          [
            73.756746,
            19.955688
          ],
          [
            73.757053,
            19.955357
          ],
          [
            73.756812,
            19.955113
          ],
          [
            73.756265,
            19.954534
          ],
          [
            73.755698,
            19.953932
          ],
          [
            73.754694,
            19.952803
          ],
          [
            73.754453,
            19.952536
          ],
          [
            73.754248,
            19.952344
          ],
          [
            73.754033,
            19.952138
          ],
          [
            73.754284,
            19.952645
          ],
          [
            73.753635,
            19.952028
          ],
          [
            73.75322,
            19.951684
          ],
          [
            73.750308,
            19.94939
          ],
          [
            73.749398,
            19.948637
          ],
          [
            73.74928,
            19.948547
          ],
          [
            73.748755,
            19.948093
          ],
          [
            73.746505,
            19.946068
          ],
          [
            73.745979,
            19.945554
          ],
          [
            73.745272,
            19.944869
          ],
          [
            73.744552,
            19.944139
          ],
          [
            73.744143,
            19.94371
          ],
          [
            73.743635,
            19.943263
          ],
          [
            73.743191,
            19.942911
          ],
          [
            73.742311,
            19.94233
          ],
          [
            73.741668,
            19.941942
          ],
          [
            73.740974,
            19.941423
          ],
          [
            73.740346,
            19.940866
          ],
          [
            73.739353,
            19.939872
          ],
          [
            73.738932,
            19.93942
          ],
          [
            73.738311,
            19.938761
          ],
          [
            73.738254,
            19.938702
          ],
          [
            73.738056,
            19.938496
          ],
          [
            73.736331,
            19.936944
          ],
          [
            73.736088,
            19.936762
          ],
          [
            73.735615,
            19.936408
          ],
          [
            73.735096,
            19.936147
          ],
          [
            73.7345,
            19.935914
          ],
          [
            73.732928,
            19.935426
          ],
          [
            73.732257,
            19.935176
          ],
          [
            73.731848,
            19.934968
          ],
          [
            73.731671,
            19.934878
          ],
          [
            73.731147,
            19.934626
          ],
          [
            73.731009,
            19.93456
          ],
          [
            73.730914,
            19.934515
          ],
          [
            73.729818,
            19.933961
          ],
          [
            73.729505,
            19.933804
          ],
          [
            73.728659,
            19.93342
          ],
          [
            73.728215,
            19.933259
          ],
          [
            73.727155,
            19.932806
          ],
          [
            73.725423,
            19.932219
          ],
          [
            73.724575,
            19.931886
          ],
          [
            73.724051,
            19.931615
          ],
          [
            73.723736,
            19.931407
          ],
          [
            73.723345,
            19.931083
          ],
          [
            73.722964,
            19.930773
          ],
          [
            73.722915,
            19.930734
          ],
          [
            73.722365,
            19.93036
          ],
          [
            73.722142,
            19.930208
          ],
          [
            73.72206,
            19.93014
          ],
          [
            73.721062,
            19.929313
          ],
          [
            73.720186,
            19.928612
          ],
          [
            73.720086,
            19.928532
          ],
          [
            73.719622,
            19.928153
          ],
          [
            73.71897,
            19.927621
          ],
          [
            73.718261,
            19.927
          ],
          [
            73.717933,
            19.926655
          ],
          [
            73.717629,
            19.926286
          ],
          [
            73.717383,
            19.925885
          ],
          [
            73.717032,
            19.925328
          ],
          [
            73.716974,
            19.925235
          ],
          [
            73.716944,
            19.925187
          ],
          [
            73.716416,
            19.924207
          ],
          [
            73.716268,
            19.923941
          ],
          [
            73.715691,
            19.922905
          ],
          [
            73.715335,
            19.922341
          ],
          [
            73.714986,
            19.921789
          ],
          [
            73.714927,
            19.921685
          ],
          [
            73.714433,
            19.920816
          ],
          [
            73.714225,
            19.92045
          ],
          [
            73.713667,
            19.919489
          ],
          [
            73.713103,
            19.918462
          ],
          [
            73.712544,
            19.917575
          ],
          [
            73.712063,
            19.916876
          ],
          [
            73.711315,
            19.916127
          ],
          [
            73.71117,
            19.915983
          ],
          [
            73.711172,
            19.916069
          ],
          [
            73.711123,
            19.916113
          ],
          [
            73.711034,
            19.916152
          ],
          [
            73.710902,
            19.916142
          ],
          [
            73.710753,
            19.916112
          ],
          [
            73.710191,
            19.915934
          ],
          [
            73.70967,
            19.916039
          ],
          [
            73.708445,
            19.916317
          ],
          [
            73.707203,
            19.916612
          ],
          [
            73.706515,
            19.916919
          ],
          [
            73.706045,
            19.917357
          ],
          [
            73.70559,
            19.917694
          ],
          [
            73.705416,
            19.917901
          ],
          [
            73.704936,
            19.918236
          ],
          [
            73.70289,
            19.919269
          ],
          [
            73.702335,
            19.919608
          ],
          [
            73.702546,
            19.920077
          ],
          [
            73.70298,
            19.920724
          ],
          [
            73.703281,
            19.921191
          ],
          [
            73.703329,
            19.921435
          ],
          [
            73.703339,
            19.921783
          ],
          [
            73.703128,
            19.922201
          ],
          [
            73.702964,
            19.92236
          ],
          [
            73.702694,
            19.922559
          ],
          [
            73.702429,
            19.922733
          ],
          [
            73.702334,
            19.922898
          ],
          [
            73.702225,
            19.92307
          ],
          [
            73.702217,
            19.923249
          ],
          [
            73.702252,
            19.923577
          ],
          [
            73.702311,
            19.924034
          ],
          [
            73.702322,
            19.924253
          ],
          [
            73.702317,
            19.9245
          ],
          [
            73.702252,
            19.924614
          ],
          [
            73.702306,
            19.924843
          ],
          [
            73.702351,
            19.92508
          ],
          [
            73.702354,
            19.925283
          ],
          [
            73.702282,
            19.925289
          ],
          [
            73.701686,
            19.925279
          ],
          [
            73.701042,
            19.925113
          ],
          [
            73.700522,
            19.924881
          ],
          [
            73.699814,
            19.924543
          ],
          [
            73.69902,
            19.924109
          ],
          [
            73.69828,
            19.923726
          ],
          [
            73.69747,
            19.923398
          ],
          [
            73.696892,
            19.923173
          ],
          [
            73.696892,
            19.923173
          ],
          [
            73.69747,
            19.923398
          ],
          [
            73.69828,
            19.923726
          ],
          [
            73.69902,
            19.924109
          ],
          [
            73.699814,
            19.924543
          ],
          [
            73.700522,
            19.924881
          ],
          [
            73.701042,
            19.925113
          ],
          [
            73.701686,
            19.925279
          ],
          [
            73.702282,
            19.925289
          ],
          [
            73.702354,
            19.925283
          ],
          [
            73.702351,
            19.92508
          ],
          [
            73.702306,
            19.924843
          ],
          [
            73.702252,
            19.924614
          ],
          [
            73.702317,
            19.9245
          ],
          [
            73.702322,
            19.924253
          ],
          [
            73.702311,
            19.924034
          ],
          [
            73.702252,
            19.923577
          ],
          [
            73.702217,
            19.923249
          ],
          [
            73.702225,
            19.92307
          ],
          [
            73.702334,
            19.922898
          ],
          [
            73.702429,
            19.922733
          ],
          [
            73.702694,
            19.922559
          ],
          [
            73.702964,
            19.92236
          ],
          [
            73.703128,
            19.922201
          ],
          [
            73.703339,
            19.921783
          ],
          [
            73.703329,
            19.921435
          ],
          [
            73.703281,
            19.921191
          ],
          [
            73.70298,
            19.920724
          ],
          [
            73.702546,
            19.920077
          ],
          [
            73.702335,
            19.919608
          ],
          [
            73.702248,
            19.919524
          ],
          [
            73.702197,
            19.919379
          ],
          [
            73.702234,
            19.919172
          ],
          [
            73.702244,
            19.918852
          ],
          [
            73.702239,
            19.918654
          ],
          [
            73.702076,
            19.918562
          ],
          [
            73.702071,
            19.918514
          ],
          [
            73.702034,
            19.91681
          ],
          [
            73.702043,
            19.916494
          ],
          [
            73.701877,
            19.916415
          ],
          [
            73.701598,
            19.916294
          ],
          [
            73.701526,
            19.916263
          ],
          [
            73.70123,
            19.916215
          ],
          [
            73.700916,
            19.916181
          ],
          [
            73.700587,
            19.916191
          ],
          [
            73.699298,
            19.9163
          ],
          [
            73.698351,
            19.916352
          ],
          [
            73.697623,
            19.916346
          ],
          [
            73.697234,
            19.916282
          ],
          [
            73.696683,
            19.916181
          ],
          [
            73.695799,
            19.915919
          ],
          [
            73.695402,
            19.915723
          ],
          [
            73.695017,
            19.915494
          ],
          [
            73.694769,
            19.915281
          ],
          [
            73.694614,
            19.915199
          ],
          [
            73.694414,
            19.915184
          ],
          [
            73.693935,
            19.915235
          ],
          [
            73.693558,
            19.915322
          ],
          [
            73.693029,
            19.915559
          ],
          [
            73.692086,
            19.915966
          ],
          [
            73.690658,
            19.916393
          ],
          [
            73.690122,
            19.916654
          ],
          [
            73.689186,
            19.917245
          ],
          [
            73.688527,
            19.917634
          ],
          [
            73.687968,
            19.918292
          ],
          [
            73.687532,
            19.918918
          ],
          [
            73.687161,
            19.919284
          ],
          [
            73.686341,
            19.91968
          ],
          [
            73.685302,
            19.920055
          ],
          [
            73.684141,
            19.920448
          ],
          [
            73.683752,
            19.920653
          ],
          [
            73.683135,
            19.921018
          ],
          [
            73.682517,
            19.921342
          ],
          [
            73.682313,
            19.921411
          ],
          [
            73.681614,
            19.921488
          ],
          [
            73.680708,
            19.921544
          ],
          [
            73.679133,
            19.921439
          ],
          [
            73.678415,
            19.921453
          ],
          [
            73.67803,
            19.921411
          ],
          [
            73.677527,
            19.921398
          ],
          [
            73.676976,
            19.921415
          ],
          [
            73.676333,
            19.921352
          ],
          [
            73.675826,
            19.921318
          ],
          [
            73.675582,
            19.921234
          ],
          [
            73.67536,
            19.921112
          ],
          [
            73.675323,
            19.920935
          ],
          [
            73.675275,
            19.920803
          ],
          [
            73.675112,
            19.920615
          ],
          [
            73.67489,
            19.920125
          ],
          [
            73.674631,
            19.919756
          ],
          [
            73.674144,
            19.919606
          ],
          [
            73.673663,
            19.919689
          ],
          [
            73.672953,
            19.919877
          ],
          [
            73.672006,
            19.919946
          ],
          [
            73.671628,
            19.919877
          ],
          [
            73.670874,
            19.919661
          ],
          [
            73.669624,
            19.919578
          ],
          [
            73.668751,
            19.919487
          ],
          [
            73.668115,
            19.919592
          ],
          [
            73.666946,
            19.919856
          ],
          [
            73.666169,
            19.919919
          ],
          [
            73.664342,
            19.92028
          ],
          [
            73.662381,
            19.920767
          ],
          [
            73.660465,
            19.921205
          ],
          [
            73.659437,
            19.921483
          ],
          [
            73.657595,
            19.922325
          ],
          [
            73.657151,
            19.922568
          ],
          [
            73.656818,
            19.922638
          ],
          [
            73.656367,
            19.922555
          ],
          [
            73.655576,
            19.922429
          ],
          [
            73.654755,
            19.922388
          ],
          [
            73.653578,
            19.922541
          ],
          [
            73.651661,
            19.922932
          ],
          [
            73.65118,
            19.92308
          ],
          [
            73.650547,
            19.923124
          ],
          [
            73.649491,
            19.922775
          ],
          [
            73.648664,
            19.922436
          ],
          [
            73.648498,
            19.922281
          ],
          [
            73.648278,
            19.922673
          ],
          [
            73.648063,
            19.923087
          ],
          [
            73.647865,
            19.92347
          ],
          [
            73.647742,
            19.923884
          ],
          [
            73.647713,
            19.923993
          ],
          [
            73.647661,
            19.924196
          ],
          [
            73.647629,
            19.924625
          ],
          [
            73.647623,
            19.924705
          ],
          [
            73.647597,
            19.925033
          ],
          [
            73.647511,
            19.925523
          ],
          [
            73.647398,
            19.926108
          ],
          [
            73.64743,
            19.926688
          ],
          [
            73.647602,
            19.927237
          ],
          [
            73.64772,
            19.927752
          ],
          [
            73.647817,
            19.928498
          ],
          [
            73.647806,
            19.928962
          ],
          [
            73.647806,
            19.92983
          ],
          [
            73.647677,
            19.931786
          ],
          [
            73.647571,
            19.932548
          ],
          [
            73.647486,
            19.933233
          ],
          [
            73.647412,
            19.933611
          ],
          [
            73.647318,
            19.934735
          ],
          [
            73.647216,
            19.935604
          ],
          [
            73.647085,
            19.936614
          ],
          [
            73.646993,
            19.937016
          ],
          [
            73.646903,
            19.93739
          ],
          [
            73.646749,
            19.937704
          ],
          [
            73.646529,
            19.938048
          ],
          [
            73.646383,
            19.938239
          ],
          [
            73.646261,
            19.938376
          ],
          [
            73.646204,
            19.938644
          ],
          [
            73.646123,
            19.938889
          ],
          [
            73.645976,
            19.93911
          ],
          [
            73.645635,
            19.939408
          ],
          [
            73.645399,
            19.939768
          ],
          [
            73.645358,
            19.940104
          ],
          [
            73.645285,
            19.940524
          ],
          [
            73.645106,
            19.941312
          ],
          [
            73.644911,
            19.942022
          ],
          [
            73.644691,
            19.942443
          ],
          [
            73.644648,
            19.942758
          ],
          [
            73.644643,
            19.942794
          ],
          [
            73.644683,
            19.943024
          ],
          [
            73.644854,
            19.943261
          ],
          [
            73.645114,
            19.943589
          ],
          [
            73.64535,
            19.94401
          ],
          [
            73.645431,
            19.944499
          ],
          [
            73.645513,
            19.945217
          ],
          [
            73.645505,
            19.94592
          ],
          [
            73.645391,
            19.94657
          ],
          [
            73.64522,
            19.947212
          ],
          [
            73.645147,
            19.947655
          ],
          [
            73.645147,
            19.948313
          ],
          [
            73.645131,
            19.948794
          ],
          [
            73.645147,
            19.949001
          ],
          [
            73.645155,
            19.949299
          ],
          [
            73.645139,
            19.94956
          ],
          [
            73.644995,
            19.94956
          ],
          [
            73.644735,
            19.949607
          ],
          [
            73.644453,
            19.949696
          ],
          [
            73.644167,
            19.949733
          ],
          [
            73.643952,
            19.949804
          ],
          [
            73.643643,
            19.949893
          ],
          [
            73.643509,
            19.949893
          ],
          [
            73.643407,
            19.950009
          ],
          [
            73.643326,
            19.950084
          ],
          [
            73.643223,
            19.950131
          ],
          [
            73.64309,
            19.950175
          ],
          [
            73.642945,
            19.950175
          ],
          [
            73.642785,
            19.95018
          ],
          [
            73.642667,
            19.950195
          ],
          [
            73.642543,
            19.950221
          ],
          [
            73.642468,
            19.950276
          ],
          [
            73.642457,
            19.950357
          ],
          [
            73.642463,
            19.950448
          ],
          [
            73.642468,
            19.950584
          ],
          [
            73.642506,
            19.95075
          ],
          [
            73.642506,
            19.950806
          ],
          [
            73.642532,
            19.951033
          ],
          [
            73.642373,
            19.951047
          ],
          [
            73.642098,
            19.951038
          ],
          [
            73.641953,
            19.951038
          ],
          [
            73.641841,
            19.951052
          ],
          [
            73.64167,
            19.951098
          ],
          [
            73.641417,
            19.951194
          ],
          [
            73.641202,
            19.951355
          ],
          [
            73.64117,
            19.951401
          ],
          [
            73.640982,
            19.951557
          ],
          [
            73.640848,
            19.951628
          ],
          [
            73.639137,
            19.952505
          ],
          [
            73.638793,
            19.952828
          ],
          [
            73.638455,
            19.953216
          ],
          [
            73.638312,
            19.953281
          ],
          [
            73.637898,
            19.953524
          ],
          [
            73.637485,
            19.953766
          ],
          [
            73.636863,
            19.954017
          ],
          [
            73.636717,
            19.954023
          ],
          [
            73.636627,
            19.954002
          ],
          [
            73.636487,
            19.953907
          ],
          [
            73.636307,
            19.953793
          ],
          [
            73.636094,
            19.953651
          ],
          [
            73.635953,
            19.953552
          ],
          [
            73.635812,
            19.953429
          ],
          [
            73.63558,
            19.953213
          ],
          [
            73.63523,
            19.952967
          ],
          [
            73.634883,
            19.952734
          ],
          [
            73.634732,
            19.952574
          ],
          [
            73.634046,
            19.951515
          ],
          [
            73.633697,
            19.95087
          ],
          [
            73.63344,
            19.950492
          ],
          [
            73.633214,
            19.950214
          ],
          [
            73.632801,
            19.94976
          ],
          [
            73.632286,
            19.949281
          ],
          [
            73.631948,
            19.948933
          ],
          [
            73.631122,
            19.947965
          ],
          [
            73.63043,
            19.94729
          ],
          [
            73.630006,
            19.946967
          ],
          [
            73.629824,
            19.946942
          ],
          [
            73.629481,
            19.94678
          ],
          [
            73.629352,
            19.946705
          ],
          [
            73.629245,
            19.946614
          ],
          [
            73.628966,
            19.946296
          ],
          [
            73.628751,
            19.945969
          ],
          [
            73.628317,
            19.945671
          ],
          [
            73.628118,
            19.9455
          ],
          [
            73.628059,
            19.945469
          ],
          [
            73.627561,
            19.944989
          ],
          [
            73.627561,
            19.944989
          ],
          [
            73.628059,
            19.945469
          ],
          [
            73.628118,
            19.9455
          ],
          [
            73.628317,
            19.945671
          ],
          [
            73.628751,
            19.945969
          ],
          [
            73.628966,
            19.946296
          ],
          [
            73.629245,
            19.946614
          ],
          [
            73.629352,
            19.946705
          ],
          [
            73.629481,
            19.94678
          ],
          [
            73.629824,
            19.946942
          ],
          [
            73.630006,
            19.946967
          ],
          [
            73.63043,
            19.94729
          ],
          [
            73.631122,
            19.947965
          ],
          [
            73.631948,
            19.948933
          ],
          [
            73.632286,
            19.949281
          ],
          [
            73.632801,
            19.94976
          ],
          [
            73.633214,
            19.950214
          ],
          [
            73.63344,
            19.950492
          ],
          [
            73.633697,
            19.95087
          ],
          [
            73.634046,
            19.951515
          ],
          [
            73.634732,
            19.952574
          ],
          [
            73.634883,
            19.952734
          ],
          [
            73.63523,
            19.952967
          ],
          [
            73.63558,
            19.953213
          ],
          [
            73.635812,
            19.953429
          ],
          [
            73.635652,
            19.953354
          ],
          [
            73.635436,
            19.953239
          ],
          [
            73.635337,
            19.953208
          ],
          [
            73.635239,
            19.953221
          ],
          [
            73.635027,
            19.953266
          ],
          [
            73.634416,
            19.953372
          ],
          [
            73.633198,
            19.953634
          ],
          [
            73.633022,
            19.953685
          ],
          [
            73.632883,
            19.953755
          ],
          [
            73.632701,
            19.953906
          ],
          [
            73.63248,
            19.954108
          ],
          [
            73.632329,
            19.954164
          ],
          [
            73.632099,
            19.95425
          ],
          [
            73.631777,
            19.954648
          ],
          [
            73.631568,
            19.955268
          ],
          [
            73.631192,
            19.956367
          ],
          [
            73.631208,
            19.956498
          ],
          [
            73.631284,
            19.956665
          ],
          [
            73.631327,
            19.956765
          ],
          [
            73.631251,
            19.956942
          ],
          [
            73.631079,
            19.957461
          ],
          [
            73.63008,
            19.959698
          ],
          [
            73.629116,
            19.959556
          ],
          [
            73.628771,
            19.959471
          ],
          [
            73.627831,
            19.959072
          ],
          [
            73.627379,
            19.958875
          ],
          [
            73.627047,
            19.958628
          ],
          [
            73.626914,
            19.958496
          ],
          [
            73.626793,
            19.958367
          ],
          [
            73.626603,
            19.958079
          ],
          [
            73.626455,
            19.957893
          ],
          [
            73.626288,
            19.957722
          ],
          [
            73.625894,
            19.957483
          ],
          [
            73.625564,
            19.957394
          ],
          [
            73.625314,
            19.957355
          ],
          [
            73.625128,
            19.957358
          ],
          [
            73.623231,
            19.957596
          ],
          [
            73.621882,
            19.957935
          ],
          [
            73.621151,
            19.958155
          ],
          [
            73.620105,
            19.958567
          ],
          [
            73.61974,
            19.958728
          ],
          [
            73.618986,
            19.959046
          ],
          [
            73.618571,
            19.959156
          ],
          [
            73.618206,
            19.959186
          ],
          [
            73.617601,
            19.959173
          ],
          [
            73.615693,
            19.958995
          ],
          [
            73.615179,
            19.958944
          ],
          [
            73.614575,
            19.958838
          ],
          [
            73.613348,
            19.958615
          ],
          [
            73.612283,
            19.958431
          ],
          [
            73.610835,
            19.958172
          ],
          [
            73.609734,
            19.957969
          ],
          [
            73.60823,
            19.957693
          ],
          [
            73.607835,
            19.957621
          ],
          [
            73.605959,
            19.957286
          ],
          [
            73.603919,
            19.956949
          ],
          [
            73.603603,
            19.956864
          ],
          [
            73.603093,
            19.956596
          ],
          [
            73.60187,
            19.955815
          ],
          [
            73.601521,
            19.955618
          ],
          [
            73.601234,
            19.95554
          ],
          [
            73.600674,
            19.955452
          ],
          [
            73.59911,
            19.955237
          ],
          [
            73.597927,
            19.955074
          ],
          [
            73.596142,
            19.954945
          ],
          [
            73.595816,
            19.954921
          ],
          [
            73.593818,
            19.954776
          ],
          [
            73.591877,
            19.95464
          ],
          [
            73.590862,
            19.954559
          ],
          [
            73.590256,
            19.954474
          ],
          [
            73.588277,
            19.954035
          ],
          [
            73.586093,
            19.953521
          ],
          [
            73.585119,
            19.953217
          ],
          [
            73.584672,
            19.953188
          ],
          [
            73.584157,
            19.953193
          ],
          [
            73.583309,
            19.953132
          ],
          [
            73.582736,
            19.953052
          ],
          [
            73.58053,
            19.952744
          ],
          [
            73.578218,
            19.952472
          ],
          [
            73.575461,
            19.952079
          ],
          [
            73.574899,
            19.952011
          ],
          [
            73.573347,
            19.951826
          ],
          [
            73.572419,
            19.951796
          ],
          [
            73.572051,
            19.951823
          ],
          [
            73.569533,
            19.952003
          ],
          [
            73.568809,
            19.951978
          ],
          [
            73.567768,
            19.951791
          ],
          [
            73.56676,
            19.951489
          ],
          [
            73.565,
            19.950858
          ],
          [
            73.5649,
            19.950825
          ],
          [
            73.564118,
            19.950567
          ],
          [
            73.564087,
            19.950633
          ],
          [
            73.563981,
            19.950831
          ],
          [
            73.563796,
            19.951162
          ],
          [
            73.562951,
            19.952868
          ],
          [
            73.562426,
            19.953877
          ],
          [
            73.561696,
            19.955208
          ],
          [
            73.561246,
            19.956297
          ],
          [
            73.56043,
            19.958011
          ],
          [
            73.560248,
            19.958727
          ],
          [
            73.559872,
            19.959978
          ],
          [
            73.559454,
            19.960926
          ],
          [
            73.559186,
            19.961732
          ],
          [
            73.559218,
            19.962307
          ],
          [
            73.559143,
            19.962529
          ],
          [
            73.558895,
            19.962762
          ],
          [
            73.558714,
            19.962932
          ],
          [
            73.558671,
            19.962973
          ],
          [
            73.558585,
            19.963104
          ],
          [
            73.558413,
            19.963346
          ],
          [
            73.558263,
            19.963699
          ],
          [
            73.558188,
            19.964395
          ],
          [
            73.558016,
            19.965524
          ],
          [
            73.557769,
            19.96623
          ],
          [
            73.557083,
            19.968277
          ],
          [
            73.556954,
            19.969084
          ],
          [
            73.556823,
            19.969879
          ],
          [
            73.556815,
            19.969931
          ],
          [
            73.556514,
            19.97104
          ],
          [
            73.555714,
            19.972608
          ],
          [
            73.555435,
            19.972709
          ],
          [
            73.555188,
            19.972769
          ],
          [
            73.554845,
            19.97285
          ],
          [
            73.554641,
            19.97282
          ],
          [
            73.554459,
            19.972729
          ],
          [
            73.554287,
            19.972537
          ],
          [
            73.554019,
            19.972235
          ],
          [
            73.55374,
            19.972063
          ],
          [
            73.553547,
            19.971952
          ],
          [
            73.553235,
            19.971932
          ],
          [
            73.55301,
            19.971932
          ],
          [
            73.552763,
            19.971872
          ],
          [
            73.552431,
            19.971811
          ],
          [
            73.552077,
            19.971761
          ],
          [
            73.551766,
            19.971751
          ],
          [
            73.551551,
            19.971721
          ],
          [
            73.551272,
            19.971628
          ],
          [
            73.551272,
            19.971628
          ],
          [
            73.551551,
            19.971721
          ],
          [
            73.551766,
            19.971751
          ],
          [
            73.552077,
            19.971761
          ],
          [
            73.552431,
            19.971811
          ],
          [
            73.552763,
            19.971872
          ],
          [
            73.55301,
            19.971932
          ],
          [
            73.553235,
            19.971932
          ],
          [
            73.553547,
            19.971952
          ],
          [
            73.55374,
            19.972063
          ],
          [
            73.554019,
            19.972235
          ],
          [
            73.554287,
            19.972537
          ],
          [
            73.554459,
            19.972729
          ],
          [
            73.554641,
            19.97282
          ],
          [
            73.554845,
            19.97285
          ],
          [
            73.555188,
            19.972769
          ],
          [
            73.555435,
            19.972709
          ],
          [
            73.555714,
            19.972608
          ],
          [
            73.556514,
            19.97104
          ],
          [
            73.556815,
            19.969931
          ],
          [
            73.556823,
            19.969879
          ],
          [
            73.556954,
            19.969084
          ],
          [
            73.557083,
            19.968277
          ],
          [
            73.557769,
            19.96623
          ],
          [
            73.558016,
            19.965524
          ],
          [
            73.558188,
            19.964395
          ],
          [
            73.558263,
            19.963699
          ],
          [
            73.558413,
            19.963346
          ],
          [
            73.558585,
            19.963104
          ],
          [
            73.558671,
            19.962973
          ],
          [
            73.558714,
            19.962932
          ],
          [
            73.558895,
            19.962762
          ],
          [
            73.559143,
            19.962529
          ],
          [
            73.559218,
            19.962307
          ],
          [
            73.559186,
            19.961732
          ],
          [
            73.559454,
            19.960926
          ],
          [
            73.559872,
            19.959978
          ],
          [
            73.560248,
            19.958727
          ],
          [
            73.56043,
            19.958011
          ],
          [
            73.561246,
            19.956297
          ],
          [
            73.561696,
            19.955208
          ],
          [
            73.562426,
            19.953877
          ],
          [
            73.562951,
            19.952868
          ],
          [
            73.563796,
            19.951162
          ],
          [
            73.563981,
            19.950831
          ],
          [
            73.564087,
            19.950633
          ],
          [
            73.564118,
            19.950567
          ],
          [
            73.564099,
            19.950561
          ],
          [
            73.562071,
            19.949668
          ],
          [
            73.558821,
            19.948226
          ],
          [
            73.556991,
            19.947359
          ],
          [
            73.555382,
            19.946406
          ],
          [
            73.554947,
            19.946116
          ],
          [
            73.554545,
            19.945881
          ],
          [
            73.553703,
            19.945377
          ],
          [
            73.553518,
            19.945269
          ],
          [
            73.553275,
            19.945145
          ],
          [
            73.552743,
            19.944968
          ],
          [
            73.552017,
            19.944879
          ],
          [
            73.551285,
            19.944805
          ],
          [
            73.550222,
            19.944724
          ],
          [
            73.549705,
            19.94467
          ],
          [
            73.549229,
            19.944556
          ],
          [
            73.54877,
            19.9444
          ],
          [
            73.54774,
            19.943891
          ],
          [
            73.546796,
            19.943383
          ],
          [
            73.54589,
            19.942988
          ],
          [
            73.544467,
            19.942282
          ],
          [
            73.543227,
            19.94174
          ],
          [
            73.54171,
            19.941024
          ],
          [
            73.539833,
            19.939904
          ],
          [
            73.537556,
            19.938453
          ],
          [
            73.537364,
            19.938309
          ],
          [
            73.536305,
            19.937422
          ],
          [
            73.536292,
            19.937409
          ],
          [
            73.536215,
            19.937337
          ],
          [
            73.535712,
            19.936829
          ],
          [
            73.535018,
            19.936155
          ],
          [
            73.534502,
            19.935654
          ],
          [
            73.534211,
            19.935359
          ],
          [
            73.534177,
            19.935322
          ],
          [
            73.534049,
            19.935184
          ],
          [
            73.533861,
            19.935001
          ],
          [
            73.53331,
            19.934593
          ],
          [
            73.533265,
            19.934562
          ],
          [
            73.53288,
            19.934295
          ],
          [
            73.532802,
            19.934247
          ],
          [
            73.532707,
            19.934231
          ],
          [
            73.532579,
            19.934161
          ],
          [
            73.532578,
            19.934119
          ],
          [
            73.532353,
            19.93392
          ],
          [
            73.532014,
            19.933621
          ],
          [
            73.531627,
            19.933284
          ],
          [
            73.531338,
            19.932972
          ],
          [
            73.531267,
            19.932931
          ],
          [
            73.531157,
            19.932867
          ],
          [
            73.531063,
            19.932813
          ],
          [
            73.530773,
            19.932704
          ],
          [
            73.530711,
            19.932681
          ],
          [
            73.53064,
            19.932666
          ],
          [
            73.530386,
            19.932621
          ],
          [
            73.529893,
            19.932601
          ],
          [
            73.529863,
            19.932602
          ],
          [
            73.529836,
            19.932601
          ],
          [
            73.529767,
            19.93226
          ],
          [
            73.529741,
            19.932058
          ],
          [
            73.52978,
            19.932054
          ],
          [
            73.529927,
            19.932028
          ],
          [
            73.530091,
            19.931985
          ],
          [
            73.530151,
            19.931962
          ],
          [
            73.530193,
            19.931898
          ],
          [
            73.530196,
            19.931743
          ],
          [
            73.530197,
            19.93163
          ],
          [
            73.530182,
            19.931584
          ],
          [
            73.53026,
            19.931545
          ],
          [
            73.530352,
            19.931475
          ],
          [
            73.530485,
            19.931397
          ],
          [
            73.530716,
            19.931299
          ],
          [
            73.530886,
            19.931211
          ],
          [
            73.530932,
            19.931177
          ],
          [
            73.531012,
            19.931256
          ],
          [
            73.531108,
            19.931375
          ],
          [
            73.531155,
            19.931485
          ],
          [
            73.531193,
            19.931659
          ],
          [
            73.531193,
            19.931799
          ],
          [
            73.531161,
            19.93188
          ]
        ]
      }
    }
  ]
}