{
  "type": "FeatureCollection",
  "features": [
    {
      "type": "Feature",
      "geometry": {
        "type": "Point",
        "coordinates": [
          73.55357651909542,
          19.94545201942488,
          0
        ]
      },
      "properties": {
        "name": "tunnel",
        "styleUrl": "#m_ylw-pushpin",
        "icon-scale": 1.1,
        "icon-offset": [
          20,
          2
        ],
        "icon-offset-units": [
          "pixels",
          "pixels"
        ],
        "icon": "http://maps.google.com/mapfiles/kml/pushpin/ylw-pushpin.png",
        "longitude": "73.55239454323832",
        "latitude": "19.94480652047991",
        "altitude": "0",
        "heading": "-28.71063623486638",
        "tilt": "28.62600563560596",
        "range": "724.86517800697",
        "gx:altitudeMode": "relativeToSeaFloor",
        "folderPath": [
          "tunnel location"
        ]
      }
    },
    {
      "type": "Feature",
      "geometry": {
        "type": "Point",
        "coordinates": [
          73.54778000065889,
          19.94381392325969,
          0
        ]
      },
      "properties": {
        "name": "tunel 2",
        "styleUrl": "#m_ylw-pushpin",
        "icon-scale": 1.1,
        "icon-offset": [
          20,
          2
        ],
        "icon-offset-units": [
          "pixels",
          "pixels"
        ],
        "icon": "http://maps.google.com/mapfiles/kml/pushpin/ylw-pushpin.png",
        "longitude": "73.54851201123009",
        "latitude": "19.9436957664835",
        "altitude": "0",
        "heading": "-28.71196057835655",
        "tilt": "28.62600430572126",
        "range": "724.5561222033047",
        "gx:altitudeMode": "relativeToSeaFloor",
        "folderPath": [
          "tunnel location"
        ]
      }
    },
    {
      "type": "Feature",
      "geometry": {
        "type": "Point",
        "coordinates": [
          73.545909725807,
          19.94311894013843,
          0
        ]
      },
      "properties": {
        "name": "tunel 3",
        "styleUrl": "#m_ylw-pushpin",
        "icon-scale": 1.1,
        "icon-offset": [
          20,
          2
        ],
        "icon-offset-units": [
          "pixels",
          "pixels"
        ],
        "icon": "http://maps.google.com/mapfiles/kml/pushpin/ylw-pushpin.png",
        "longitude": "73.54598930462474",
        "latitude": "19.94307394702563",
        "altitude": "0",
        "heading": "-28.71197097954788",
        "tilt": "22.5191448985887",
        "range": "679.3168695865533",
        "gx:altitudeMode": "relativeToSeaFloor",
        "folderPath": [
          "tunnel location"
        ]
      }
    },
    {
      "type": "Feature",
      "geometry": {
        "type": "Point",
        "coordinates": [
          73.54189927281845,
          19.9412586180913,
          0
        ]
      },
      "properties": {
        "name": "tunel 4",
        "styleUrl": "#m_ylw-pushpin",
        "icon-scale": 1.1,
        "icon-offset": [
          20,
          2
        ],
        "icon-offset-units": [
          "pixels",
          "pixels"
        ],
        "icon": "http://maps.google.com/mapfiles/kml/pushpin/ylw-pushpin.png",
        "longitude": "73.54187867645149",
        "latitude": "19.94236722305181",
        "altitude": "0",
        "heading": "-28.71337305817186",
        "tilt": "22.52272074376258",
        "range": "1718.903803080198",
        "gx:altitudeMode": "relativeToSeaFloor",
        "folderPath": [
          "tunnel location"
        ]
      }
    },
    {
      "type": "Feature",
      "geometry": {
        "type": "Point",
        "coordinates": [
          73.53335310746256,
          19.94078844787046,
          0
        ]
      },
      "properties": {
        "name": "tunel 5",
        "styleUrl": "#m_ylw-pushpin",
        "icon-scale": 1.1,
        "icon-offset": [
          20,
          2
        ],
        "icon-offset-units": [
          "pixels",
          "pixels"
        ],
        "icon": "http://maps.google.com/mapfiles/kml/pushpin/ylw-pushpin.png",
        "longitude": "73.54103942969992",
        "latitude": "19.94137523378631",
        "altitude": "0",
        "heading": "-28.7136592725461",
        "tilt": "22.52270605044253",
        "range": "1714.633238932244",
        "gx:altitudeMode": "relativeToSeaFloor",
        "folderPath": [
          "tunnel location"
        ]
      }
    }
  ]
}