{
  "type": "FeatureCollection",
  "features": [
    {
      "type": "Feature",
      "properties": {
        "type": "in-route-walkway"
      },
      "geometry": {
        "type": "LineString",
        "coordinates": [
          [
            73.517465,
            19.945555
          ],
          [
            73.517419,
            19.945734
          ],
          [
            73.517289,
            19.946485
          ],
          [
            73.517256,
            19.946792
          ],
          [
            73.517252,
            19.947157
          ],
          [
            73.517256,
            19.947455
          ],
          [
            73.517274,
            19.947562
          ],
          [
            73.517296,
            19.94789
          ],
          [
            73.517293,
            19.948037
          ],
          [
            73.517345,
            19.94857
          ],
          [
            73.517422,
            19.94906
          ],
          [
            73.517477,
            19.949341
          ],
          [
            73.517514,
            19.94948
          ],
          [
            73.517521,
            19.949526
          ],
          [
            73.517505,
            19.949587
          ],
          [
            73.517453,
            19.949619
          ],
          [
            73.517391,
            19.949624
          ],
          [
            73.517339,
            19.949613
          ],
          [
            73.51708,
            19.949462
          ],
          [
            73.517061,
            19.949433
          ],
          [
            73.516997,
            19.949442
          ],
          [
            73.516966,
            19.949485
          ],
          [
            73.516947,
            19.94954
          ],
          [
            73.516969,
            19.94963
          ],
          [
            73.517003,
            19.94972
          ],
          [
            73.516987,
            19.949859
          ],
          [
            73.516951,
            19.949943
          ],
          [
            73.516901,
            19.950015
          ],
          [
            73.516806,
            19.950097
          ],
          [
            73.516682,
            19.950282
          ],
          [
            73.516627,
            19.950334
          ],
          [
            73.516575,
            19.950354
          ],
          [
            73.516525,
            19.950331
          ],
          [
            73.516476,
            19.950273
          ],
          [
            73.516445,
            19.950146
          ],
          [
            73.516442,
            19.949876
          ],
          [
            73.516433,
            19.949781
          ],
          [
            73.516408,
            19.94974
          ],
          [
            73.516371,
            19.94972
          ],
          [
            73.516334,
            19.949743
          ],
          [
            73.516236,
            19.949891
          ],
          [
            73.516116,
            19.950123
          ],
          [
            73.516054,
            19.950322
          ],
          [
            73.516014,
            19.950586
          ],
          [
            73.515952,
            19.950635
          ],
          [
            73.515709,
            19.950479
          ],
          [
            73.515607,
            19.950401
          ],
          [
            73.515385,
            19.95027
          ],
          [
            73.515284,
            19.950224
          ],
          [
            73.515185,
            19.950215
          ],
          [
            73.51496,
            19.950247
          ],
          [
            73.514868,
            19.95027
          ],
          [
            73.514815,
            19.950322
          ],
          [
            73.514791,
            19.950482
          ],
          [
            73.514803,
            19.95058
          ],
          [
            73.514886,
            19.950789
          ],
          [
            73.514991,
            19.95096
          ],
          [
            73.51533,
            19.951432
          ],
          [
            73.515425,
            19.951634
          ],
          [
            73.515447,
            19.951733
          ],
          [
            73.51549,
            19.951823
          ],
          [
            73.515502,
            19.951909
          ],
          [
            73.515506,
            19.952034
          ],
          [
            73.515481,
            19.952248
          ],
          [
            73.515475,
            19.952503
          ],
          [
            73.515493,
            19.952807
          ],
          [
            73.515527,
            19.952938
          ],
          [
            73.515567,
            19.953195
          ],
          [
            73.515653,
            19.953462
          ],
          [
            73.515746,
            19.953667
          ],
          [
            73.515814,
            19.953777
          ],
          [
            73.515894,
            19.953983
          ],
          [
            73.515903,
            19.95407
          ],
          [
            73.515891,
            19.954157
          ],
          [
            73.515817,
            19.954371
          ],
          [
            73.515697,
            19.954597
          ],
          [
            73.515595,
            19.954713
          ],
          [
            73.515432,
            19.954866
          ],
          [
            73.515142,
            19.955162
          ],
          [
            73.515077,
            19.955252
          ],
          [
            73.51488,
            19.955457
          ],
          [
            73.514726,
            19.955648
          ],
          [
            73.514621,
            19.955753
          ],
          [
            73.514399,
            19.956016
          ],
          [
            73.514347,
            19.95608
          ],
          [
            73.514295,
            19.95617
          ],
          [
            73.514113,
            19.956659
          ],
          [
            73.513987,
            19.957169
          ],
          [
            73.51391,
            19.957615
          ],
          [
            73.513922,
            19.957797
          ],
          [
            73.513965,
            19.958009
          ],
          [
            73.51399,
            19.958208
          ],
          [
            73.513999,
            19.958298
          ],
          [
            73.514296,
            19.958198
          ],
          [
            73.515692,
            19.957943
          ],
          [
            73.516349,
            19.957895
          ],
          [
            73.516875,
            19.95781
          ],
          [
            73.517521,
            19.957677
          ],
          [
            73.518179,
            19.957498
          ],
          [
            73.518676,
            19.957316
          ],
          [
            73.519011,
            19.957173
          ],
          [
            73.519392,
            19.956925
          ],
          [
            73.519683,
            19.956661
          ],
          [
            73.520054,
            19.956236
          ],
          [
            73.520267,
            19.956015
          ],
          [
            73.520489,
            19.955848
          ],
          [
            73.520783,
            19.9557
          ],
          [
            73.520976,
            19.95563
          ],
          [
            73.521425,
            19.955502
          ],
          [
            73.521614,
            19.955405
          ],
          [
            73.521853,
            19.955231
          ],
          [
            73.522487,
            19.954547
          ],
          [
            73.52337,
            19.953594
          ],
          [
            73.523757,
            19.953116
          ],
          [
            73.525609,
            19.950441
          ],
          [
            73.525733,
            19.950262
          ],
          [
            73.52626,
            19.949573
          ],
          [
            73.527028,
            19.948578
          ],
          [
            73.527969,
            19.947358
          ],
          [
            73.528724,
            19.946381
          ],
          [
            73.529062,
            19.945965
          ],
          [
            73.529495,
            19.945491
          ],
          [
            73.529814,
            19.94516
          ],
          [
            73.530559,
            19.944389
          ],
          [
            73.531223,
            19.943638
          ],
          [
            73.533226,
            19.941091
          ],
          [
            73.533129,
            19.941022
          ],
          [
            73.533044,
            19.939947
          ],
          [
            73.532945,
            19.939198
          ],
          [
            73.532762,
            19.938264
          ],
          [
            73.532584,
            19.937526
          ],
          [
            73.532469,
            19.936936
          ],
          [
            73.532443,
            19.936807
          ],
          [
            73.532418,
            19.936681
          ],
          [
            73.532407,
            19.936538
          ],
          [
            73.532376,
            19.936095
          ],
          [
            73.532354,
            19.935582
          ],
          [
            73.532316,
            19.935129
          ],
          [
            73.532293,
            19.934884
          ],
          [
            73.531711,
            19.934887
          ],
          [
            73.531341,
            19.934862
          ],
          [
            73.531112,
            19.934847
          ],
          [
            73.531008,
            19.934842
          ]
        ]
      }
    },
    {
      "type": "Feature",
      "properties": {
        "type": "in-route-walkway"
      },
      "geometry": {
        "type": "LineString",
        "coordinates": [
          [
            73.552124,
            19.955277
          ],
          [
            73.552124,
            19.955277
          ],
          [
            73.552107,
            19.955148
          ],
          [
            73.552083,
            19.955078
          ],
          [
            73.552019,
            19.955012
          ],
          [
            73.551992,
            19.954914
          ],
          [
            73.551965,
            19.954722
          ],
          [
            73.551914,
            19.954548
          ],
          [
            73.551871,
            19.954392
          ],
          [
            73.551847,
            19.954304
          ],
          [
            73.551847,
            19.954243
          ],
          [
            73.551869,
            19.954107
          ],
          [
            73.551901,
            19.953973
          ],
          [
            73.551904,
            19.953883
          ],
          [
            73.551888,
            19.953784
          ],
          [
            73.551877,
            19.953696
          ],
          [
            73.551877,
            19.95357
          ],
          [
            73.551869,
            19.953257
          ],
          [
            73.551837,
            19.952627
          ],
          [
            73.55181,
            19.952229
          ],
          [
            73.551796,
            19.952128
          ],
          [
            73.551756,
            19.95205
          ],
          [
            73.551654,
            19.951944
          ],
          [
            73.551523,
            19.95181
          ],
          [
            73.551413,
            19.951709
          ],
          [
            73.55134,
            19.951611
          ],
          [
            73.551292,
            19.951515
          ],
          [
            73.551263,
            19.951364
          ],
          [
            73.551238,
            19.951243
          ],
          [
            73.551252,
            19.951079
          ],
          [
            73.551273,
            19.950955
          ],
          [
            73.551311,
            19.950812
          ],
          [
            73.551424,
            19.950529
          ],
          [
            73.551474,
            19.950368
          ],
          [
            73.551483,
            19.95028
          ],
          [
            73.551477,
            19.950113
          ],
          [
            73.551458,
            19.949967
          ],
          [
            73.551421,
            19.949871
          ],
          [
            73.551383,
            19.949806
          ],
          [
            73.551359,
            19.94975
          ],
          [
            73.551351,
            19.949652
          ],
          [
            73.55134,
            19.949539
          ],
          [
            73.551295,
            19.949155
          ],
          [
            73.551281,
            19.948938
          ],
          [
            73.551238,
            19.948828
          ],
          [
            73.551217,
            19.948759
          ],
          [
            73.551198,
            19.948696
          ],
          [
            73.55119,
            19.948636
          ],
          [
            73.551204,
            19.948501
          ],
          [
            73.551219,
            19.948463
          ],
          [
            73.55129,
            19.948403
          ],
          [
            73.55134,
            19.948356
          ],
          [
            73.551365,
            19.948305
          ],
          [
            73.551403,
            19.948178
          ],
          [
            73.551471,
            19.947917
          ],
          [
            73.551554,
            19.947683
          ],
          [
            73.551646,
            19.94747
          ],
          [
            73.551706,
            19.947393
          ],
          [
            73.551802,
            19.947255
          ],
          [
            73.551869,
            19.947104
          ],
          [
            73.55192,
            19.946949
          ],
          [
            73.551963,
            19.946774
          ],
          [
            73.551996,
            19.946523
          ],
          [
            73.55201,
            19.946388
          ],
          [
            73.552014,
            19.946264
          ],
          [
            73.552009,
            19.94618
          ],
          [
            73.551986,
            19.946111
          ],
          [
            73.551897,
            19.945981
          ],
          [
            73.551825,
            19.945904
          ],
          [
            73.55178,
            19.945811
          ],
          [
            73.551703,
            19.945414
          ],
          [
            73.551641,
            19.945049
          ],
          [
            73.551619,
            19.944936
          ],
          [
            73.55278,
            19.945089
          ],
          [
            73.553347,
            19.945297
          ],
          [
            73.554501,
            19.945971
          ],
          [
            73.554957,
            19.94624
          ],
          [
            73.556365,
            19.947127
          ],
          [
            73.556914,
            19.947446
          ],
          [
            73.557402,
            19.94768
          ],
          [
            73.558185,
            19.948026
          ],
          [
            73.559735,
            19.94871
          ],
          [
            73.559909,
            19.948787
          ],
          [
            73.564087,
            19.950633
          ],
          [
            73.564118,
            19.950567
          ],
          [
            73.564099,
            19.950561
          ],
          [
            73.562071,
            19.949668
          ],
          [
            73.558821,
            19.948226
          ],
          [
            73.556991,
            19.947359
          ],
          [
            73.555382,
            19.946406
          ],
          [
            73.554947,
            19.946116
          ],
          [
            73.554545,
            19.945881
          ],
          [
            73.553703,
            19.945377
          ],
          [
            73.553518,
            19.945269
          ],
          [
            73.553275,
            19.945145
          ],
          [
            73.552743,
            19.944968
          ],
          [
            73.552017,
            19.944879
          ],
          [
            73.551285,
            19.944805
          ],
          [
            73.550222,
            19.944724
          ],
          [
            73.549705,
            19.94467
          ],
          [
            73.549229,
            19.944556
          ],
          [
            73.54877,
            19.9444
          ],
          [
            73.54774,
            19.943891
          ],
          [
            73.546796,
            19.943383
          ],
          [
            73.54589,
            19.942988
          ],
          [
            73.544467,
            19.942282
          ],
          [
            73.543227,
            19.94174
          ],
          [
            73.54171,
            19.941024
          ],
          [
            73.539833,
            19.939904
          ],
          [
            73.537556,
            19.938453
          ],
          [
            73.537364,
            19.938309
          ],
          [
            73.536305,
            19.937422
          ],
          [
            73.536292,
            19.937409
          ],
          [
            73.536215,
            19.937337
          ],
          [
            73.535712,
            19.936829
          ],
          [
            73.535018,
            19.936155
          ],
          [
            73.534502,
            19.935654
          ],
          [
            73.534211,
            19.935359
          ],
          [
            73.534177,
            19.935322
          ],
          [
            73.534049,
            19.935184
          ],
          [
            73.533861,
            19.935001
          ],
          [
            73.53331,
            19.934593
          ],
          [
            73.533265,
            19.934562
          ],
          [
            73.53288,
            19.934295
          ],
          [
            73.532802,
            19.934247
          ],
          [
            73.532707,
            19.934231
          ],
          [
            73.532579,
            19.934161
          ],
          [
            73.532537,
            19.934191
          ],
          [
            73.532507,
            19.934195
          ],
          [
            73.532488,
            19.934196
          ],
          [
            73.5324,
            19.934182
          ],
          [
            73.532339,
            19.93433
          ],
          [
            73.532293,
            19.934884
          ],
          [
            73.531711,
            19.934887
          ],
          [
            73.531341,
            19.934862
          ],
          [
            73.531112,
            19.934847
          ],
          [
            73.531008,
            19.934842
          ]
        ]
      }
    },
    {
      "type": "Feature",
      "properties": {
        "type": "in-route-walkway"
      },
      "geometry": {
        "type": "LineString",
        "coordinates": [
          [
            73.542483,
            19.934396
          ],
          [
            73.540885,
            19.93426
          ],
          [
            73.540772,
            19.934277
          ],
          [
            73.540691,
            19.934338
          ],
          [
            73.540244,
            19.935097
          ],
          [
            73.53953,
            19.935732
          ],
          [
            73.539476,
            19.935819
          ],
          [
            73.539224,
            19.935607
          ],
          [
            73.538924,
            19.935355
          ],
          [
            73.538516,
            19.935138
          ],
          [
            73.538377,
            19.934997
          ],
          [
            73.538162,
            19.934906
          ],
          [
            73.537851,
            19.934845
          ],
          [
            73.537631,
            19.93482
          ],
          [
            73.537491,
            19.93475
          ],
          [
            73.537347,
            19.934639
          ],
          [
            73.537218,
            19.934553
          ],
          [
            73.537003,
            19.934442
          ],
          [
            73.53674,
            19.934361
          ],
          [
            73.53651,
            19.93422
          ],
          [
            73.536349,
            19.934139
          ],
          [
            73.536188,
            19.934043
          ],
          [
            73.536075,
            19.934008
          ],
          [
            73.535855,
            19.933907
          ],
          [
            73.535667,
            19.933827
          ],
          [
            73.535211,
            19.933695
          ],
          [
            73.534659,
            19.933635
          ],
          [
            73.534438,
            19.933608
          ],
          [
            73.534187,
            19.933519
          ],
          [
            73.533972,
            19.933468
          ],
          [
            73.533869,
            19.933445
          ],
          [
            73.533704,
            19.933408
          ],
          [
            73.533538,
            19.933475
          ],
          [
            73.533435,
            19.933567
          ],
          [
            73.533391,
            19.933588
          ],
          [
            73.533304,
            19.933593
          ],
          [
            73.533196,
            19.933571
          ],
          [
            73.533052,
            19.933499
          ],
          [
            73.532976,
            19.933511
          ],
          [
            73.532875,
            19.933583
          ],
          [
            73.532782,
            19.933688
          ],
          [
            73.532594,
            19.934007
          ],
          [
            73.532578,
            19.934119
          ],
          [
            73.532579,
            19.934161
          ],
          [
            73.532537,
            19.934191
          ],
          [
            73.532507,
            19.934195
          ],
          [
            73.532488,
            19.934196
          ],
          [
            73.5324,
            19.934182
          ],
          [
            73.532339,
            19.93433
          ],
          [
            73.532293,
            19.934884
          ],
          [
            73.531711,
            19.934887
          ],
          [
            73.531341,
            19.934862
          ],
          [
            73.531112,
            19.934847
          ],
          [
            73.531008,
            19.934842
          ]
        ]
      }
    },
    {
      "type": "Feature",
      "properties": {
        "type": "in-route-walkway"
      },
      "geometry": {
        "type": "LineString",
        "coordinates": [
          [
            73.537307,
            19.917626
          ],
          [
            73.537307,
            19.917626
          ],
          [
            73.537382,
            19.917666
          ],
          [
            73.537591,
            19.917636
          ],
          [
            73.537779,
            19.917621
          ],
          [
            73.538015,
            19.917676
          ],
          [
            73.538203,
            19.917742
          ],
          [
            73.538396,
            19.917813
          ],
          [
            73.538632,
            19.917944
          ],
          [
            73.538847,
            19.918045
          ],
          [
            73.539093,
            19.918191
          ],
          [
            73.539206,
            19.918261
          ],
          [
            73.539303,
            19.918387
          ],
          [
            73.539378,
            19.918473
          ],
          [
            73.539555,
            19.91865
          ],
          [
            73.539523,
            19.918751
          ],
          [
            73.539528,
            19.918897
          ],
          [
            73.539582,
            19.919129
          ],
          [
            73.539625,
            19.919275
          ],
          [
            73.539641,
            19.919391
          ],
          [
            73.53971,
            19.919487
          ],
          [
            73.539812,
            19.919558
          ],
          [
            73.53993,
            19.919658
          ],
          [
            73.539957,
            19.919734
          ],
          [
            73.539989,
            19.919845
          ],
          [
            73.540054,
            19.919951
          ],
          [
            73.540091,
            19.920057
          ],
          [
            73.540177,
            19.920168
          ],
          [
            73.540295,
            19.920238
          ],
          [
            73.540338,
            19.920329
          ],
          [
            73.540338,
            19.92041
          ],
          [
            73.540306,
            19.920536
          ],
          [
            73.540386,
            19.920682
          ],
          [
            73.540526,
            19.920768
          ],
          [
            73.540665,
            19.920904
          ],
          [
            73.540837,
            19.921076
          ],
          [
            73.540933,
            19.921136
          ],
          [
            73.541089,
            19.921217
          ],
          [
            73.541309,
            19.921318
          ],
          [
            73.541373,
            19.921398
          ],
          [
            73.541459,
            19.921459
          ],
          [
            73.541588,
            19.921444
          ],
          [
            73.541727,
            19.921419
          ],
          [
            73.541867,
            19.921383
          ],
          [
            73.542028,
            19.921373
          ],
          [
            73.542296,
            19.921459
          ],
          [
            73.542376,
            19.92156
          ],
          [
            73.542462,
            19.921676
          ],
          [
            73.542564,
            19.921741
          ],
          [
            73.542693,
            19.921827
          ],
          [
            73.542843,
            19.921908
          ],
          [
            73.543026,
            19.921918
          ],
          [
            73.543272,
            19.921913
          ],
          [
            73.543524,
            19.921883
          ],
          [
            73.543718,
            19.921847
          ],
          [
            73.543873,
            19.921898
          ],
          [
            73.543986,
            19.921948
          ],
          [
            73.544034,
            19.922054
          ],
          [
            73.544088,
            19.922175
          ],
          [
            73.544292,
            19.922301
          ],
          [
            73.54456,
            19.922478
          ],
          [
            73.544705,
            19.922609
          ],
          [
            73.544909,
            19.922705
          ],
          [
            73.54508,
            19.922811
          ],
          [
            73.54523,
            19.922886
          ],
          [
            73.545327,
            19.922891
          ],
          [
            73.545493,
            19.922942
          ],
          [
            73.545622,
            19.922972
          ],
          [
            73.545719,
            19.923053
          ],
          [
            73.545756,
            19.923143
          ],
          [
            73.545778,
            19.923275
          ],
          [
            73.545788,
            19.923386
          ],
          [
            73.545869,
            19.923522
          ],
          [
            73.545992,
            19.923612
          ],
          [
            73.545971,
            19.923784
          ],
          [
            73.546067,
            19.923976
          ],
          [
            73.546089,
            19.924157
          ],
          [
            73.546132,
            19.924298
          ],
          [
            73.546158,
            19.924465
          ],
          [
            73.546293,
            19.924606
          ],
          [
            73.546389,
            19.924752
          ],
          [
            73.546529,
            19.924999
          ],
          [
            73.546727,
            19.925499
          ],
          [
            73.54685,
            19.925862
          ],
          [
            73.546877,
            19.926084
          ],
          [
            73.546968,
            19.926593
          ],
          [
            73.547076,
            19.926875
          ],
          [
            73.547124,
            19.92738
          ],
          [
            73.54714,
            19.927692
          ],
          [
            73.547103,
            19.927884
          ],
          [
            73.547092,
            19.928146
          ],
          [
            73.547044,
            19.928545
          ],
          [
            73.546952,
            19.928888
          ],
          [
            73.546952,
            19.929221
          ],
          [
            73.547033,
            19.929548
          ],
          [
            73.547119,
            19.92972
          ],
          [
            73.547253,
            19.929922
          ],
          [
            73.547457,
            19.930078
          ],
          [
            73.547612,
            19.930128
          ],
          [
            73.547778,
            19.930123
          ],
          [
            73.548041,
            19.930058
          ],
          [
            73.548272,
            19.930033
          ],
          [
            73.54854,
            19.929972
          ],
          [
            73.548712,
            19.929932
          ],
          [
            73.548862,
            19.929952
          ],
          [
            73.549012,
            19.930007
          ],
          [
            73.549066,
            19.930113
          ],
          [
            73.549061,
            19.930239
          ],
          [
            73.549018,
            19.93033
          ],
          [
            73.549002,
            19.930461
          ],
          [
            73.549007,
            19.930602
          ],
          [
            73.549039,
            19.930895
          ],
          [
            73.549039,
            19.931021
          ],
          [
            73.549044,
            19.931152
          ],
          [
            73.549077,
            19.931293
          ],
          [
            73.54905,
            19.9315
          ],
          [
            73.548975,
            19.931969
          ],
          [
            73.548934,
            19.932465
          ],
          [
            73.548944,
            19.932919
          ],
          [
            73.548977,
            19.933075
          ],
          [
            73.548977,
            19.933206
          ],
          [
            73.548918,
            19.933625
          ],
          [
            73.548939,
            19.934013
          ],
          [
            73.54895,
            19.934432
          ],
          [
            73.548939,
            19.93476
          ],
          [
            73.548928,
            19.934825
          ],
          [
            73.548907,
            19.934921
          ],
          [
            73.548896,
            19.935037
          ],
          [
            73.548987,
            19.935133
          ],
          [
            73.549073,
            19.935203
          ],
          [
            73.549132,
            19.93535
          ],
          [
            73.549138,
            19.935531
          ],
          [
            73.549175,
            19.935748
          ],
          [
            73.549223,
            19.935889
          ],
          [
            73.549395,
            19.936071
          ],
          [
            73.549443,
            19.936131
          ],
          [
            73.549481,
            19.936197
          ],
          [
            73.54947,
            19.936308
          ],
          [
            73.549427,
            19.936424
          ],
          [
            73.549443,
            19.936515
          ],
          [
            73.549529,
            19.936595
          ],
          [
            73.54961,
            19.936691
          ],
          [
            73.549588,
            19.936752
          ],
          [
            73.549524,
            19.936757
          ],
          [
            73.549427,
            19.936731
          ],
          [
            73.549368,
            19.936742
          ],
          [
            73.549325,
            19.936797
          ],
          [
            73.549336,
            19.936868
          ],
          [
            73.549497,
            19.937049
          ],
          [
            73.549722,
            19.937266
          ],
          [
            73.549776,
            19.937346
          ],
          [
            73.549712,
            19.937412
          ],
          [
            73.549626,
            19.937397
          ],
          [
            73.549518,
            19.937382
          ],
          [
            73.549481,
            19.937483
          ],
          [
            73.549438,
            19.937725
          ],
          [
            73.549422,
            19.937906
          ],
          [
            73.549475,
            19.938012
          ],
          [
            73.549502,
            19.938108
          ],
          [
            73.549475,
            19.938244
          ],
          [
            73.549449,
            19.938506
          ],
          [
            73.549416,
            19.938784
          ],
          [
            73.549465,
            19.938905
          ],
          [
            73.54954,
            19.939086
          ],
          [
            73.549551,
            19.939308
          ],
          [
            73.549631,
            19.939611
          ],
          [
            73.549771,
            19.94013
          ],
          [
            73.549851,
            19.940533
          ],
          [
            73.549835,
            19.940871
          ],
          [
            73.549813,
            19.941129
          ],
          [
            73.549776,
            19.941239
          ],
          [
            73.549695,
            19.94133
          ],
          [
            73.549647,
            19.941466
          ],
          [
            73.54961,
            19.941643
          ],
          [
            73.54962,
            19.941759
          ],
          [
            73.549663,
            19.941895
          ],
          [
            73.549658,
            19.942006
          ],
          [
            73.549599,
            19.942127
          ],
          [
            73.549481,
            19.942344
          ],
          [
            73.549309,
            19.942672
          ],
          [
            73.54918,
            19.942904
          ],
          [
            73.549105,
            19.943035
          ],
          [
            73.549025,
            19.943347
          ],
          [
            73.548966,
            19.943544
          ],
          [
            73.54888,
            19.943615
          ],
          [
            73.548698,
            19.9437
          ],
          [
            73.548553,
            19.943741
          ],
          [
            73.548408,
            19.943751
          ],
          [
            73.548274,
            19.943771
          ],
          [
            73.548108,
            19.943836
          ],
          [
            73.547775,
            19.943806
          ],
          [
            73.547768,
            19.943835
          ],
          [
            73.54774,
            19.943891
          ],
          [
            73.546796,
            19.943383
          ],
          [
            73.54589,
            19.942988
          ],
          [
            73.544467,
            19.942282
          ],
          [
            73.543227,
            19.94174
          ],
          [
            73.54171,
            19.941024
          ],
          [
            73.539833,
            19.939904
          ],
          [
            73.537556,
            19.938453
          ],
          [
            73.537364,
            19.938309
          ],
          [
            73.536305,
            19.937422
          ],
          [
            73.536292,
            19.937409
          ],
          [
            73.536215,
            19.937337
          ],
          [
            73.535712,
            19.936829
          ],
          [
            73.535018,
            19.936155
          ],
          [
            73.534502,
            19.935654
          ],
          [
            73.534211,
            19.935359
          ],
          [
            73.534177,
            19.935322
          ],
          [
            73.534049,
            19.935184
          ],
          [
            73.533861,
            19.935001
          ],
          [
            73.53331,
            19.934593
          ],
          [
            73.533265,
            19.934562
          ],
          [
            73.53288,
            19.934295
          ],
          [
            73.532802,
            19.934247
          ],
          [
            73.532707,
            19.934231
          ],
          [
            73.532579,
            19.934161
          ],
          [
            73.532537,
            19.934191
          ],
          [
            73.532507,
            19.934195
          ],
          [
            73.532488,
            19.934196
          ],
          [
            73.5324,
            19.934182
          ],
          [
            73.532339,
            19.93433
          ],
          [
            73.532293,
            19.934884
          ],
          [
            73.531711,
            19.934887
          ],
          [
            73.531341,
            19.934862
          ],
          [
            73.531112,
            19.934847
          ],
          [
            73.531008,
            19.934842
          ]
        ]
      }
    },
    {
      "type": "Feature",
      "properties": {
        "type": "in-route-walkway"
      },
      "geometry": {
        "type": "LineString",
        "coordinates": [
          [
            73.551974,
            19.941294
          ],
          [
            73.551593,
            19.942737
          ],
          [
            73.551379,
            19.944219
          ],
          [
            73.551285,
            19.944805
          ],
          [
            73.550222,
            19.944724
          ],
          [
            73.549705,
            19.94467
          ],
          [
            73.549229,
            19.944556
          ],
          [
            73.54877,
            19.9444
          ],
          [
            73.54774,
            19.943891
          ],
          [
            73.546796,
            19.943383
          ],
          [
            73.54589,
            19.942988
          ],
          [
            73.544467,
            19.942282
          ],
          [
            73.543227,
            19.94174
          ],
          [
            73.54171,
            19.941024
          ],
          [
            73.539833,
            19.939904
          ],
          [
            73.537556,
            19.938453
          ],
          [
            73.537364,
            19.938309
          ],
          [
            73.536305,
            19.937422
          ],
          [
            73.536292,
            19.937409
          ],
          [
            73.536215,
            19.937337
          ],
          [
            73.535712,
            19.936829
          ],
          [
            73.535018,
            19.936155
          ],
          [
            73.534502,
            19.935654
          ],
          [
            73.534211,
            19.935359
          ],
          [
            73.534177,
            19.935322
          ],
          [
            73.534049,
            19.935184
          ],
          [
            73.533861,
            19.935001
          ],
          [
            73.53331,
            19.934593
          ],
          [
            73.533265,
            19.934562
          ],
          [
            73.53288,
            19.934295
          ],
          [
            73.532802,
            19.934247
          ],
          [
            73.532707,
            19.934231
          ],
          [
            73.532579,
            19.934161
          ],
          [
            73.532537,
            19.934191
          ],
          [
            73.532507,
            19.934195
          ],
          [
            73.532488,
            19.934196
          ],
          [
            73.5324,
            19.934182
          ],
          [
            73.532339,
            19.93433
          ],
          [
            73.532293,
            19.934884
          ],
          [
            73.531711,
            19.934887
          ],
          [
            73.531341,
            19.934862
          ],
          [
            73.531112,
            19.934847
          ],
          [
            73.531008,
            19.934842
          ]
        ]
      }
    },
    {
      "type": "Feature",
      "properties": {
        "type": "out-route-walkway"
      },
      "geometry": {
        "type": "LineString",
        "coordinates": [
          [
            73.531308,
            19.935142
          ],
          [
            73.53141199999999,
            19.935147
          ],
          [
            73.531641,
            19.935162
          ],
          [
            73.532011,
            19.935187
          ],
          [
            73.53259299999999,
            19.935184
          ],
          [
            73.53261599999999,
            19.935429
          ],
          [
            73.532654,
            19.935882
          ],
          [
            73.532676,
            19.936395
          ],
          [
            73.532707,
            19.936837999999998
          ],
          [
            73.532718,
            19.936981
          ],
          [
            73.532743,
            19.937107
          ],
          [
            73.532769,
            19.937236
          ],
          [
            73.532884,
            19.937825999999998
          ],
          [
            73.533062,
            19.938564
          ],
          [
            73.533245,
            19.939498
          ],
          [
            73.533344,
            19.940247
          ],
          [
            73.533429,
            19.941322
          ],
          [
            73.531797,
            19.94344
          ],
          [
            73.531114,
            19.944259
          ],
          [
            73.530283,
            19.945156
          ],
          [
            73.530035,
            19.945412
          ],
          [
            73.52965499999999,
            19.945802
          ],
          [
            73.52915,
            19.946377
          ],
          [
            73.52863699999999,
            19.947039999999998
          ],
          [
            73.528188,
            19.947613999999998
          ],
          [
            73.527239,
            19.94883
          ],
          [
            73.52678399999999,
            19.949413
          ],
          [
            73.526184,
            19.950201
          ],
          [
            73.52583,
            19.950705
          ],
          [
            73.525041,
            19.95183
          ],
          [
            73.524107,
            19.95318
          ],
          [
            73.523826,
            19.953551
          ],
          [
            73.522638,
            19.954874999999998
          ],
          [
            73.52204599999999,
            19.955500999999998
          ],
          [
            73.521771,
            19.955674
          ],
          [
            73.52118999999999,
            19.955872
          ],
          [
            73.520899,
            19.955987
          ],
          [
            73.520674,
            19.956114
          ],
          [
            73.520449,
            19.956302
          ],
          [
            73.519796,
            19.957027
          ],
          [
            73.519562,
            19.957213
          ],
          [
            73.519125,
            19.95747
          ],
          [
            73.518689,
            19.957632
          ],
          [
            73.517837,
            19.957877
          ],
          [
            73.516995,
            19.95806
          ],
          [
            73.515992,
            19.958243
          ],
          [
            73.514596,
            19.958498
          ],
          [
            73.514299,
            19.958598
          ],
          [
            73.51429,
            19.958508
          ],
          [
            73.514265,
            19.958309
          ],
          [
            73.51422199999999,
            19.958097
          ],
          [
            73.51420999999999,
            19.957915
          ],
          [
            73.514287,
            19.957469
          ],
          [
            73.51441299999999,
            19.956958999999998
          ],
          [
            73.514595,
            19.95647
          ],
          [
            73.514647,
            19.95638
          ],
          [
            73.514699,
            19.956316
          ],
          [
            73.514921,
            19.956053
          ],
          [
            73.51502599999999,
            19.955948
          ],
          [
            73.51518,
            19.955757
          ],
          [
            73.515377,
            19.955552
          ],
          [
            73.515442,
            19.955462
          ],
          [
            73.515732,
            19.955166
          ],
          [
            73.515895,
            19.955013
          ],
          [
            73.515997,
            19.954897
          ],
          [
            73.516117,
            19.954670999999998
          ],
          [
            73.51619099999999,
            19.954456999999998
          ],
          [
            73.51620299999999,
            19.95437
          ],
          [
            73.516194,
            19.954283
          ],
          [
            73.516114,
            19.954076999999998
          ],
          [
            73.51604599999999,
            19.953967
          ],
          [
            73.515953,
            19.953761999999998
          ],
          [
            73.515867,
            19.953495
          ],
          [
            73.515827,
            19.953238
          ],
          [
            73.515793,
            19.953107
          ],
          [
            73.51577499999999,
            19.952803
          ],
          [
            73.51578099999999,
            19.952548
          ],
          [
            73.515806,
            19.952334
          ],
          [
            73.515802,
            19.952209
          ],
          [
            73.51579,
            19.952123
          ],
          [
            73.51574699999999,
            19.952033
          ],
          [
            73.51572499999999,
            19.951933999999998
          ],
          [
            73.51563,
            19.951732
          ],
          [
            73.51529099999999,
            19.951259999999998
          ],
          [
            73.515186,
            19.951089
          ],
          [
            73.515103,
            19.950879999999998
          ],
          [
            73.515091,
            19.950782
          ],
          [
            73.515115,
            19.950622
          ],
          [
            73.515168,
            19.95057
          ],
          [
            73.51526,
            19.950547
          ],
          [
            73.515485,
            19.950515
          ],
          [
            73.51558399999999,
            19.950523999999998
          ],
          [
            73.51568499999999,
            19.95057
          ],
          [
            73.515907,
            19.950701
          ],
          [
            73.516009,
            19.950779
          ],
          [
            73.516252,
            19.950934999999998
          ],
          [
            73.516314,
            19.950886
          ],
          [
            73.51635399999999,
            19.950622
          ],
          [
            73.51641599999999,
            19.950423
          ],
          [
            73.516536,
            19.950191
          ],
          [
            73.516634,
            19.950043
          ],
          [
            73.516671,
            19.95002
          ],
          [
            73.516708,
            19.950039999999998
          ],
          [
            73.516733,
            19.950081
          ],
          [
            73.516742,
            19.950176
          ],
          [
            73.516745,
            19.950446
          ],
          [
            73.516776,
            19.950573
          ],
          [
            73.516825,
            19.950630999999998
          ],
          [
            73.516875,
            19.950654
          ],
          [
            73.516927,
            19.950634
          ],
          [
            73.516982,
            19.950582
          ],
          [
            73.517106,
            19.950397
          ],
          [
            73.517201,
            19.950315
          ],
          [
            73.517251,
            19.950243
          ],
          [
            73.517287,
            19.950159
          ],
          [
            73.517303,
            19.95002
          ],
          [
            73.517269,
            19.94993
          ],
          [
            73.517247,
            19.94984
          ],
          [
            73.51726599999999,
            19.949785
          ],
          [
            73.517297,
            19.949742
          ],
          [
            73.517361,
            19.949733
          ],
          [
            73.51738,
            19.949762
          ],
          [
            73.517639,
            19.949913
          ],
          [
            73.517691,
            19.949924
          ],
          [
            73.517753,
            19.949918999999998
          ],
          [
            73.517805,
            19.949887
          ],
          [
            73.517821,
            19.949825999999998
          ],
          [
            73.517814,
            19.94978
          ],
          [
            73.517777,
            19.949641
          ],
          [
            73.51772199999999,
            19.94936
          ],
          [
            73.517645,
            19.94887
          ],
          [
            73.51759299999999,
            19.948337
          ],
          [
            73.517596,
            19.94819
          ],
          [
            73.517574,
            19.947862
          ],
          [
            73.517556,
            19.947755
          ],
          [
            73.517552,
            19.947457
          ],
          [
            73.517556,
            19.947091999999998
          ],
          [
            73.517589,
            19.946785
          ],
          [
            73.517719,
            19.946034
          ],
          [
            73.517765,
            19.945854999999998
          ]
        ]
      }
    },
    {
      "type": "Feature",
      "properties": {
        "type": "out-route-walkway"
      },
      "geometry": {
        "type": "LineString",
        "coordinates": [
          [
            73.531308,
            19.935142
          ],
          [
            73.53141199999999,
            19.935147
          ],
          [
            73.531641,
            19.935162
          ],
          [
            73.532011,
            19.935187
          ],
          [
            73.53259299999999,
            19.935184
          ],
          [
            73.53263899999999,
            19.93463
          ],
          [
            73.53269999999999,
            19.934482
          ],
          [
            73.532788,
            19.934496
          ],
          [
            73.53280699999999,
            19.934495
          ],
          [
            73.532837,
            19.934490999999998
          ],
          [
            73.532879,
            19.934461
          ],
          [
            73.533007,
            19.934531
          ],
          [
            73.53304299999999,
            19.934601
          ],
          [
            73.533107,
            19.93466
          ],
          [
            73.53352,
            19.934929999999998
          ],
          [
            73.53407299999999,
            19.935329
          ],
          [
            73.53442299999999,
            19.935662
          ],
          [
            73.53478299999999,
            19.936006
          ],
          [
            73.535274,
            19.936491
          ],
          [
            73.53533399999999,
            19.936550999999998
          ],
          [
            73.535866,
            19.937086
          ],
          [
            73.53621,
            19.937447
          ],
          [
            73.536452,
            19.937694999999998
          ],
          [
            73.536538,
            19.937772
          ],
          [
            73.53685399999999,
            19.93804
          ],
          [
            73.537179,
            19.938314
          ],
          [
            73.537577,
            19.93865
          ],
          [
            73.537646,
            19.938708
          ],
          [
            73.537832,
            19.938844
          ],
          [
            73.53957,
            19.939972
          ],
          [
            73.54153199999999,
            19.941154
          ],
          [
            73.542272,
            19.941547
          ],
          [
            73.54238199999999,
            19.941606
          ],
          [
            73.54299999999999,
            19.941888
          ],
          [
            73.54397,
            19.942332
          ],
          [
            73.546201,
            19.943403
          ],
          [
            73.547225,
            19.943894999999998
          ],
          [
            73.547991,
            19.944287
          ],
          [
            73.548335,
            19.944468
          ],
          [
            73.54895499999999,
            19.944778
          ],
          [
            73.549499,
            19.944971
          ],
          [
            73.550068,
            19.945075
          ],
          [
            73.550957,
            19.945159
          ],
          [
            73.551571,
            19.945190999999998
          ],
          [
            73.551919,
            19.945235999999998
          ],
          [
            73.551941,
            19.945349
          ],
          [
            73.552003,
            19.945714
          ],
          [
            73.55207999999999,
            19.946111
          ],
          [
            73.55212499999999,
            19.946203999999998
          ],
          [
            73.55219699999999,
            19.946281
          ],
          [
            73.552286,
            19.946410999999998
          ],
          [
            73.552309,
            19.946479999999998
          ],
          [
            73.552314,
            19.946564
          ],
          [
            73.55230999999999,
            19.946687999999998
          ],
          [
            73.552296,
            19.946823
          ],
          [
            73.552263,
            19.947074
          ],
          [
            73.55221999999999,
            19.947249
          ],
          [
            73.55216899999999,
            19.947404
          ],
          [
            73.55210199999999,
            19.947554999999998
          ],
          [
            73.55200599999999,
            19.947693
          ],
          [
            73.551946,
            19.94777
          ],
          [
            73.55185399999999,
            19.947983
          ],
          [
            73.551771,
            19.948217
          ],
          [
            73.55170299999999,
            19.948477999999998
          ],
          [
            73.551665,
            19.948605
          ],
          [
            73.55163999999999,
            19.948656
          ],
          [
            73.55158999999999,
            19.948703
          ],
          [
            73.551519,
            19.948763
          ],
          [
            73.551504,
            19.948801
          ],
          [
            73.55149,
            19.948936
          ],
          [
            73.551498,
            19.948996
          ],
          [
            73.55151699999999,
            19.949059
          ],
          [
            73.551538,
            19.949127999999998
          ],
          [
            73.551581,
            19.949237999999998
          ],
          [
            73.55159499999999,
            19.949455
          ],
          [
            73.55163999999999,
            19.949839
          ],
          [
            73.55165099999999,
            19.949952
          ],
          [
            73.551659,
            19.95005
          ],
          [
            73.551683,
            19.950105999999998
          ],
          [
            73.551721,
            19.950171
          ],
          [
            73.55175799999999,
            19.950267
          ],
          [
            73.551777,
            19.950413
          ],
          [
            73.551783,
            19.95058
          ],
          [
            73.551774,
            19.950668
          ],
          [
            73.551724,
            19.950829
          ],
          [
            73.551611,
            19.951112
          ],
          [
            73.55157299999999,
            19.951255
          ],
          [
            73.551552,
            19.951379
          ],
          [
            73.551538,
            19.951543
          ],
          [
            73.551563,
            19.951664
          ],
          [
            73.551592,
            19.951815
          ],
          [
            73.55163999999999,
            19.951911
          ],
          [
            73.55171299999999,
            19.952009
          ],
          [
            73.551823,
            19.952109999999998
          ],
          [
            73.551954,
            19.952244
          ],
          [
            73.552056,
            19.95235
          ],
          [
            73.55209599999999,
            19.952427999999998
          ],
          [
            73.55211,
            19.952529
          ],
          [
            73.552137,
            19.952927
          ],
          [
            73.55216899999999,
            19.953557
          ],
          [
            73.552177,
            19.95387
          ],
          [
            73.552177,
            19.953996
          ],
          [
            73.552188,
            19.954083999999998
          ],
          [
            73.55220399999999,
            19.954183
          ],
          [
            73.552201,
            19.954273
          ],
          [
            73.55216899999999,
            19.954407
          ],
          [
            73.55214699999999,
            19.954543
          ],
          [
            73.55214699999999,
            19.954604
          ],
          [
            73.552171,
            19.954691999999998
          ],
          [
            73.55221399999999,
            19.954848
          ],
          [
            73.55226499999999,
            19.955022
          ],
          [
            73.552292,
            19.955213999999998
          ],
          [
            73.552319,
            19.955312
          ],
          [
            73.55238299999999,
            19.955378
          ],
          [
            73.552407,
            19.955448
          ],
          [
            73.552424,
            19.955576999999998
          ],
          [
            73.552424,
            19.955576999999998
          ]
        ]
      }
    },
    {
      "type": "Feature",
      "properties": {
        "type": "out-route-walkway"
      },
      "geometry": {
        "type": "LineString",
        "coordinates": [
          [
            73.531308,
            19.935142
          ],
          [
            73.53141199999999,
            19.935147
          ],
          [
            73.531641,
            19.935162
          ],
          [
            73.532011,
            19.935187
          ],
          [
            73.53259299999999,
            19.935184
          ],
          [
            73.53263899999999,
            19.93463
          ],
          [
            73.53269999999999,
            19.934482
          ],
          [
            73.532788,
            19.934496
          ],
          [
            73.53280699999999,
            19.934495
          ],
          [
            73.532837,
            19.934490999999998
          ],
          [
            73.532879,
            19.934461
          ],
          [
            73.532878,
            19.934419
          ],
          [
            73.532894,
            19.934307
          ],
          [
            73.533082,
            19.933988
          ],
          [
            73.533175,
            19.933882999999998
          ],
          [
            73.533276,
            19.933811
          ],
          [
            73.533352,
            19.933799
          ],
          [
            73.533496,
            19.933871
          ],
          [
            73.533604,
            19.933892999999998
          ],
          [
            73.53369099999999,
            19.933888
          ],
          [
            73.533735,
            19.933867
          ],
          [
            73.53383799999999,
            19.933775
          ],
          [
            73.534004,
            19.933708
          ],
          [
            73.53416899999999,
            19.933745
          ],
          [
            73.534272,
            19.933768
          ],
          [
            73.534487,
            19.933819
          ],
          [
            73.53473799999999,
            19.933908
          ],
          [
            73.534959,
            19.933934999999998
          ],
          [
            73.535511,
            19.933995
          ],
          [
            73.535967,
            19.934127
          ],
          [
            73.536155,
            19.934207
          ],
          [
            73.53637499999999,
            19.934307999999998
          ],
          [
            73.53648799999999,
            19.934343
          ],
          [
            73.536649,
            19.934438999999998
          ],
          [
            73.53681,
            19.93452
          ],
          [
            73.53703999999999,
            19.934661
          ],
          [
            73.537303,
            19.934742
          ],
          [
            73.53751799999999,
            19.934853
          ],
          [
            73.53764699999999,
            19.934939
          ],
          [
            73.537791,
            19.93505
          ],
          [
            73.537931,
            19.935119999999998
          ],
          [
            73.538151,
            19.935145
          ],
          [
            73.538462,
            19.935206
          ],
          [
            73.53867699999999,
            19.935297
          ],
          [
            73.538816,
            19.935437999999998
          ],
          [
            73.53922399999999,
            19.935655
          ],
          [
            73.539524,
            19.935907
          ],
          [
            73.53977599999999,
            19.936118999999998
          ],
          [
            73.53983,
            19.936032
          ],
          [
            73.540544,
            19.935397
          ],
          [
            73.54099099999999,
            19.934638
          ],
          [
            73.541072,
            19.934577
          ],
          [
            73.541185,
            19.934559999999998
          ],
          [
            73.542783,
            19.934696
          ]
        ]
      }
    },
    {
      "type": "Feature",
      "properties": {
        "type": "out-route-walkway"
      },
      "geometry": {
        "type": "LineString",
        "coordinates": [
          [
            73.531308,
            19.935142
          ],
          [
            73.53141199999999,
            19.935147
          ],
          [
            73.531641,
            19.935162
          ],
          [
            73.532011,
            19.935187
          ],
          [
            73.53259299999999,
            19.935184
          ],
          [
            73.53263899999999,
            19.93463
          ],
          [
            73.53269999999999,
            19.934482
          ],
          [
            73.532788,
            19.934496
          ],
          [
            73.53280699999999,
            19.934495
          ],
          [
            73.532837,
            19.934490999999998
          ],
          [
            73.532879,
            19.934461
          ],
          [
            73.533007,
            19.934531
          ],
          [
            73.53304299999999,
            19.934601
          ],
          [
            73.533107,
            19.93466
          ],
          [
            73.53352,
            19.934929999999998
          ],
          [
            73.53407299999999,
            19.935329
          ],
          [
            73.53442299999999,
            19.935662
          ],
          [
            73.53478299999999,
            19.936006
          ],
          [
            73.535274,
            19.936491
          ],
          [
            73.53533399999999,
            19.936550999999998
          ],
          [
            73.535866,
            19.937086
          ],
          [
            73.53621,
            19.937447
          ],
          [
            73.536452,
            19.937694999999998
          ],
          [
            73.536538,
            19.937772
          ],
          [
            73.53685399999999,
            19.93804
          ],
          [
            73.537179,
            19.938314
          ],
          [
            73.537577,
            19.93865
          ],
          [
            73.537646,
            19.938708
          ],
          [
            73.537832,
            19.938844
          ],
          [
            73.53957,
            19.939972
          ],
          [
            73.54153199999999,
            19.941154
          ],
          [
            73.542272,
            19.941547
          ],
          [
            73.54238199999999,
            19.941606
          ],
          [
            73.54299999999999,
            19.941888
          ],
          [
            73.54397,
            19.942332
          ],
          [
            73.546201,
            19.943403
          ],
          [
            73.547225,
            19.943894999999998
          ],
          [
            73.547991,
            19.944287
          ],
          [
            73.54804,
            19.944191
          ],
          [
            73.548068,
            19.944135
          ],
          [
            73.548075,
            19.944105999999998
          ],
          [
            73.548408,
            19.944136
          ],
          [
            73.548574,
            19.944071
          ],
          [
            73.54870799999999,
            19.944050999999998
          ],
          [
            73.548853,
            19.944041
          ],
          [
            73.548998,
            19.944
          ],
          [
            73.54917999999999,
            19.943915
          ],
          [
            73.54926599999999,
            19.943844
          ],
          [
            73.549325,
            19.943647
          ],
          [
            73.549405,
            19.943334999999998
          ],
          [
            73.54948,
            19.943203999999998
          ],
          [
            73.54960899999999,
            19.942972
          ],
          [
            73.549781,
            19.942643999999998
          ],
          [
            73.549899,
            19.942427
          ],
          [
            73.54995799999999,
            19.942306
          ],
          [
            73.54996299999999,
            19.942194999999998
          ],
          [
            73.54992,
            19.942059
          ],
          [
            73.54991,
            19.941943
          ],
          [
            73.54994699999999,
            19.941765999999998
          ],
          [
            73.549995,
            19.94163
          ],
          [
            73.55007599999999,
            19.941539
          ],
          [
            73.550113,
            19.941429
          ],
          [
            73.550135,
            19.941171
          ],
          [
            73.550151,
            19.940832999999998
          ],
          [
            73.550071,
            19.94043
          ],
          [
            73.549931,
            19.939911
          ],
          [
            73.54985099999999,
            19.939608
          ],
          [
            73.54983999999999,
            19.939386
          ],
          [
            73.549765,
            19.939204999999998
          ],
          [
            73.54971599999999,
            19.939083999999998
          ],
          [
            73.54974899999999,
            19.938806
          ],
          [
            73.549775,
            19.938544
          ],
          [
            73.549802,
            19.938408
          ],
          [
            73.549775,
            19.938312
          ],
          [
            73.549722,
            19.938206
          ],
          [
            73.54973799999999,
            19.938025
          ],
          [
            73.549781,
            19.937783
          ],
          [
            73.549818,
            19.937682
          ],
          [
            73.549926,
            19.937697
          ],
          [
            73.550012,
            19.937711999999998
          ],
          [
            73.55007599999999,
            19.937646
          ],
          [
            73.550022,
            19.937566
          ],
          [
            73.549797,
            19.937348999999998
          ],
          [
            73.54963599999999,
            19.937168
          ],
          [
            73.54962499999999,
            19.937096999999998
          ],
          [
            73.549668,
            19.937041999999998
          ],
          [
            73.54972699999999,
            19.937031
          ],
          [
            73.549824,
            19.937057
          ],
          [
            73.549888,
            19.937051999999998
          ],
          [
            73.54991,
            19.936991
          ],
          [
            73.549829,
            19.936895
          ],
          [
            73.54974299999999,
            19.936815
          ],
          [
            73.54972699999999,
            19.936723999999998
          ],
          [
            73.54977,
            19.936608
          ],
          [
            73.549781,
            19.936497
          ],
          [
            73.54974299999999,
            19.936431
          ],
          [
            73.549695,
            19.936370999999998
          ],
          [
            73.549523,
            19.936189
          ],
          [
            73.549475,
            19.936048
          ],
          [
            73.549438,
            19.935831
          ],
          [
            73.549432,
            19.93565
          ],
          [
            73.549373,
            19.935503
          ],
          [
            73.54928699999999,
            19.935433
          ],
          [
            73.549196,
            19.935337
          ],
          [
            73.549207,
            19.935221
          ],
          [
            73.549228,
            19.935125
          ],
          [
            73.549239,
            19.93506
          ],
          [
            73.54925,
            19.934732
          ],
          [
            73.549239,
            19.934313
          ],
          [
            73.549218,
            19.933925
          ],
          [
            73.54927699999999,
            19.933505999999998
          ],
          [
            73.54927699999999,
            19.933374999999998
          ],
          [
            73.549244,
            19.933218999999998
          ],
          [
            73.549234,
            19.932765
          ],
          [
            73.549275,
            19.932268999999998
          ],
          [
            73.54934999999999,
            19.9318
          ],
          [
            73.54937699999999,
            19.931593
          ],
          [
            73.54934399999999,
            19.931452
          ],
          [
            73.54933899999999,
            19.931321
          ],
          [
            73.54933899999999,
            19.931195
          ],
          [
            73.549307,
            19.930902
          ],
          [
            73.549302,
            19.930761
          ],
          [
            73.549318,
            19.93063
          ],
          [
            73.54936099999999,
            19.930539
          ],
          [
            73.54936599999999,
            19.930412999999998
          ],
          [
            73.549312,
            19.930307
          ],
          [
            73.549162,
            19.930252
          ],
          [
            73.54901199999999,
            19.930232
          ],
          [
            73.54884,
            19.930272
          ],
          [
            73.548572,
            19.930333
          ],
          [
            73.548341,
            19.930358
          ],
          [
            73.54807799999999,
            19.930422999999998
          ],
          [
            73.547912,
            19.930428
          ],
          [
            73.54775699999999,
            19.930378
          ],
          [
            73.547553,
            19.930222
          ],
          [
            73.54741899999999,
            19.93002
          ],
          [
            73.547333,
            19.929848
          ],
          [
            73.547252,
            19.929520999999998
          ],
          [
            73.547252,
            19.929188
          ],
          [
            73.547344,
            19.928845
          ],
          [
            73.547392,
            19.928446
          ],
          [
            73.547403,
            19.928183999999998
          ],
          [
            73.54744,
            19.927992
          ],
          [
            73.54742399999999,
            19.92768
          ],
          [
            73.547376,
            19.927175
          ],
          [
            73.547268,
            19.926893
          ],
          [
            73.54717699999999,
            19.926384
          ],
          [
            73.54715,
            19.926161999999998
          ],
          [
            73.547027,
            19.925798999999998
          ],
          [
            73.546829,
            19.925299
          ],
          [
            73.546689,
            19.925052
          ],
          [
            73.546593,
            19.924906
          ],
          [
            73.546458,
            19.924765
          ],
          [
            73.546432,
            19.924598
          ],
          [
            73.54638899999999,
            19.924457
          ],
          [
            73.54636699999999,
            19.924276
          ],
          [
            73.54627099999999,
            19.924084
          ],
          [
            73.546292,
            19.923911999999998
          ],
          [
            73.54616899999999,
            19.923821999999998
          ],
          [
            73.546088,
            19.923686
          ],
          [
            73.546078,
            19.923575
          ],
          [
            73.546056,
            19.923443
          ],
          [
            73.546019,
            19.923353
          ],
          [
            73.54592199999999,
            19.923272
          ],
          [
            73.54579299999999,
            19.923242
          ],
          [
            73.545627,
            19.923191
          ],
          [
            73.54553,
            19.923185999999998
          ],
          [
            73.54538,
            19.923111
          ],
          [
            73.545209,
            19.923005
          ],
          [
            73.54500499999999,
            19.922909
          ],
          [
            73.54486,
            19.922778
          ],
          [
            73.544592,
            19.922601
          ],
          [
            73.544388,
            19.922475
          ],
          [
            73.54433399999999,
            19.922354
          ],
          [
            73.544286,
            19.922248
          ],
          [
            73.544173,
            19.922197999999998
          ],
          [
            73.544018,
            19.922147
          ],
          [
            73.543824,
            19.922183
          ],
          [
            73.543572,
            19.922213
          ],
          [
            73.543326,
            19.922218
          ],
          [
            73.543143,
            19.922207999999998
          ],
          [
            73.542993,
            19.922127
          ],
          [
            73.542864,
            19.922041
          ],
          [
            73.542762,
            19.921976
          ],
          [
            73.542676,
            19.92186
          ],
          [
            73.54259599999999,
            19.921758999999998
          ],
          [
            73.542328,
            19.921673
          ],
          [
            73.54216699999999,
            19.921682999999998
          ],
          [
            73.54202699999999,
            19.921719
          ],
          [
            73.541888,
            19.921744
          ],
          [
            73.541759,
            19.921758999999998
          ],
          [
            73.54167299999999,
            19.921698
          ],
          [
            73.541609,
            19.921618
          ],
          [
            73.541389,
            19.921516999999998
          ],
          [
            73.54123299999999,
            19.921436
          ],
          [
            73.54113699999999,
            19.921376
          ],
          [
            73.540965,
            19.921204
          ],
          [
            73.540826,
            19.921067999999998
          ],
          [
            73.540686,
            19.920982
          ],
          [
            73.540606,
            19.920835999999998
          ],
          [
            73.540638,
            19.92071
          ],
          [
            73.540638,
            19.920628999999998
          ],
          [
            73.540595,
            19.920538
          ],
          [
            73.540477,
            19.920468
          ],
          [
            73.540391,
            19.920357
          ],
          [
            73.540354,
            19.920251
          ],
          [
            73.540289,
            19.920144999999998
          ],
          [
            73.540257,
            19.920033999999998
          ],
          [
            73.54023,
            19.919957999999998
          ],
          [
            73.540112,
            19.919857999999998
          ],
          [
            73.54001,
            19.919787
          ],
          [
            73.539941,
            19.919691
          ],
          [
            73.539925,
            19.919575
          ],
          [
            73.53988199999999,
            19.919429
          ],
          [
            73.539828,
            19.919197
          ],
          [
            73.539823,
            19.919051
          ],
          [
            73.53985499999999,
            19.91895
          ],
          [
            73.539678,
            19.918772999999998
          ],
          [
            73.539603,
            19.918687
          ],
          [
            73.53950599999999,
            19.918561
          ],
          [
            73.53939299999999,
            19.918491
          ],
          [
            73.539147,
            19.918345
          ],
          [
            73.538932,
            19.918243999999998
          ],
          [
            73.538696,
            19.918112999999998
          ],
          [
            73.53850299999999,
            19.918042
          ],
          [
            73.538315,
            19.917976
          ],
          [
            73.538079,
            19.917921
          ],
          [
            73.537891,
            19.917936
          ],
          [
            73.53768199999999,
            19.917966
          ],
          [
            73.537607,
            19.917925999999998
          ],
          [
            73.537607,
            19.917925999999998
          ]
        ]
      }
    },
    {
      "type": "Feature",
      "properties": {
        "type": "out-route-walkway"
      },
      "geometry": {
        "type": "LineString",
        "coordinates": [
          [
            73.531308,
            19.935142
          ],
          [
            73.53141199999999,
            19.935147
          ],
          [
            73.531641,
            19.935162
          ],
          [
            73.532011,
            19.935187
          ],
          [
            73.53259299999999,
            19.935184
          ],
          [
            73.53263899999999,
            19.93463
          ],
          [
            73.53269999999999,
            19.934482
          ],
          [
            73.532788,
            19.934496
          ],
          [
            73.53280699999999,
            19.934495
          ],
          [
            73.532837,
            19.934490999999998
          ],
          [
            73.532879,
            19.934461
          ],
          [
            73.533007,
            19.934531
          ],
          [
            73.53304299999999,
            19.934601
          ],
          [
            73.533107,
            19.93466
          ],
          [
            73.53352,
            19.934929999999998
          ],
          [
            73.53407299999999,
            19.935329
          ],
          [
            73.53442299999999,
            19.935662
          ],
          [
            73.53478299999999,
            19.936006
          ],
          [
            73.535274,
            19.936491
          ],
          [
            73.53533399999999,
            19.936550999999998
          ],
          [
            73.535866,
            19.937086
          ],
          [
            73.53621,
            19.937447
          ],
          [
            73.536452,
            19.937694999999998
          ],
          [
            73.536538,
            19.937772
          ],
          [
            73.53685399999999,
            19.93804
          ],
          [
            73.537179,
            19.938314
          ],
          [
            73.537577,
            19.93865
          ],
          [
            73.537646,
            19.938708
          ],
          [
            73.537832,
            19.938844
          ],
          [
            73.53957,
            19.939972
          ],
          [
            73.54153199999999,
            19.941154
          ],
          [
            73.542272,
            19.941547
          ],
          [
            73.54238199999999,
            19.941606
          ],
          [
            73.54299999999999,
            19.941888
          ],
          [
            73.54397,
            19.942332
          ],
          [
            73.546201,
            19.943403
          ],
          [
            73.547225,
            19.943894999999998
          ],
          [
            73.547991,
            19.944287
          ],
          [
            73.548335,
            19.944468
          ],
          [
            73.54895499999999,
            19.944778
          ],
          [
            73.549499,
            19.944971
          ],
          [
            73.550068,
            19.945075
          ],
          [
            73.550957,
            19.945159
          ],
          [
            73.551571,
            19.945190999999998
          ],
          [
            73.55158499999999,
            19.945104999999998
          ],
          [
            73.551679,
            19.944519
          ],
          [
            73.55189299999999,
            19.943037
          ],
          [
            73.552274,
            19.941594
          ]
        ]
      }
    },
    {
      "type": "Feature",
      "properties": {
        "name": "Kushawart Kund",
        "type": "kund"
      },
      "geometry": {
        "type": "Point",
        "coordinates": [
          73.53,
          19.932
        ]
      }
    },
    {
      "type": "Feature",
      "properties": {
        "name": "Temple",
        "type": "temple"
      },
      "geometry": {
        "type": "Point",
        "coordinates": [
          73.532,
          19.931
        ]
      }
    },
    {
      "type": "Feature",
      "properties": {
        "name": "Sapgaon Parking",
        "type": "parking"
      },
      "geometry": {
        "type": "Point",
        "coordinates": [
          73.515,
          19.945
        ]
      }
    },
    {
      "type": "Feature",
      "properties": {
        "name": "Talwade Parking",
        "type": "parking"
      },
      "geometry": {
        "type": "Point",
        "coordinates": [
          73.555,
          19.955
        ]
      }
    },
    {
      "type": "Feature",
      "properties": {
        "name": "Laddha Parking",
        "type": "parking"
      },
      "geometry": {
        "type": "Point",
        "coordinates": [
          73.545,
          19.935
        ]
      }
    },
    {
      "type": "Feature",
      "properties": {
        "name": "Parking (Mumbai Side)",
        "type": "parking"
      },
      "geometry": {
        "type": "Point",
        "coordinates": [
          73.535,
          19.92
        ]
      }
    },
    {
      "type": "Feature",
      "properties": {
        "name": "Tupadevi Bus Stop",
        "type": "bus"
      },
      "geometry": {
        "type": "Point",
        "coordinates": [
          73.555,
          19.942
        ]
      }
    },
    {
      "type": "Feature",
      "properties": {
        "name": "Jawahar / Peth / Gujarat",
        "type": "direction",
        "icon": "pin-red"
      },
      "geometry": {
        "type": "Point",
        "coordinates": [
          73.5,
          19.955
        ]
      }
    },
    {
      "type": "Feature",
      "properties": {
        "name": "Nandurbar / Dhule",
        "type": "direction",
        "icon": "pin-red"
      },
      "geometry": {
        "type": "Point",
        "coordinates": [
          73.55,
          19.965
        ]
      }
    },
    {
      "type": "Feature",
      "properties": {
        "name": "Nashik / Pune / Chh. Sambhaji Nagar",
        "type": "direction",
        "icon": "pin-red"
      },
      "geometry": {
        "type": "Point",
        "coordinates": [
          73.58,
          19.945
        ]
      }
    },
    {
      "type": "Feature",
      "properties": {
        "name": "Mumbai",
        "type": "direction",
        "icon": "pin-red"
      },
      "geometry": {
        "type": "Point",
        "coordinates": [
          73.535,
          19.91
        ]
      }
    }
  ]
}