<?xml version="1.0" encoding="UTF-8"?>
<kml xmlns="http://www.opengis.net/kml/2.2" xmlns:gx="http://www.google.com/kml/ext/2.2" xmlns:kml="http://www.opengis.net/kml/2.2" xmlns:atom="http://www.w3.org/2005/Atom">
<Document>
	<name>Holding Area.kmz</name>
	<StyleMap id="msn_H">
		<Pair>
			<key>normal</key>
			<styleUrl>#sn_H1</styleUrl>
		</Pair>
		<Pair>
			<key>highlight</key>
			<styleUrl>#sh_H2</styleUrl>
		</Pair>
	</StyleMap>
	<StyleMap id="msn_H0">
		<Pair>
			<key>normal</key>
			<styleUrl>#sn_H0</styleUrl>
		</Pair>
		<Pair>
			<key>highlight</key>
			<styleUrl>#sh_H</styleUrl>
		</Pair>
	</StyleMap>
	<StyleMap id="msn_H1">
		<Pair>
			<key>normal</key>
			<styleUrl>#sn_H</styleUrl>
		</Pair>
		<Pair>
			<key>highlight</key>
			<styleUrl>#sh_H0</styleUrl>
		</Pair>
	</StyleMap>
	<StyleMap id="msn_H2">
		<Pair>
			<key>normal</key>
			<styleUrl>#sn_H2</styleUrl>
		</Pair>
		<Pair>
			<key>highlight</key>
			<styleUrl>#sh_H1</styleUrl>
		</Pair>
	</StyleMap>
	<Style id="sh_H">
		<IconStyle>
			<scale>1.3</scale>
			<Icon>
				<href>http://maps.google.com/mapfiles/kml/paddle/H.png</href>
			</Icon>
			<hotSpot x="32" y="1" xunits="pixels" yunits="pixels"/>
		</IconStyle>
		<ListStyle>
			<ItemIcon>
				<href>http://maps.google.com/mapfiles/kml/paddle/H-lv.png</href>
			</ItemIcon>
		</ListStyle>
	</Style>
	<Style id="sh_H0">
		<IconStyle>
			<scale>1.3</scale>
			<Icon>
				<href>http://maps.google.com/mapfiles/kml/paddle/H.png</href>
			</Icon>
			<hotSpot x="32" y="1" xunits="pixels" yunits="pixels"/>
		</IconStyle>
		<ListStyle>
			<ItemIcon>
				<href>http://maps.google.com/mapfiles/kml/paddle/H-lv.png</href>
			</ItemIcon>
		</ListStyle>
	</Style>
	<Style id="sh_H1">
		<IconStyle>
			<scale>1.3</scale>
			<Icon>
				<href>http://maps.google.com/mapfiles/kml/paddle/H.png</href>
			</Icon>
			<hotSpot x="32" y="1" xunits="pixels" yunits="pixels"/>
		</IconStyle>
		<ListStyle>
			<ItemIcon>
				<href>http://maps.google.com/mapfiles/kml/paddle/H-lv.png</href>
			</ItemIcon>
		</ListStyle>
	</Style>
	<Style id="sh_H2">
		<IconStyle>
			<scale>1.3</scale>
			<Icon>
				<href>http://maps.google.com/mapfiles/kml/paddle/H.png</href>
			</Icon>
			<hotSpot x="32" y="1" xunits="pixels" yunits="pixels"/>
		</IconStyle>
		<ListStyle>
			<ItemIcon>
				<href>http://maps.google.com/mapfiles/kml/paddle/H-lv.png</href>
			</ItemIcon>
		</ListStyle>
	</Style>
	<Style id="sn_H">
		<IconStyle>
			<scale>1.1</scale>
			<Icon>
				<href>http://maps.google.com/mapfiles/kml/paddle/H.png</href>
			</Icon>
			<hotSpot x="32" y="1" xunits="pixels" yunits="pixels"/>
		</IconStyle>
		<ListStyle>
			<ItemIcon>
				<href>http://maps.google.com/mapfiles/kml/paddle/H-lv.png</href>
			</ItemIcon>
		</ListStyle>
	</Style>
	<Style id="sn_H0">
		<IconStyle>
			<scale>1.1</scale>
			<Icon>
				<href>http://maps.google.com/mapfiles/kml/paddle/H.png</href>
			</Icon>
			<hotSpot x="32" y="1" xunits="pixels" yunits="pixels"/>
		</IconStyle>
		<ListStyle>
			<ItemIcon>
				<href>http://maps.google.com/mapfiles/kml/paddle/H-lv.png</href>
			</ItemIcon>
		</ListStyle>
	</Style>
	<Style id="sn_H1">
		<IconStyle>
			<scale>1.1</scale>
			<Icon>
				<href>http://maps.google.com/mapfiles/kml/paddle/H.png</href>
			</Icon>
			<hotSpot x="32" y="1" xunits="pixels" yunits="pixels"/>
		</IconStyle>
		<ListStyle>
			<ItemIcon>
				<href>http://maps.google.com/mapfiles/kml/paddle/H-lv.png</href>
			</ItemIcon>
		</ListStyle>
	</Style>
	<Style id="sn_H2">
		<IconStyle>
			<scale>1.1</scale>
			<Icon>
				<href>http://maps.google.com/mapfiles/kml/paddle/H.png</href>
			</Icon>
			<hotSpot x="32" y="1" xunits="pixels" yunits="pixels"/>
		</IconStyle>
		<ListStyle>
			<ItemIcon>
				<href>http://maps.google.com/mapfiles/kml/paddle/H-lv.png</href>
			</ItemIcon>
		</ListStyle>
	</Style>
	<Folder>
		<name>Holding Area</name>
		<Placemark>
			<name>Gayatri Holding Area - 17.48 HA</name>
			<LookAt>
				<longitude>73.65607573845503</longitude>
				<latitude>19.96399099955131</latitude>
				<altitude>0</altitude>
				<heading>0.001482728727731039</heading>
				<tilt>7.448713188230244</tilt>
				<range>2563.730239270175</range>
				<gx:altitudeMode>relativeToSeaFloor</gx:altitudeMode>
			</LookAt>
			<styleUrl>#msn_H2</styleUrl>
			<Point>
				<gx:drawOrder>1</gx:drawOrder>
				<coordinates>73.65504103777849,19.96604119582813,0</coordinates>
			</Point>
		</Placemark>
		<Placemark>
			<name>Pegalwadi - Holding Area</name>
			<LookAt>
				<longitude>73.55213445465168</longitude>
				<latitude>19.94233588478793</latitude>
				<altitude>0</altitude>
				<heading>-0.09499437614119846</heading>
				<tilt>22.2699228317333</tilt>
				<range>639.7677482398152</range>
				<gx:altitudeMode>relativeToSeaFloor</gx:altitudeMode>
			</LookAt>
			<styleUrl>#msn_H1</styleUrl>
			<Point>
				<gx:drawOrder>1</gx:drawOrder>
				<coordinates>73.55213445465169,19.94233588478793,0</coordinates>
			</Point>
		</Placemark>
		<Placemark>
			<name>Velunje (Patrecha Pada) Holding Area- 2Ha</name>
			<LookAt>
				<longitude>73.48251106771509</longitude>
				<latitude>20.01047430779673</latitude>
				<altitude>0</altitude>
				<heading>-8.028544393049011e-05</heading>
				<tilt>0</tilt>
				<range>1262.283451436779</range>
				<gx:altitudeMode>relativeToSeaFloor</gx:altitudeMode>
			</LookAt>
			<styleUrl>#msn_H</styleUrl>
			<Point>
				<gx:drawOrder>1</gx:drawOrder>
				<coordinates>73.47941917569345,20.00777619411522,0</coordinates>
			</Point>
		</Placemark>
		<Placemark>
			<name>Nandgaon Koli Phata (Holding Area)- 5.82 Ha</name>
			<LookAt>
				<longitude>73.48415628626225</longitude>
				<latitude>20.01429833674914</latitude>
				<altitude>0</altitude>
				<heading>0.0004828949827129316</heading>
				<tilt>0</tilt>
				<range>1262.283451434606</range>
				<gx:altitudeMode>relativeToSeaFloor</gx:altitudeMode>
			</LookAt>
			<styleUrl>#msn_H</styleUrl>
			<Point>
				<gx:drawOrder>1</gx:drawOrder>
				<coordinates>73.48109243460823,20.01397209775279,0</coordinates>
			</Point>
		</Placemark>
		<Placemark>
			<name>Gorthan Holding Area - 2 Ha</name>
			<LookAt>
				<longitude>73.50187208247777</longitude>
				<latitude>20.03500428242822</latitude>
				<altitude>0</altitude>
				<heading>0.006520851444895189</heading>
				<tilt>4.836113906879016</tilt>
				<range>1105.77194208921</range>
				<gx:altitudeMode>relativeToSeaFloor</gx:altitudeMode>
			</LookAt>
			<styleUrl>#msn_H</styleUrl>
			<Point>
				<gx:drawOrder>1</gx:drawOrder>
				<coordinates>73.50181847689079,20.03550248246743,0</coordinates>
			</Point>
		</Placemark>
		<Placemark>
			<name>Waghera Holding Area - 17.79 Ha</name>
			<LookAt>
				<longitude>73.50607798597402</longitude>
				<latitude>20.06554106571839</latitude>
				<altitude>0</altitude>
				<heading>0.007909564696134883</heading>
				<tilt>18.61441014301639</tilt>
				<range>854.4196762192238</range>
				<gx:altitudeMode>relativeToSeaFloor</gx:altitudeMode>
			</LookAt>
			<styleUrl>#msn_H</styleUrl>
			<Point>
				<gx:drawOrder>1</gx:drawOrder>
				<coordinates>73.50457987120424,20.06577657915872,0</coordinates>
			</Point>
		</Placemark>
		<Placemark>
			<name>Dhondegaon Holding Area - 2.88 Ha</name>
			<LookAt>
				<longitude>73.62015560356394</longitude>
				<latitude>20.07615905119585</latitude>
				<altitude>0</altitude>
				<heading>0.0464437510937766</heading>
				<tilt>21.93675799347307</tilt>
				<range>528.2988722539824</range>
				<gx:altitudeMode>relativeToSeaFloor</gx:altitudeMode>
			</LookAt>
			<styleUrl>#msn_H0</styleUrl>
			<Point>
				<gx:drawOrder>1</gx:drawOrder>
				<coordinates>73.61931634272335,20.07575883624878,0</coordinates>
			</Point>
		</Placemark>
		<Placemark>
			<name>Jategaon Infront of Govt. Hospital - 1.75 Ha</name>
			<LookAt>
				<longitude>73.64832520572412</longitude>
				<latitude>19.92862440126071</latitude>
				<altitude>0</altitude>
				<heading>-0.001646873187625039</heading>
				<tilt>30.00264549836023</tilt>
				<range>588.9926436282243</range>
				<gx:altitudeMode>relativeToSeaFloor</gx:altitudeMode>
			</LookAt>
			<styleUrl>#msn_H0</styleUrl>
			<Point>
				<gx:drawOrder>1</gx:drawOrder>
				<coordinates>73.64849325400724,19.92841272318026,0</coordinates>
			</Point>
		</Placemark>
		<Placemark>
			<name>Jategaon T Junction - 4.88 Ha</name>
			<LookAt>
				<longitude>73.64906342205026</longitude>
				<latitude>19.92178128217297</latitude>
				<altitude>0</altitude>
				<heading>1.51076347369517e-14</heading>
				<tilt>0</tilt>
				<range>538.6222763267147</range>
				<gx:altitudeMode>relativeToSeaFloor</gx:altitudeMode>
			</LookAt>
			<styleUrl>#msn_H0</styleUrl>
			<Point>
				<gx:drawOrder>1</gx:drawOrder>
				<coordinates>73.64982803598403,19.92234180611669,0</coordinates>
			</Point>
		</Placemark>
		<Placemark>
			<name>Pimpalad Shivar Left and Right Side - 26.01 Ha</name>
			<LookAt>
				<longitude>73.68619147089726</longitude>
				<latitude>19.91981217112874</latitude>
				<altitude>0</altitude>
				<heading>2.035585835828566e-05</heading>
				<tilt>17.65381467909999</tilt>
				<range>407.5599642969221</range>
				<gx:altitudeMode>relativeToSeaFloor</gx:altitudeMode>
			</LookAt>
			<styleUrl>#msn_H0</styleUrl>
			<Point>
				<gx:drawOrder>1</gx:drawOrder>
				<coordinates>73.68552693763202,19.91951889005984,0</coordinates>
			</Point>
		</Placemark>
		<Folder>
			<name>Chh. Sambhaji Nagar Route</name>
			<Placemark>
				<name>Khmagaon Yeola - Tentative Holidng Area - to be vrified on site</name>
				<LookAt>
					<longitude>74.66605198697889</longitude>
					<latitude>19.96457508608127</latitude>
					<altitude>0</altitude>
					<heading>0.001848426107056738</heading>
					<tilt>11.59314414793482</tilt>
					<range>3216.959484979232</range>
					<gx:altitudeMode>relativeToSeaFloor</gx:altitudeMode>
				</LookAt>
				<styleUrl>#msn_H0</styleUrl>
				<Point>
					<gx:drawOrder>1</gx:drawOrder>
					<coordinates>74.66917286321174,19.95890463154544,0</coordinates>
				</Point>
			</Placemark>
			<Placemark>
				<name>Angangaon Behind Bhujbal Office - Yeola - 15.1 Ha</name>
				<LookAt>
					<longitude>74.47666087352364</longitude>
					<latitude>20.04445879637754</latitude>
					<altitude>0</altitude>
					<heading>1.669791207768345e-14</heading>
					<tilt>0</tilt>
					<range>1822.896136842926</range>
					<gx:altitudeMode>relativeToSeaFloor</gx:altitudeMode>
				</LookAt>
				<styleUrl>#msn_H0</styleUrl>
				<Point>
					<gx:drawOrder>1</gx:drawOrder>
					<coordinates>74.47666087352364,20.04445879637753,0</coordinates>
				</Point>
			</Placemark>
			<Placemark>
				<name>Kothure Tal Niphaad - Niphad Pimpalas Route - Tentative Holding Area</name>
				<LookAt>
					<longitude>74.09320295854667</longitude>
					<latitude>20.09226589212463</latitude>
					<altitude>0</altitude>
					<heading>0.005882166291106715</heading>
					<tilt>4.9468807093767</tilt>
					<range>10029.424546936</range>
					<gx:altitudeMode>relativeToSeaFloor</gx:altitudeMode>
				</LookAt>
				<styleUrl>#msn_H0</styleUrl>
				<Point>
					<gx:drawOrder>1</gx:drawOrder>
					<coordinates>74.07445328229552,20.07369053709035,0</coordinates>
				</Point>
			</Placemark>
			<Placemark>
				<name>Vishnunagar Vinchur Niffad - 8.59 Ha</name>
				<LookAt>
					<longitude>74.21460746468692</longitude>
					<latitude>20.08576699984627</latitude>
					<altitude>0</altitude>
					<heading>1.351735739621994e-14</heading>
					<tilt>0</tilt>
					<range>1405.392460964319</range>
					<gx:altitudeMode>relativeToSeaFloor</gx:altitudeMode>
				</LookAt>
				<styleUrl>#msn_H0</styleUrl>
				<Point>
					<gx:drawOrder>1</gx:drawOrder>
					<coordinates>74.21460746468691,20.08576699984627,0</coordinates>
				</Point>
			</Placemark>
			<Placemark>
				<name>Fatehpur Naka - 5.43 Ha</name>
				<LookAt>
					<longitude>74.49215614445586</longitude>
					<latitude>20.03970973209167</latitude>
					<altitude>0</altitude>
					<heading>-0.001332704547661946</heading>
					<tilt>23.89813962011035</tilt>
					<range>2078.167628980364</range>
					<gx:altitudeMode>relativeToSeaFloor</gx:altitudeMode>
				</LookAt>
				<styleUrl>#msn_H0</styleUrl>
				<Point>
					<gx:drawOrder>1</gx:drawOrder>
					<coordinates>74.49345498166079,20.0369109045556,0</coordinates>
				</Point>
			</Placemark>
			<Placemark>
				<name>Khamgaon Yeola - 2.28</name>
				<LookAt>
					<longitude>74.66605198697889</longitude>
					<latitude>19.96457508608127</latitude>
					<altitude>0</altitude>
					<heading>0.001848426107056738</heading>
					<tilt>11.59314414793482</tilt>
					<range>3216.959484979232</range>
					<gx:altitudeMode>relativeToSeaFloor</gx:altitudeMode>
				</LookAt>
				<styleUrl>#msn_H0</styleUrl>
				<Point>
					<gx:drawOrder>1</gx:drawOrder>
					<coordinates>74.66110102382322,19.96100475208113,0</coordinates>
				</Point>
			</Placemark>
		</Folder>
		<Folder>
			<name>Shirdi Vavi Sinnar</name>
			<Placemark>
				<name>Musalgaon - India Bulls Sinnar - 39.56 Ha</name>
				<LookAt>
					<longitude>74.05882305111027</longitude>
					<latitude>19.8434666748212</latitude>
					<altitude>0</altitude>
					<heading>-0.00422356312603747</heading>
					<tilt>16.3519826349469</tilt>
					<range>5015.215856818586</range>
					<gx:altitudeMode>relativeToSeaFloor</gx:altitudeMode>
				</LookAt>
				<styleUrl>#msn_H0</styleUrl>
				<Point>
					<gx:drawOrder>1</gx:drawOrder>
					<coordinates>74.06296332697204,19.8412727373359,0</coordinates>
				</Point>
			</Placemark>
		</Folder>
		<Folder>
			<name>Pune-SInnar Route</name>
			<Placemark>
				<name>Bhatwadi Sinnar - 7.12 ha</name>
				<LookAt>
					<longitude>73.97862285629714</longitude>
					<latitude>19.82706654992376</latitude>
					<altitude>0</altitude>
					<heading>3.180554681463517e-15</heading>
					<tilt>0</tilt>
					<range>2154.111465502734</range>
					<gx:altitudeMode>relativeToSeaFloor</gx:altitudeMode>
				</LookAt>
				<styleUrl>#msn_H0</styleUrl>
				<Point>
					<gx:drawOrder>1</gx:drawOrder>
					<coordinates>73.97862285629714,19.82706654992377,0</coordinates>
				</Point>
			</Placemark>
			<Placemark>
				<name>Sonambe - Sinnar - 22.94 ha</name>
				<LookAt>
					<longitude>73.92721070096906</longitude>
					<latitude>19.81160791668033</latitude>
					<altitude>0</altitude>
					<heading>3.260068548500103e-14</heading>
					<tilt>0</tilt>
					<range>3117.261490394998</range>
					<gx:altitudeMode>relativeToSeaFloor</gx:altitudeMode>
				</LookAt>
				<styleUrl>#msn_H0</styleUrl>
				<Point>
					<gx:drawOrder>1</gx:drawOrder>
					<coordinates>73.92721070096906,19.81160791668033,0</coordinates>
				</Point>
			</Placemark>
			<Placemark>
				<name>Gurevadi Sinnar - ___Ha</name>
				<LookAt>
					<longitude>74.05685986187537</longitude>
					<latitude>19.79442941628431</latitude>
					<altitude>0</altitude>
					<heading>0.002545457950771654</heading>
					<tilt>5.07068875421873</tilt>
					<range>4053.200656496145</range>
					<gx:altitudeMode>relativeToSeaFloor</gx:altitudeMode>
				</LookAt>
				<styleUrl>#msn_H0</styleUrl>
				<Point>
					<gx:drawOrder>1</gx:drawOrder>
					<coordinates>74.04896180459455,19.8018765041804,0</coordinates>
				</Point>
			</Placemark>
		</Folder>
		<Folder>
			<name>Dhule Route</name>
			<Placemark>
				<name>Zodge 1 - 22.69 Ha</name>
				<LookAt>
					<longitude>74.66094276812535</longitude>
					<latitude>20.64409167556774</latitude>
					<altitude>0</altitude>
					<heading>0.0003728760819408265</heading>
					<tilt>0</tilt>
					<range>2663.033179790505</range>
					<gx:altitudeMode>relativeToSeaFloor</gx:altitudeMode>
				</LookAt>
				<styleUrl>#msn_H0</styleUrl>
				<Point>
					<gx:drawOrder>1</gx:drawOrder>
					<coordinates>74.65893320062008,20.63968271703105,0</coordinates>
				</Point>
			</Placemark>
			<Placemark>
				<name>Bharvir Chandwad  - 5.13 Ha</name>
				<LookAt>
					<longitude>74.12960375715662</longitude>
					<latitude>20.29932934207324</latitude>
					<altitude>0</altitude>
					<heading>-0.0005564499655495614</heading>
					<tilt>9.277827562312726</tilt>
					<range>1725.355240880637</range>
					<gx:altitudeMode>relativeToSeaFloor</gx:altitudeMode>
				</LookAt>
				<styleUrl>#msn_H0</styleUrl>
				<Point>
					<gx:drawOrder>1</gx:drawOrder>
					<coordinates>74.13111158137686,20.29838187179553,0</coordinates>
				</Point>
			</Placemark>
			<Placemark>
				<name>Khadakjamb - Chandwad - 12.64 Ha</name>
				<LookAt>
					<longitude>74.11558968994024</longitude>
					<latitude>20.26859571932159</latitude>
					<altitude>0</altitude>
					<heading>0.00486751518642518</heading>
					<tilt>1.826061175703433</tilt>
					<range>11644.70837321491</range>
					<gx:altitudeMode>relativeToSeaFloor</gx:altitudeMode>
				</LookAt>
				<styleUrl>#msn_H0</styleUrl>
				<Point>
					<gx:drawOrder>1</gx:drawOrder>
					<coordinates>74.0731358992772,20.24630787955128,0</coordinates>
				</Point>
			</Placemark>
			<Placemark>
				<name>Chikhal Ohol - Malegaon Dhule Route - 21.52HA</name>
				<LookAt>
					<longitude>74.62935761010374</longitude>
					<latitude>20.61303638970908</latitude>
					<altitude>0</altitude>
					<heading>0.006418061788547474</heading>
					<tilt>0</tilt>
					<range>10846.90968237924</range>
					<gx:altitudeMode>relativeToSeaFloor</gx:altitudeMode>
				</LookAt>
				<styleUrl>#msn_H0</styleUrl>
				<Point>
					<gx:drawOrder>1</gx:drawOrder>
					<coordinates>74.60919139014223,20.59888999569274,0</coordinates>
				</Point>
			</Placemark>
			<Placemark>
				<name>Adgaon Tappa Chandwad - 11.67 Ha</name>
				<LookAt>
					<longitude>74.17184285617768</longitude>
					<latitude>20.3132228622251</latitude>
					<altitude>0</altitude>
					<heading>0.0005021910902811504</heading>
					<tilt>0</tilt>
					<range>3512.286292187565</range>
					<gx:altitudeMode>relativeToSeaFloor</gx:altitudeMode>
				</LookAt>
				<styleUrl>#msn_H0</styleUrl>
				<Point>
					<gx:drawOrder>1</gx:drawOrder>
					<coordinates>74.17102032489925,20.31165639019981,0</coordinates>
				</Point>
			</Placemark>
			<Placemark>
				<name>Malsane Chandwad - Beside Hotel Renuka - 16.77 Ha</name>
				<LookAt>
					<longitude>74.13026352777027</longitude>
					<latitude>20.29959550545022</latitude>
					<altitude>0</altitude>
					<heading>-0.0003792037566451619</heading>
					<tilt>13.66370885192416</tilt>
					<range>1406.526463278224</range>
					<gx:altitudeMode>relativeToSeaFloor</gx:altitudeMode>
				</LookAt>
				<styleUrl>#msn_H0</styleUrl>
				<Point>
					<gx:drawOrder>1</gx:drawOrder>
					<coordinates>74.12949849164346,20.2988908558877,0</coordinates>
				</Point>
			</Placemark>
		</Folder>
		<Folder>
			<name>Manmad Nadgaon Chalisgaon</name>
			<Placemark>
				<name>Hiswal Hirenagar Nandgaon Shivpuran - 16.63 Ha</name>
				<LookAt>
					<longitude>74.59275611056037</longitude>
					<latitude>20.30769301286569</latitude>
					<altitude>0</altitude>
					<heading>-0.003300786465280414</heading>
					<tilt>13.01882211519047</tilt>
					<range>2026.508053708759</range>
					<gx:altitudeMode>relativeToSeaFloor</gx:altitudeMode>
				</LookAt>
				<styleUrl>#msn_H0</styleUrl>
				<Point>
					<gx:drawOrder>1</gx:drawOrder>
					<coordinates>74.59665101776504,20.30569206289701,0</coordinates>
				</Point>
			</Placemark>
			<Placemark>
				<name>Pokhari - 51.79 + 15.52 Ha</name>
				<LookAt>
					<longitude>74.69667070828451</longitude>
					<latitude>20.27435499815712</latitude>
					<altitude>0</altitude>
					<heading>-0.007265475954365156</heading>
					<tilt>0</tilt>
					<range>11126.07779991798</range>
					<gx:altitudeMode>relativeToSeaFloor</gx:altitudeMode>
				</LookAt>
				<styleUrl>#msn_H0</styleUrl>
				<Point>
					<gx:drawOrder>1</gx:drawOrder>
					<coordinates>74.71378321471047,20.28225086023595,0</coordinates>
				</Point>
			</Placemark>
		</Folder>
		<Folder>
			<name>Dhrampur Gujarat</name>
			<Folder>
				<name>Sub - Sogras Deola Satana Taharabad</name>
				<Placemark>
					<name>Dholbare Baglan - 4.34 Ha</name>
					<LookAt>
						<longitude>74.15103317282677</longitude>
						<latitude>20.71190813916564</latitude>
						<altitude>0</altitude>
						<heading>0.009433387947175711</heading>
						<tilt>8.140463371481207</tilt>
						<range>4161.173344978635</range>
						<gx:altitudeMode>relativeToSeaFloor</gx:altitudeMode>
					</LookAt>
					<styleUrl>#msn_H0</styleUrl>
					<Point>
						<gx:drawOrder>1</gx:drawOrder>
						<coordinates>74.14589510340154,20.71253229789705,0</coordinates>
					</Point>
				</Placemark>
				<Placemark>
					<name>Karanjad Baglan APMC - 11.21 Ha</name>
					<LookAt>
						<longitude>74.14876383173453</longitude>
						<latitude>20.74924600046449</latitude>
						<altitude>0</altitude>
						<heading>-0.01144464610318802</heading>
						<tilt>18.96362397478502</tilt>
						<range>1648.153181751089</range>
						<gx:altitudeMode>relativeToSeaFloor</gx:altitudeMode>
					</LookAt>
					<styleUrl>#msn_H0</styleUrl>
					<Point>
						<gx:drawOrder>1</gx:drawOrder>
						<coordinates>74.14685226579697,20.74762118949119,0</coordinates>
					</Point>
				</Placemark>
			</Folder>
			<Placemark>
				<name>Vangani - 4 Ha</name>
				<LookAt>
					<longitude>73.47756403370319</longitude>
					<latitude>20.27577275376088</latitude>
					<altitude>0</altitude>
					<heading>2.146874409987873e-14</heading>
					<tilt>0</tilt>
					<range>3354.378810325401</range>
					<gx:altitudeMode>relativeToSeaFloor</gx:altitudeMode>
				</LookAt>
				<styleUrl>#msn_H0</styleUrl>
				<Point>
					<gx:drawOrder>1</gx:drawOrder>
					<coordinates>73.47615039093338,20.2761354268161,0</coordinates>
				</Point>
			</Placemark>
			<Placemark>
				<name>Vani - Area Not Confirmed</name>
				<LookAt>
					<longitude>73.92357370690158</longitude>
					<latitude>20.42882484729213</latitude>
					<altitude>0</altitude>
					<heading>3.180554681463516e-14</heading>
					<tilt>0</tilt>
					<range>1873.484750031148</range>
					<gx:altitudeMode>relativeToSeaFloor</gx:altitudeMode>
				</LookAt>
				<styleUrl>#msn_H0</styleUrl>
				<Point>
					<gx:drawOrder>1</gx:drawOrder>
					<coordinates>73.9235264220688,20.42976170111893,0</coordinates>
				</Point>
			</Placemark>
			<Placemark>
				<name>Girnare - 3.60 Ha</name>
				<LookAt>
					<longitude>73.64160920950692</longitude>
					<latitude>20.07408944317989</latitude>
					<altitude>0</altitude>
					<heading>-0.00218136128724452</heading>
					<tilt>9.136723834227498</tilt>
					<range>3013.327134377346</range>
					<gx:altitudeMode>relativeToSeaFloor</gx:altitudeMode>
				</LookAt>
				<styleUrl>#msn_H0</styleUrl>
				<Point>
					<gx:drawOrder>1</gx:drawOrder>
					<coordinates>73.64434885071314,20.07125029546663,0</coordinates>
				</Point>
			</Placemark>
		</Folder>
		<atom:link rel="app" href="https://www.google.com/earth/about/versions/#earth-pro" title="Google Earth Pro 7.3.7.1155"></atom:link>
	</Folder>
</Document>
</kml>
