<?xml version="1.0" encoding="UTF-8"?>
<kml xmlns="http://www.opengis.net/kml/2.2" xmlns:gx="http://www.google.com/kml/ext/2.2" xmlns:kml="http://www.opengis.net/kml/2.2" xmlns:atom="http://www.w3.org/2005/Atom">
<Document>
	<name>40 तात्पुरती पोलीस चौकी.kml</name>
	<StyleMap id="__managed_style_0EFA8D93B53A71BD5FE90">
		<Pair>
			<key>normal</key>
			<styleUrl>#default0</styleUrl>
		</Pair>
		<Pair>
			<key>highlight</key>
			<styleUrl>#default1</styleUrl>
		</Pair>
	</StyleMap>
	<StyleMap id="__managed_style_0EFA8D93B53A71BD5FE91">
		<Pair>
			<key>normal</key>
			<styleUrl>#default</styleUrl>
		</Pair>
		<Pair>
			<key>highlight</key>
			<styleUrl>#default2</styleUrl>
		</Pair>
	</StyleMap>
	<StyleMap id="__managed_style_0EFA8D93B53A71BD5FE910">
		<Pair>
			<key>normal</key>
			<styleUrl>#__managed_style_14DB5FCEB83A71BD5FE90</styleUrl>
		</Pair>
		<Pair>
			<key>highlight</key>
			<styleUrl>#__managed_style_225A2ED86A3A71BD5FE90</styleUrl>
		</Pair>
	</StyleMap>
	<gx:CascadingStyle kml:id="__managed_style_14DB5FCEB83A71BD5FE90">
		<Style>
			<IconStyle>
				<Icon>
					<href>https://earth.google.com/earth/document/icon?color=1976d2&amp;id=2000&amp;scale=4</href>
				</Icon>
				<hotSpot x="64" y="128" xunits="pixels" yunits="insetPixels"/>
			</IconStyle>
			<BalloonStyle>
				<displayMode>hide</displayMode>
			</BalloonStyle>
			<LineStyle>
				<color>ff2dc0fb</color>
				<width>4</width>
			</LineStyle>
			<PolyStyle>
				<color>40ffffff</color>
			</PolyStyle>
		</Style>
	</gx:CascadingStyle>
	<gx:CascadingStyle kml:id="__managed_style_225A2ED86A3A71BD5FE90">
		<Style>
			<IconStyle>
				<scale>1.2</scale>
				<Icon>
					<href>https://earth.google.com/earth/document/icon?color=1976d2&amp;id=2000&amp;scale=4</href>
				</Icon>
				<hotSpot x="64" y="128" xunits="pixels" yunits="insetPixels"/>
			</IconStyle>
			<BalloonStyle>
				<displayMode>hide</displayMode>
			</BalloonStyle>
			<LineStyle>
				<color>ff2dc0fb</color>
				<width>6</width>
			</LineStyle>
			<PolyStyle>
				<color>40ffffff</color>
			</PolyStyle>
		</Style>
	</gx:CascadingStyle>
	<Style id="default">
		<IconStyle>
			<Icon>
				<href>https://earth.google.com/earth/document/icon?color=1976d2&amp;id=2000&amp;scale=4</href>
			</Icon>
			<hotSpot x="64" y="128" xunits="pixels" yunits="insetPixels"/>
		</IconStyle>
		<BalloonStyle>
			<displayMode>hide</displayMode>
		</BalloonStyle>
		<ListStyle>
		</ListStyle>
		<LineStyle>
			<color>ff2dc0fb</color>
			<width>4</width>
		</LineStyle>
		<PolyStyle>
			<color>40ffffff</color>
		</PolyStyle>
		<gx:IconStackStyle>
		</gx:IconStackStyle>
	</Style>
	<Style id="default1">
		<IconStyle>
			<scale>1.2</scale>
			<heading>0</heading>
			<Icon>
				<href>https://earth.google.com/earth/document/icon?color=1976d2&amp;id=2000&amp;scale=4</href>
			</Icon>
			<hotSpot x="64" y="128" xunits="pixels" yunits="insetPixels"/>
			<gx:headingMode>auto</gx:headingMode>
		</IconStyle>
		<BalloonStyle>
			<displayMode>hide</displayMode>
		</BalloonStyle>
		<LineStyle>
			<color>ff2dc0fb</color>
			<width>6</width>
		</LineStyle>
		<PolyStyle>
			<color>40ffffff</color>
		</PolyStyle>
	</Style>
	<Style id="default2">
		<IconStyle>
			<scale>1.2</scale>
			<Icon>
				<href>https://earth.google.com/earth/document/icon?color=1976d2&amp;id=2000&amp;scale=4</href>
			</Icon>
			<hotSpot x="64" y="128" xunits="pixels" yunits="insetPixels"/>
		</IconStyle>
		<BalloonStyle>
			<displayMode>hide</displayMode>
		</BalloonStyle>
		<ListStyle>
		</ListStyle>
		<LineStyle>
			<color>ff2dc0fb</color>
			<width>6</width>
		</LineStyle>
		<PolyStyle>
			<color>40ffffff</color>
		</PolyStyle>
		<gx:IconStackStyle>
		</gx:IconStackStyle>
	</Style>
	<Style id="default0">
		<IconStyle>
			<Icon>
				<href>https://earth.google.com/earth/document/icon?color=1976d2&amp;id=2000&amp;scale=4</href>
			</Icon>
			<hotSpot x="64" y="128" xunits="pixels" yunits="insetPixels"/>
		</IconStyle>
		<BalloonStyle>
			<displayMode>hide</displayMode>
		</BalloonStyle>
		<LineStyle>
			<color>ff2dc0fb</color>
			<width>4</width>
		</LineStyle>
		<PolyStyle>
			<color>40ffffff</color>
		</PolyStyle>
	</Style>
	<StyleMap id="m_ylw-pushpin">
		<Pair>
			<key>normal</key>
			<styleUrl>#s_ylw-pushpin</styleUrl>
		</Pair>
		<Pair>
			<key>highlight</key>
			<styleUrl>#s_ylw-pushpin_hl</styleUrl>
		</Pair>
	</StyleMap>
	<StyleMap id="m_ylw-pushpin8">
		<Pair>
			<key>normal</key>
			<styleUrl>#s_ylw-pushpin4</styleUrl>
		</Pair>
		<Pair>
			<key>highlight</key>
			<styleUrl>#s_ylw-pushpin_hl8</styleUrl>
		</Pair>
	</StyleMap>
	<Style id="s_ylw-pushpin">
		<IconStyle>
			<scale>1.1</scale>
			<Icon>
				<href>http://maps.google.com/mapfiles/kml/pushpin/ylw-pushpin.png</href>
			</Icon>
			<hotSpot x="20" y="2" xunits="pixels" yunits="pixels"/>
		</IconStyle>
	</Style>
	<Style id="s_ylw-pushpin4">
		<IconStyle>
			<scale>1.1</scale>
			<Icon>
				<href>http://maps.google.com/mapfiles/kml/pushpin/ylw-pushpin.png</href>
			</Icon>
			<hotSpot x="20" y="2" xunits="pixels" yunits="pixels"/>
		</IconStyle>
	</Style>
	<Style id="s_ylw-pushpin_hl">
		<IconStyle>
			<scale>1.3</scale>
			<Icon>
				<href>http://maps.google.com/mapfiles/kml/pushpin/ylw-pushpin.png</href>
			</Icon>
			<hotSpot x="20" y="2" xunits="pixels" yunits="pixels"/>
		</IconStyle>
	</Style>
	<Style id="s_ylw-pushpin_hl8">
		<IconStyle>
			<scale>1.3</scale>
			<Icon>
				<href>http://maps.google.com/mapfiles/kml/pushpin/ylw-pushpin.png</href>
			</Icon>
			<hotSpot x="20" y="2" xunits="pixels" yunits="pixels"/>
		</IconStyle>
	</Style>
	<Folder>
		<name>40 तात्पुरती पोलीस चौकी</name>
		<open>1</open>
		<Placemark id="03D75D17383A71BD5FC8">
			<name>विषणुनगर विंचुर ता, निफाड</name>
			<LookAt>
				<longitude>74.21460746468689</longitude>
				<latitude>20.08576699984627</latitude>
				<altitude>617.1393654481604</altitude>
				<heading>0</heading>
				<tilt>0</tilt>
				<gx:fovy>35</gx:fovy>
				<range>788.2530955126279</range>
				<altitudeMode>absolute</altitudeMode>
			</LookAt>
			<styleUrl>#__managed_style_0EFA8D93B53A71BD5FE910</styleUrl>
			<Polygon>
				<outerBoundaryIs>
					<LinearRing>
						<coordinates>
							74.21358209546739,20.08612377222762,0 74.21378054857487,20.08591478796931,0 74.21502097113877,20.08524822280544,0 74.21570028965333,20.08632076472333,0 74.2136974698799,20.08638734933154,0 74.21358209546739,20.08612377222762,0 
						</coordinates>
					</LinearRing>
				</outerBoundaryIs>
			</Polygon>
		</Placemark>
		<Placemark>
			<name>विषणुनगर विंचुर ता, निफाड</name>
			<LookAt>
				<longitude>74.21504730677349</longitude>
				<latitude>20.08586117832182</latitude>
				<altitude>0</altitude>
				<heading>0.0001475009634390583</heading>
				<tilt>26.96560733351808</tilt>
				<range>336.3359198965567</range>
				<gx:altitudeMode>relativeToSeaFloor</gx:altitudeMode>
			</LookAt>
			<styleUrl>#m_ylw-pushpin</styleUrl>
			<Point>
				<gx:drawOrder>1</gx:drawOrder>
				<coordinates>74.21501240452815,20.0853538966328,0</coordinates>
			</Point>
		</Placemark>
		<Placemark id="0677922B6E3A71F30E00">
			<name>पोखरी</name>
			<LookAt>
				<longitude>74.71761789471554</longitude>
				<latitude>20.28379386746141</latitude>
				<altitude>478.0931194317583</altitude>
				<heading>0</heading>
				<tilt>0</tilt>
				<gx:fovy>35</gx:fovy>
				<range>1873.653212961217</range>
				<altitudeMode>absolute</altitudeMode>
			</LookAt>
			<styleUrl>#__managed_style_0EFA8D93B53A71BD5FE910</styleUrl>
			<Polygon>
				<outerBoundaryIs>
					<LinearRing>
						<coordinates>
							74.71204527915643,20.2839794765773,0 74.71198201012471,20.28191065096406,0 74.71436821942119,20.2816587279091,0 74.71421234445735,20.28351278510409,0 74.71624182720437,20.28338879059165,0 74.71673950761873,20.28576437192535,0 74.71503388226309,20.28556345606884,0 74.71468018302291,20.28381440641102,0 74.71204527915643,20.2839794765773,0 
						</coordinates>
					</LinearRing>
				</outerBoundaryIs>
			</Polygon>
		</Placemark>
		<Placemark>
			<name>पोखरी</name>
			<LookAt>
				<longitude>74.71761789216316</longitude>
				<latitude>20.2837938706267</latitude>
				<altitude>0</altitude>
				<heading>-8.848454200178874e-10</heading>
				<tilt>0</tilt>
				<range>1873.02122419069</range>
				<gx:altitudeMode>relativeToSeaFloor</gx:altitudeMode>
			</LookAt>
			<styleUrl>#m_ylw-pushpin</styleUrl>
			<Point>
				<gx:drawOrder>1</gx:drawOrder>
				<coordinates>74.71526128118124,20.28383185571787,0</coordinates>
			</Point>
		</Placemark>
		<Placemark id="0CBBA8BAD53A71C68754">
			<name>येवाल भुजबळ ऑफीस मागे</name>
			<LookAt>
				<longitude>74.47666087352364</longitude>
				<latitude>20.04445879637753</latitude>
				<altitude>572.2196178033564</altitude>
				<heading>0</heading>
				<tilt>0</tilt>
				<gx:fovy>35</gx:fovy>
				<range>1250.676519039989</range>
				<altitudeMode>absolute</altitudeMode>
			</LookAt>
			<styleUrl>#__managed_style_0EFA8D93B53A71BD5FE91</styleUrl>
			<Polygon>
				<outerBoundaryIs>
					<LinearRing>
						<coordinates>
							74.47578472017557,20.04595404725524,0 74.47598928154677,20.04448165405562,0 74.47535555301582,20.04445421560002,0 74.4751864697409,20.04364699169427,0 74.47914697441753,20.04343242487278,0 74.47934329129207,20.04541287645072,0 74.47578472017557,20.04595404725524,0 
						</coordinates>
					</LinearRing>
				</outerBoundaryIs>
			</Polygon>
		</Placemark>
		<Placemark>
			<name>येवाल भुजबळ ऑफीस मागे</name>
			<LookAt>
				<longitude>74.47666087230803</longitude>
				<latitude>20.04445879542397</latitude>
				<altitude>0</altitude>
				<heading>-4.166327848049615e-10</heading>
				<tilt>0</tilt>
				<range>1250.16514478681</range>
				<gx:altitudeMode>relativeToSeaFloor</gx:altitudeMode>
			</LookAt>
			<styleUrl>#m_ylw-pushpin</styleUrl>
			<Point>
				<gx:drawOrder>1</gx:drawOrder>
				<coordinates>74.4790922956395,20.04526941380155,0</coordinates>
			</Point>
		</Placemark>
		<Placemark id="01C04110013A71DBD1BE">
			<name>खडकजांब सोनलाल मोहनलाल भंडारी</name>
			<LookAt>
				<longitude>74.07865329372629</longitude>
				<latitude>20.24462180973048</latitude>
				<altitude>679.5253378378266</altitude>
				<heading>0</heading>
				<tilt>0</tilt>
				<gx:fovy>35</gx:fovy>
				<range>2609.519556717715</range>
				<altitudeMode>absolute</altitudeMode>
			</LookAt>
			<styleUrl>#__managed_style_0EFA8D93B53A71BD5FE91</styleUrl>
			<Polygon>
				<outerBoundaryIs>
					<LinearRing>
						<coordinates>
							74.07165180807901,20.24728186188667,0 74.07047976676121,20.24470810780821,0 74.07073007838002,20.24445835847974,0 74.07147578272127,20.24570563759895,0 74.07441022285497,20.24516985893693,0 74.07585355978092,20.24766073595343,0 74.07429988231664,20.24714335067472,0 74.07165180807901,20.24728186188667,0 
						</coordinates>
					</LinearRing>
				</outerBoundaryIs>
			</Polygon>
		</Placemark>
		<Placemark>
			<name>खडकजांब सोनलाल मोहनलाल भंडारी</name>
			<LookAt>
				<longitude>74.07865329310754</longitude>
				<latitude>20.24462180613115</latitude>
				<altitude>0</altitude>
				<heading>-2.141053994920795e-10</heading>
				<tilt>0</tilt>
				<range>2610.051800580791</range>
				<gx:altitudeMode>relativeToSeaFloor</gx:altitudeMode>
			</LookAt>
			<styleUrl>#m_ylw-pushpin</styleUrl>
			<Point>
				<gx:drawOrder>1</gx:drawOrder>
				<coordinates>74.07424722498391,20.24538629578113,0</coordinates>
			</Point>
		</Placemark>
		<Placemark id="031C09F6C93A71D430EE">
			<name>सिन्नर गुरेवाडी</name>
			<LookAt>
				<longitude>74.05093642063041</longitude>
				<latitude>19.80280112024445</latitude>
				<altitude>670.235873462785</altitude>
				<heading>0</heading>
				<tilt>0</tilt>
				<gx:fovy>35</gx:fovy>
				<range>1596.28243132378</range>
				<altitudeMode>absolute</altitudeMode>
			</LookAt>
			<styleUrl>#__managed_style_0EFA8D93B53A71BD5FE91</styleUrl>
			<Polygon>
				<outerBoundaryIs>
					<LinearRing>
						<coordinates>
							74.05078030525685,19.79981460452253,0 74.05096135909726,19.80110574490387,0 74.05152302917215,19.80123358517488,0 74.05144812915657,19.8016211416286,0 74.05066240053415,19.80162310559705,0 74.05056311138962,19.80184647944451,0 74.04976554448908,19.80188091811253,0 74.04980561207037,19.80308689964438,0 74.04631818496115,19.80154734888148,0 74.05078030525685,19.79981460452253,0 
						</coordinates>
					</LinearRing>
				</outerBoundaryIs>
			</Polygon>
		</Placemark>
		<Placemark>
			<name>सिन्नर गुरेवाडी</name>
			<LookAt>
				<longitude>74.05093641554747</longitude>
				<latitude>19.80280111632204</latitude>
				<altitude>0</altitude>
				<heading>-1.722017505915318e-09</heading>
				<tilt>0</tilt>
				<range>1596.551383923759</range>
				<gx:altitudeMode>relativeToSeaFloor</gx:altitudeMode>
			</LookAt>
			<styleUrl>#m_ylw-pushpin</styleUrl>
			<Point>
				<gx:drawOrder>1</gx:drawOrder>
				<coordinates>74.0495178955557,19.8028119228467,0</coordinates>
			</Point>
		</Placemark>
		<Placemark id="05372E1F1B3A71C29FE1">
			<name>खामगाव पाटी येवला</name>
			<LookAt>
				<longitude>74.66876800002009</longitude>
				<latitude>19.95990099991594</latitude>
				<altitude>574.1619999847061</altitude>
				<heading>0</heading>
				<tilt>0</tilt>
				<gx:fovy>35</gx:fovy>
				<range>788.5744297501515</range>
				<altitudeMode>absolute</altitudeMode>
			</LookAt>
			<styleUrl>#__managed_style_0EFA8D93B53A71BD5FE91</styleUrl>
			<Polygon>
				<outerBoundaryIs>
					<LinearRing>
						<coordinates>
							74.66883570548028,19.95959727017692,0 74.66851471839918,19.95883549584526,0 74.66926205499065,19.95853916382417,0 74.66996053241012,19.95825212267969,0 74.67018401301453,19.95905533918389,0 74.66883570548028,19.95959727017692,0 
						</coordinates>
					</LinearRing>
				</outerBoundaryIs>
			</Polygon>
		</Placemark>
		<Placemark>
			<name>खामगाव पाटी येवला</name>
			<LookAt>
				<longitude>74.66876800152228</longitude>
				<latitude>19.95990100081306</latitude>
				<altitude>0</altitude>
				<heading>5.127976507376813e-10</heading>
				<tilt>0</tilt>
				<range>787.999501038428</range>
				<gx:altitudeMode>relativeToSeaFloor</gx:altitudeMode>
			</LookAt>
			<styleUrl>#m_ylw-pushpin</styleUrl>
			<Point>
				<gx:drawOrder>1</gx:drawOrder>
				<coordinates>74.66891294084995,19.95944688098981,0</coordinates>
			</Point>
		</Placemark>
		<Placemark id="0DE7F28D4B3A71D0B977">
			<name>इंडीय बुल्स सिन्नर</name>
			<LookAt>
				<longitude>74.06144511289511</longitude>
				<latitude>19.84273640515362</latitude>
				<altitude>655.5512978564925</altitude>
				<heading>0</heading>
				<tilt>0</tilt>
				<gx:fovy>35</gx:fovy>
				<range>998.6087226236123</range>
				<altitudeMode>absolute</altitudeMode>
			</LookAt>
			<styleUrl>#__managed_style_0EFA8D93B53A71BD5FE91</styleUrl>
			<Polygon>
				<outerBoundaryIs>
					<LinearRing>
						<coordinates>
							74.06108380055601,19.84042753615951,0 74.06496595030443,19.84069039208624,0 74.06516120514846,19.84143582542182,0 74.06457137868752,19.84218210595625,0 74.06123001118968,19.84190044777099,0 74.06108380055601,19.84042753615951,0 
						</coordinates>
					</LinearRing>
				</outerBoundaryIs>
			</Polygon>
		</Placemark>
		<Placemark>
			<name>इंडीय बुल्स सिन्नर</name>
			<LookAt>
				<longitude>74.06144511316381</longitude>
				<latitude>19.84273640511335</latitude>
				<altitude>0</altitude>
				<heading>9.121830826437365e-11</heading>
				<tilt>0</tilt>
				<range>997.6726053869166</range>
				<gx:altitudeMode>relativeToSeaFloor</gx:altitudeMode>
			</LookAt>
			<styleUrl>#m_ylw-pushpin</styleUrl>
			<Point>
				<gx:drawOrder>1</gx:drawOrder>
				<coordinates>74.06450743185397,19.84201540886123,0</coordinates>
			</Point>
		</Placemark>
		<Placemark id="04406D87563A71E718FE">
			<name>आडगाव टप्पा चांदवड</name>
			<LookAt>
				<longitude>74.17039623096436</longitude>
				<latitude>20.31255753404486</latitude>
				<altitude>712.052835026849</altitude>
				<heading>0</heading>
				<tilt>0</tilt>
				<gx:fovy>35</gx:fovy>
				<range>1252.020448961266</range>
				<altitudeMode>absolute</altitudeMode>
			</LookAt>
			<styleUrl>#__managed_style_0EFA8D93B53A71BD5FE91</styleUrl>
			<Polygon>
				<outerBoundaryIs>
					<LinearRing>
						<coordinates>
							74.16898791899621,20.31082863325139,0 74.17324852430515,20.31204734455751,0 74.17334828336402,20.31328629267612,0 74.16863776481506,20.31200323853156,0 74.16898791899621,20.31082863325139,0 
						</coordinates>
					</LinearRing>
				</outerBoundaryIs>
			</Polygon>
		</Placemark>
		<Placemark>
			<name>आडगाव टप्पा चांदवड</name>
			<LookAt>
				<longitude>74.17039623112829</longitude>
				<latitude>20.31255753357231</latitude>
				<altitude>0</altitude>
				<heading>5.690568922207488e-11</heading>
				<tilt>0</tilt>
				<range>1251.685990395013</range>
				<gx:altitudeMode>relativeToSeaFloor</gx:altitudeMode>
			</LookAt>
			<styleUrl>#m_ylw-pushpin</styleUrl>
			<Point>
				<gx:drawOrder>1</gx:drawOrder>
				<coordinates>74.17302820786512,20.31308250543116,0</coordinates>
			</Point>
		</Placemark>
		<Placemark id="0E0E7848583A71C0043B">
			<name>येवला ता. जि.नाशिक</name>
			<LookAt>
				<longitude>74.49339499999465</longitude>
				<latitude>20.03750499996671</latitude>
				<altitude>576.92979082439</altitude>
				<heading>0</heading>
				<tilt>0</tilt>
				<gx:fovy>35</gx:fovy>
				<range>788.5178764077139</range>
				<altitudeMode>absolute</altitudeMode>
			</LookAt>
			<styleUrl>#__managed_style_0EFA8D93B53A71BD5FE91</styleUrl>
			<Polygon>
				<outerBoundaryIs>
					<LinearRing>
						<coordinates>
							74.49250906607443,20.03769284453357,0 74.49225740051176,20.03666568355232,0 74.49438796583415,20.03602457478928,0 74.49464862489765,20.036950933129,0 74.49250906607443,20.03769284453357,0 
						</coordinates>
					</LinearRing>
				</outerBoundaryIs>
			</Polygon>
		</Placemark>
		<Placemark>
			<name>येवला ता. जि.नाशिक</name>
			<LookAt>
				<longitude>74.4933949995806</longitude>
				<latitude>20.03750499973469</latitude>
				<altitude>0</altitude>
				<heading>-1.418622804573172e-10</heading>
				<tilt>0</tilt>
				<range>787.5069260435936</range>
				<gx:altitudeMode>relativeToSeaFloor</gx:altitudeMode>
			</LookAt>
			<styleUrl>#m_ylw-pushpin</styleUrl>
			<Point>
				<gx:drawOrder>1</gx:drawOrder>
				<coordinates>74.49258988849458,20.03753172404672,0</coordinates>
			</Point>
		</Placemark>
		<Placemark id="09A89F863F3A72196430">
			<name>भाटवाडी सिन्नर</name>
			<LookAt>
				<longitude>73.97862285629711</longitude>
				<latitude>19.82706654992376</latitude>
				<altitude>708.1900016088524</altitude>
				<heading>0</heading>
				<tilt>0</tilt>
				<gx:fovy>35</gx:fovy>
				<range>1445.921463893173</range>
				<altitudeMode>absolute</altitudeMode>
			</LookAt>
			<styleUrl>#__managed_style_0EFA8D93B53A71BD5FE91</styleUrl>
			<Polygon>
				<outerBoundaryIs>
					<LinearRing>
						<coordinates>
							73.97812782057525,19.82608753476461,0 73.97942387317704,19.82543741455486,0 73.98040201837284,19.82648554382556,0 73.98056172123799,19.82709320505603,0 73.97979901542342,19.82766763707744,0 73.97812782057525,19.82608753476461,0 
						</coordinates>
					</LinearRing>
				</outerBoundaryIs>
			</Polygon>
		</Placemark>
		<Placemark>
			<name>भाटवाडी सिन्नर</name>
			<LookAt>
				<longitude>73.97862285378929</longitude>
				<latitude>19.827066549472</latitude>
				<altitude>0</altitude>
				<heading>-8.506123148426252e-10</heading>
				<tilt>0</tilt>
				<range>1445.275100734972</range>
				<gx:altitudeMode>relativeToSeaFloor</gx:altitudeMode>
			</LookAt>
			<styleUrl>#m_ylw-pushpin</styleUrl>
			<Point>
				<gx:drawOrder>1</gx:drawOrder>
				<coordinates>73.979726251576,19.82739123137933,0</coordinates>
			</Point>
		</Placemark>
		<Placemark id="02417847FA3A71FD10A0">
			<name>वांगणी पेठ</name>
			<LookAt>
				<longitude>73.47633466284285</longitude>
				<latitude>20.27450094100515</latitude>
				<altitude>616.7883038047532</altitude>
				<heading>0</heading>
				<tilt>0</tilt>
				<gx:fovy>35</gx:fovy>
				<range>843.5808992067177</range>
				<altitudeMode>absolute</altitudeMode>
			</LookAt>
			<styleUrl>#__managed_style_0EFA8D93B53A71BD5FE91</styleUrl>
			<Polygon>
				<outerBoundaryIs>
					<LinearRing>
						<coordinates>
							73.47625861610382,20.27451809923525,0 73.47549048387854,20.27376783103423,0 73.47682195693464,20.27302769738383,0 73.47738506644042,20.27377898312735,0 73.47625861610382,20.27451809923525,0 
						</coordinates>
					</LinearRing>
				</outerBoundaryIs>
			</Polygon>
		</Placemark>
		<Placemark>
			<name>वांगणी पेठ</name>
			<LookAt>
				<longitude>73.4763346638442</longitude>
				<latitude>20.27450094163775</latitude>
				<altitude>0</altitude>
				<heading>3.470024914410214e-10</heading>
				<tilt>0</tilt>
				<range>842.8873529898722</range>
				<gx:altitudeMode>relativeToSeaFloor</gx:altitudeMode>
			</LookAt>
			<styleUrl>#m_ylw-pushpin</styleUrl>
			<Point>
				<gx:drawOrder>1</gx:drawOrder>
				<coordinates>73.47625253957747,20.27434116276375,0</coordinates>
			</Point>
		</Placemark>
		<Placemark id="072EC440FA3A71DF4F98">
			<name>मालसाने चांदवड</name>
			<LookAt>
				<longitude>74.13134109912554</longitude>
				<latitude>20.29825332978139</latitude>
				<altitude>702.6561902601005</altitude>
				<heading>0</heading>
				<tilt>0</tilt>
				<gx:fovy>35</gx:fovy>
				<range>497.5515321826243</range>
				<altitudeMode>absolute</altitudeMode>
			</LookAt>
			<styleUrl>#__managed_style_0EFA8D93B53A71BD5FE91</styleUrl>
			<Polygon>
				<outerBoundaryIs>
					<LinearRing>
						<coordinates>
							74.13087514546547,20.29823329925732,0 74.13124770220838,20.29832450219667,0 74.13130236021993,20.29878924261501,0 74.1308082576998,20.29849590883389,0 74.13087514546547,20.29823329925732,0 
						</coordinates>
					</LinearRing>
				</outerBoundaryIs>
			</Polygon>
		</Placemark>
		<Placemark>
			<name>मालसाने चांदवड</name>
			<LookAt>
				<longitude>74.13134109855214</longitude>
				<latitude>20.29825333008133</latitude>
				<altitude>0</altitude>
				<heading>-1.989150703334098e-10</heading>
				<tilt>0</tilt>
				<range>496.7044212753307</range>
				<gx:altitudeMode>relativeToSeaFloor</gx:altitudeMode>
			</LookAt>
			<styleUrl>#m_ylw-pushpin</styleUrl>
			<Point>
				<gx:drawOrder>1</gx:drawOrder>
				<coordinates>74.13120666570704,20.29869378389284,0</coordinates>
			</Point>
		</Placemark>
		<Placemark id="06332A43463A71E89AAF">
			<name>झोडगे 1</name>
			<LookAt>
				<longitude>74.65988509472314</longitude>
				<latitude>20.6423461039226</latitude>
				<altitude>442.941978728895</altitude>
				<heading>0</heading>
				<tilt>0</tilt>
				<gx:fovy>35</gx:fovy>
				<range>2220.091201062024</range>
				<altitudeMode>absolute</altitudeMode>
			</LookAt>
			<styleUrl>#__managed_style_0EFA8D93B53A71BD5FE91</styleUrl>
			<Polygon>
				<outerBoundaryIs>
					<LinearRing>
						<coordinates>
							74.65684031511023,20.63886984888919,0 74.65817855179952,20.63782389538678,0 74.6609993355717,20.64105085389043,0 74.66014614648449,20.64175165512878,0 74.65684031511023,20.63886984888919,0 
						</coordinates>
					</LinearRing>
				</outerBoundaryIs>
			</Polygon>
		</Placemark>
		<Placemark>
			<name>झोडगे 1</name>
			<LookAt>
				<longitude>74.65988509849839</longitude>
				<latitude>20.6423461001109</latitude>
				<altitude>0</altitude>
				<heading>1.330926165479849e-09</heading>
				<tilt>0</tilt>
				<range>2219.964060653971</range>
				<gx:altitudeMode>relativeToSeaFloor</gx:altitudeMode>
			</LookAt>
			<styleUrl>#m_ylw-pushpin</styleUrl>
			<Point>
				<gx:drawOrder>1</gx:drawOrder>
				<coordinates>74.65995748784324,20.64123213885696,0</coordinates>
			</Point>
		</Placemark>
		<Placemark id="08828DD5913A71EB6A90">
			<name>सायाणे</name>
			<LookAt>
				<longitude>74.61822028797793</longitude>
				<latitude>20.60884146101299</latitude>
				<altitude>465.6205289629698</altitude>
				<heading>0</heading>
				<tilt>0</tilt>
				<gx:fovy>35</gx:fovy>
				<range>1850.565728107758</range>
				<altitudeMode>absolute</altitudeMode>
			</LookAt>
			<styleUrl>#__managed_style_0EFA8D93B53A71BD5FE91</styleUrl>
			<Polygon>
				<outerBoundaryIs>
					<LinearRing>
						<coordinates>
							74.61423964113239,20.60529833533927,0 74.61459868157156,20.60486164493816,0 74.6171322975265,20.60649918318033,0 74.61677190432202,20.60731628276315,0 74.61423964113239,20.60529833533927,0 
						</coordinates>
					</LinearRing>
				</outerBoundaryIs>
			</Polygon>
		</Placemark>
		<Placemark>
			<name>सायाणे</name>
			<LookAt>
				<longitude>74.61822028333701</longitude>
				<latitude>20.60884146334238</latitude>
				<altitude>0</altitude>
				<heading>-1.633547992034399e-09</heading>
				<tilt>0</tilt>
				<range>1849.912599718846</range>
				<gx:altitudeMode>relativeToSeaFloor</gx:altitudeMode>
			</LookAt>
			<styleUrl>#m_ylw-pushpin</styleUrl>
			<Point>
				<gx:drawOrder>1</gx:drawOrder>
				<coordinates>74.61651087081022,20.60689630307427,0</coordinates>
			</Point>
		</Placemark>
		<Placemark id="0C9E9F1B3E3A720D2EC8">
			<name>सप्तश्र`गी गड नांदुरी शीवार</name>
			<LookAt>
				<longitude>73.92357370690156</longitude>
				<latitude>20.42882484729213</latitude>
				<altitude>782.6371550521126</altitude>
				<heading>0</heading>
				<tilt>0</tilt>
				<gx:fovy>35</gx:fovy>
				<range>1090.847594981315</range>
				<altitudeMode>absolute</altitudeMode>
			</LookAt>
			<styleUrl>#__managed_style_0EFA8D93B53A71BD5FE91</styleUrl>
			<Polygon>
				<outerBoundaryIs>
					<LinearRing>
						<coordinates>
							73.92428197543232,20.42903675702239,0 73.92437838375912,20.43073431706485,0 73.92282892655199,20.4306305372582,0 73.92294689414346,20.42886105508911,0 73.92428197543232,20.42903675702239,0 
						</coordinates>
					</LinearRing>
				</outerBoundaryIs>
			</Polygon>
		</Placemark>
		<Placemark>
			<name>सप्तश्र`गी गड नांदुरी शीवार</name>
			<LookAt>
				<longitude>73.92357370974675</longitude>
				<latitude>20.42882484496509</latitude>
				<altitude>0</altitude>
				<heading>9.931138867909165e-10</heading>
				<tilt>0</tilt>
				<range>1090.156508514307</range>
				<gx:altitudeMode>relativeToSeaFloor</gx:altitudeMode>
			</LookAt>
			<styleUrl>#m_ylw-pushpin</styleUrl>
			<Point>
				<gx:drawOrder>1</gx:drawOrder>
				<coordinates>73.92387858984593,20.42913653052372,0</coordinates>
			</Point>
		</Placemark>
		<Placemark id="0AA3AC9EAB3A7212F353">
			<name>गिरणारे पा.</name>
			<LookAt>
				<longitude>73.64548572495397</longitude>
				<latitude>20.07195906615984</latitude>
				<altitude>664.5815290895105</altitude>
				<heading>0</heading>
				<tilt>0</tilt>
				<gx:fovy>35</gx:fovy>
				<range>946.2462609916111</range>
				<altitudeMode>absolute</altitudeMode>
			</LookAt>
			<styleUrl>#__managed_style_0EFA8D93B53A71BD5FE91</styleUrl>
			<Polygon>
				<outerBoundaryIs>
					<LinearRing>
						<coordinates>
							73.64551159750415,20.07143106982478,0 73.64318610538398,20.07223568962635,0 73.64299257875629,20.07155992498623,0 73.64521757865678,20.07081983101537,0 73.64551159750415,20.07143106982478,0 
						</coordinates>
					</LinearRing>
				</outerBoundaryIs>
			</Polygon>
		</Placemark>
		<Placemark>
			<name>गिरणारे पा.</name>
			<LookAt>
				<longitude>73.6454857249535</longitude>
				<latitude>20.07195906581284</latitude>
				<altitude>0</altitude>
				<heading>-1.502812086991512e-13</heading>
				<tilt>0</tilt>
				<range>945.3947906409437</range>
				<gx:altitudeMode>relativeToSeaFloor</gx:altitudeMode>
			</LookAt>
			<styleUrl>#m_ylw-pushpin</styleUrl>
			<Point>
				<gx:drawOrder>1</gx:drawOrder>
				<coordinates>73.6433593928012,20.07147642612817,0</coordinates>
			</Point>
		</Placemark>
		<Placemark id="05AA39CBA73A71F19EF4">
			<name>शिवपुराण जागा हिस्वळ नांदगाव</name>
			<LookAt>
				<longitude>74.59907562875624</longitude>
				<latitude>20.30291837965385</latitude>
				<altitude>536.3202123556003</altitude>
				<heading>0</heading>
				<tilt>0</tilt>
				<gx:fovy>35</gx:fovy>
				<range>2390.088879643008</range>
				<altitudeMode>absolute</altitudeMode>
			</LookAt>
			<styleUrl>#__managed_style_0EFA8D93B53A71BD5FE90</styleUrl>
			<Polygon>
				<outerBoundaryIs>
					<LinearRing>
						<coordinates>
							74.59790300480165,20.3051192046468,0 74.59744215819634,20.307082794674,0 74.59577714273131,20.30664257744624,0 74.59549654708506,20.30590886170561,0 74.59567032281525,20.30580411509889,0 74.59564532232028,20.30564156488967,0 74.59537291341422,20.30566474802069,0 74.59566086471561,20.30392475846602,0 74.59790300480165,20.3051192046468,0 
						</coordinates>
					</LinearRing>
				</outerBoundaryIs>
			</Polygon>
		</Placemark>
		<Placemark>
			<name>शिवपुराण जागा हिस्वळ नांदगाव</name>
			<LookAt>
				<longitude>74.59907562481058</longitude>
				<latitude>20.30291837812111</latitude>
				<altitude>0</altitude>
				<heading>-1.369076918884004e-09</heading>
				<tilt>0</tilt>
				<range>2389.472667764975</range>
				<gx:altitudeMode>relativeToSeaFloor</gx:altitudeMode>
			</LookAt>
			<styleUrl>#m_ylw-pushpin</styleUrl>
			<Point>
				<gx:drawOrder>1</gx:drawOrder>
				<coordinates>74.59604862978526,20.30431747373443,0</coordinates>
			</Point>
		</Placemark>
		<Placemark id="098A3946E23A71FBE184">
			<name>वांगनी</name>
			<LookAt>
				<longitude>73.47756403370319</longitude>
				<latitude>20.27577275376088</latitude>
				<altitude>608.9231896269017</altitude>
				<heading>0</heading>
				<tilt>0</tilt>
				<gx:fovy>35</gx:fovy>
				<range>2745.455620700377</range>
				<altitudeMode>absolute</altitudeMode>
			</LookAt>
			<styleUrl>#__managed_style_0EFA8D93B53A71BD5FE91</styleUrl>
			<Polygon>
				<outerBoundaryIs>
					<LinearRing>
						<coordinates>
							73.47632724561198,20.27562509140392,0 73.47722022335314,20.27683097029903,0 73.47629845706368,20.27833817046351,0 73.47444234152209,20.27666732791356,0 73.47554568454684,20.27602320653428,0 73.47632724561198,20.27562509140392,0 
						</coordinates>
					</LinearRing>
				</outerBoundaryIs>
			</Polygon>
		</Placemark>
		<Placemark>
			<name>वांगनी</name>
			<LookAt>
				<longitude>73.4775640373978</longitude>
				<latitude>20.27577275606506</latitude>
				<altitude>0</altitude>
				<heading>1.280348189796546e-09</heading>
				<tilt>0</tilt>
				<range>2745.643953920074</range>
				<gx:altitudeMode>relativeToSeaFloor</gx:altitudeMode>
			</LookAt>
			<styleUrl>#m_ylw-pushpin</styleUrl>
			<Point>
				<gx:drawOrder>1</gx:drawOrder>
				<coordinates>73.47596737429454,20.27605182376444,0</coordinates>
			</Point>
		</Placemark>
		<Placemark>
			<name>अंबई फाटा ( त्रंबक जव्हार रोड)</name>
			<visibility>0</visibility>
			<LookAt>
				<longitude>73.47222346686746</longitude>
				<latitude>19.98185530906087</latitude>
				<altitude>0</altitude>
				<heading>-0.003536546257588328</heading>
				<tilt>18.65398201113215</tilt>
				<range>323.5857208310783</range>
				<gx:altitudeMode>relativeToSeaFloor</gx:altitudeMode>
			</LookAt>
			<styleUrl>#m_ylw-pushpin8</styleUrl>
			<Point>
				<gx:drawOrder>1</gx:drawOrder>
				<coordinates>73.47180750530894,19.9826080261195,0</coordinates>
			</Point>
		</Placemark>
		<Placemark>
			<name>नांदगाव कोहळी फाटा</name>
			<visibility>0</visibility>
			<LookAt>
				<longitude>73.48128282647669</longitude>
				<latitude>20.01424963833136</latitude>
				<altitude>0</altitude>
				<heading>-0.0008810127470824181</heading>
				<tilt>28.85719513896359</tilt>
				<range>434.7497632085079</range>
				<gx:altitudeMode>relativeToSeaFloor</gx:altitudeMode>
			</LookAt>
			<styleUrl>#m_ylw-pushpin8</styleUrl>
			<Point>
				<gx:drawOrder>1</gx:drawOrder>
				<coordinates>73.48080102824015,20.01423832546368,0</coordinates>
			</Point>
		</Placemark>
		<Placemark>
			<name>वाघेरा गाव फाटा समोर</name>
			<visibility>0</visibility>
			<LookAt>
				<longitude>73.50554922221974</longitude>
				<latitude>20.06711453752307</latitude>
				<altitude>0</altitude>
				<heading>0.007245157583994802</heading>
				<tilt>30.0026640415549</tilt>
				<range>593.1022441686713</range>
				<gx:altitudeMode>relativeToSeaFloor</gx:altitudeMode>
			</LookAt>
			<styleUrl>#m_ylw-pushpin8</styleUrl>
			<Point>
				<gx:drawOrder>1</gx:drawOrder>
				<coordinates>73.50394812278955,20.06633165100145,0</coordinates>
			</Point>
		</Placemark>
		<Placemark>
			<name>साई हॉटेल, इगतपुरी</name>
			<visibility>0</visibility>
			<LookAt>
				<longitude>73.56860895272615</longitude>
				<latitude>19.68693419027109</latitude>
				<altitude>0</altitude>
				<heading>0.0001052350257938681</heading>
				<tilt>26.26093344691218</tilt>
				<range>395.211832312015</range>
				<gx:altitudeMode>relativeToSeaFloor</gx:altitudeMode>
			</LookAt>
			<styleUrl>#m_ylw-pushpin8</styleUrl>
			<Point>
				<gx:drawOrder>1</gx:drawOrder>
				<coordinates>73.56822844321954,19.68662732463862,0</coordinates>
			</Point>
		</Placemark>
		<Placemark>
			<name>जातेगाव (चौफुली)</name>
			<visibility>0</visibility>
			<LookAt>
				<longitude>73.64876431232986</longitude>
				<latitude>19.92217019083204</latitude>
				<altitude>0</altitude>
				<heading>0.0002177521424625587</heading>
				<tilt>30.00069168086765</tilt>
				<range>153.7170614242787</range>
				<gx:altitudeMode>relativeToSeaFloor</gx:altitudeMode>
			</LookAt>
			<styleUrl>#m_ylw-pushpin8</styleUrl>
			<Point>
				<gx:drawOrder>1</gx:drawOrder>
				<coordinates>73.64909238411175,19.92245850472938,0</coordinates>
			</Point>
		</Placemark>
		<Placemark>
			<name>खडकवाडी</name>
			<visibility>0</visibility>
			<LookAt>
				<longitude>73.53856007183141</longitude>
				<latitude>19.89617037951258</latitude>
				<altitude>0</altitude>
				<heading>0.0001270577233252809</heading>
				<tilt>30.00088630790629</tilt>
				<range>197.3815122002158</range>
				<gx:altitudeMode>relativeToSeaFloor</gx:altitudeMode>
			</LookAt>
			<styleUrl>#m_ylw-pushpin8</styleUrl>
			<Point>
				<gx:drawOrder>1</gx:drawOrder>
				<coordinates>73.53837171635593,19.89606661246821,0</coordinates>
			</Point>
		</Placemark>
		<Placemark>
			<name>सामुंडी शिवार</name>
			<visibility>0</visibility>
			<LookAt>
				<longitude>73.48932075224729</longitude>
				<latitude>19.87681146068864</latitude>
				<altitude>0</altitude>
				<heading>-0.0192052076929574</heading>
				<tilt>30.00063614901142</tilt>
				<range>141.1612219670016</range>
				<gx:altitudeMode>relativeToSeaFloor</gx:altitudeMode>
			</LookAt>
			<styleUrl>#m_ylw-pushpin8</styleUrl>
			<Point>
				<gx:drawOrder>1</gx:drawOrder>
				<coordinates>73.48948270326137,19.87704582071801,0</coordinates>
			</Point>
		</Placemark>
		<Placemark>
			<name>कोजुली शिवार</name>
			<visibility>0</visibility>
			<LookAt>
				<longitude>73.49315917167658</longitude>
				<latitude>19.87711789350291</latitude>
				<altitude>0</altitude>
				<heading>-0.01790008050675176</heading>
				<tilt>30.00125866406321</tilt>
				<range>279.7581484536697</range>
				<gx:altitudeMode>relativeToSeaFloor</gx:altitudeMode>
			</LookAt>
			<styleUrl>#m_ylw-pushpin8</styleUrl>
			<Point>
				<gx:drawOrder>1</gx:drawOrder>
				<coordinates>73.49287104775094,19.87709395243866,0</coordinates>
			</Point>
		</Placemark>
		<Placemark>
			<name>धोडेगाव</name>
			<visibility>0</visibility>
			<LookAt>
				<longitude>73.61716600369954</longitude>
				<latitude>20.0759723119678</latitude>
				<altitude>0</altitude>
				<heading>0.01479433575962118</heading>
				<tilt>27.78830881454611</tilt>
				<range>429.8039193250123</range>
				<gx:altitudeMode>relativeToSeaFloor</gx:altitudeMode>
			</LookAt>
			<styleUrl>#m_ylw-pushpin8</styleUrl>
			<Point>
				<gx:drawOrder>1</gx:drawOrder>
				<coordinates>73.61652662389771,20.07607823514805,0</coordinates>
			</Point>
		</Placemark>
		<Placemark>
			<name>सर्वतीर्थ टाकेद</name>
			<visibility>0</visibility>
			<LookAt>
				<longitude>73.7757665903186</longitude>
				<latitude>19.69966773240658</latitude>
				<altitude>0</altitude>
				<heading>0.1032046237361468</heading>
				<tilt>30.00119201001452</tilt>
				<range>265.2897379471117</range>
				<gx:altitudeMode>relativeToSeaFloor</gx:altitudeMode>
			</LookAt>
			<styleUrl>#m_ylw-pushpin8</styleUrl>
			<Point>
				<gx:drawOrder>1</gx:drawOrder>
				<coordinates>73.775543871446,19.69954226764711,0</coordinates>
			</Point>
		</Placemark>
		<Placemark>
			<name>हतगड, ता सुरगाणा</name>
			<visibility>0</visibility>
			<LookAt>
				<longitude>73.75321505621348</longitude>
				<latitude>20.53000996968768</latitude>
				<altitude>0</altitude>
				<heading>0.09764675804976845</heading>
				<tilt>33.3483194760931</tilt>
				<range>528.2350503641981</range>
				<gx:altitudeMode>relativeToSeaFloor</gx:altitudeMode>
			</LookAt>
			<styleUrl>#m_ylw-pushpin8</styleUrl>
			<Point>
				<gx:drawOrder>1</gx:drawOrder>
				<coordinates>73.75333078080253,20.52964328080128,0</coordinates>
			</Point>
		</Placemark>
		<Placemark>
			<name>चौसाळे, ता दिंडोरी</name>
			<visibility>0</visibility>
			<LookAt>
				<longitude>73.78786403145024</longitude>
				<latitude>20.418460097159</latitude>
				<altitude>0</altitude>
				<heading>0.1096658324548219</heading>
				<tilt>32.75462594830427</tilt>
				<range>315.3526961743037</range>
				<gx:altitudeMode>relativeToSeaFloor</gx:altitudeMode>
			</LookAt>
			<styleUrl>#m_ylw-pushpin8</styleUrl>
			<Point>
				<gx:drawOrder>1</gx:drawOrder>
				<coordinates>73.7879005439619,20.41828454139567,0</coordinates>
			</Point>
		</Placemark>
		<Placemark>
			<name>अंबोली टी पॉइंट</name>
			<visibility>0</visibility>
			<LookAt>
				<longitude>73.48010466040486</longitude>
				<latitude>19.97998453930308</latitude>
				<altitude>0</altitude>
				<heading>-0.005775054543210819</heading>
				<tilt>24.87538495247809</tilt>
				<range>305.3936203942628</range>
				<gx:altitudeMode>relativeToSeaFloor</gx:altitudeMode>
			</LookAt>
			<styleUrl>#m_ylw-pushpin8</styleUrl>
			<Point>
				<gx:drawOrder>1</gx:drawOrder>
				<coordinates>73.47956142133664,19.97972027595887,0</coordinates>
			</Point>
		</Placemark>
		<Placemark>
			<name>पिंपळद शिवार ( Drone Corpo)</name>
			<visibility>0</visibility>
			<LookAt>
				<longitude>73.68613894503879</longitude>
				<latitude>19.91968190501176</latitude>
				<altitude>0</altitude>
				<heading>0.006176021703818806</heading>
				<tilt>26.7696397357129</tilt>
				<range>172.7353446947583</range>
				<gx:altitudeMode>relativeToSeaFloor</gx:altitudeMode>
			</LookAt>
			<styleUrl>#m_ylw-pushpin8</styleUrl>
			<Point>
				<gx:drawOrder>1</gx:drawOrder>
				<coordinates>73.68587138416328,19.91967223527653,0</coordinates>
			</Point>
		</Placemark>
		<atom:link rel="app" href="https://www.google.com/earth/about/versions/#earth-pro" title="Google Earth Pro 7.3.7.1155"></atom:link>
	</Folder>
</Document>
</kml>
