<?xml version="1.0" encoding="UTF-8"?>
<kml xmlns="http://www.opengis.net/kml/2.2" xmlns:gx="http://www.google.com/kml/ext/2.2" xmlns:kml="http://www.opengis.net/kml/2.2" xmlns:atom="http://www.w3.org/2005/Atom">
<Document>
	<name>10 कायम स्वरुपी पोलीस चौकी.kml</name>
	<StyleMap id="m_ylw-pushpin">
		<Pair>
			<key>normal</key>
			<styleUrl>#s_ylw-pushpin</styleUrl>
		</Pair>
		<Pair>
			<key>highlight</key>
			<styleUrl>#s_ylw-pushpin_hl</styleUrl>
		</Pair>
	</StyleMap>
	<Style id="s_ylw-pushpin">
		<IconStyle>
			<scale>1.1</scale>
			<Icon>
				<href>http://maps.google.com/mapfiles/kml/pushpin/ylw-pushpin.png</href>
			</Icon>
			<hotSpot x="20" y="2" xunits="pixels" yunits="pixels"/>
		</IconStyle>
	</Style>
	<Style id="s_ylw-pushpin_hl">
		<IconStyle>
			<scale>1.3</scale>
			<Icon>
				<href>http://maps.google.com/mapfiles/kml/pushpin/ylw-pushpin.png</href>
			</Icon>
			<hotSpot x="20" y="2" xunits="pixels" yunits="pixels"/>
		</IconStyle>
	</Style>
	<Folder>
		<name>10 कायम स्वरुपी पोलीस चौकी</name>
		<visibility>0</visibility>
		<Placemark>
			<name>1 कुशावर्त तीर्थ</name>
			<visibility>0</visibility>
			<LookAt>
				<longitude>73.52811371144445</longitude>
				<latitude>19.93297525789019</latitude>
				<altitude>0</altitude>
				<heading>-1.359982921966249e-05</heading>
				<tilt>28.82583248280027</tilt>
				<range>112.4227044472094</range>
				<gx:altitudeMode>relativeToSeaFloor</gx:altitudeMode>
			</LookAt>
			<styleUrl>#m_ylw-pushpin</styleUrl>
			<Point>
				<gx:drawOrder>1</gx:drawOrder>
				<coordinates>73.52808381113593,19.93299787491797,0</coordinates>
			</Point>
		</Placemark>
		<Placemark>
			<name>2 नवीन जव्हार फाटा,( गजानन महाराज संस्थान)</name>
			<visibility>0</visibility>
			<LookAt>
				<longitude>73.53608888441123</longitude>
				<latitude>19.9373794214545</latitude>
				<altitude>0</altitude>
				<heading>0.000316574871611237</heading>
				<tilt>21.64007856573188</tilt>
				<range>115.4998205765046</range>
				<gx:altitudeMode>relativeToSeaFloor</gx:altitudeMode>
			</LookAt>
			<styleUrl>#m_ylw-pushpin</styleUrl>
			<Point>
				<gx:drawOrder>1</gx:drawOrder>
				<coordinates>73.53633699403294,19.93732943481877,0</coordinates>
			</Point>
		</Placemark>
		<Placemark>
			<name>3 नवीन घाट</name>
			<visibility>0</visibility>
			<LookAt>
				<longitude>73.54647694397417</longitude>
				<latitude>19.9452579666474</latitude>
				<altitude>0</altitude>
				<heading>-21.76839178072473</heading>
				<tilt>11.2057114590103</tilt>
				<range>2061.560939487566</range>
				<gx:altitudeMode>relativeToSeaFloor</gx:altitudeMode>
			</LookAt>
			<styleUrl>#m_ylw-pushpin</styleUrl>
			<Point>
				<gx:drawOrder>1</gx:drawOrder>
				<coordinates>73.54850204614922,19.94663664038327,0</coordinates>
			</Point>
		</Placemark>
		<Placemark>
			<name>4 पेगलवाडी फाटा</name>
			<visibility>0</visibility>
			<Camera>
				<longitude>73.55070549384595</longitude>
				<latitude>19.94369474337141</latitude>
				<altitude>215.7105388314044</altitude>
				<heading>-13.07773704539499</heading>
				<tilt>26.85137479896618</tilt>
				<roll>-1.16851600249399</roll>
				<gx:altitudeMode>relativeToSeaFloor</gx:altitudeMode>
			</Camera>
			<styleUrl>#m_ylw-pushpin</styleUrl>
			<Point>
				<gx:drawOrder>1</gx:drawOrder>
				<coordinates>73.55066120379452,19.94459221428547,0</coordinates>
			</Point>
		</Placemark>
		<Placemark>
			<name>5 अंजनेरी पोलीस चौकी</name>
			<visibility>0</visibility>
			<LookAt>
				<longitude>73.58600875597797</longitude>
				<latitude>19.95383545598272</latitude>
				<altitude>0</altitude>
				<heading>-1.229321192343275</heading>
				<tilt>29.78483720159614</tilt>
				<range>105.860835496492</range>
				<gx:altitudeMode>relativeToSeaFloor</gx:altitudeMode>
			</LookAt>
			<styleUrl>#m_ylw-pushpin</styleUrl>
			<Point>
				<gx:drawOrder>1</gx:drawOrder>
				<coordinates>73.5861152890264,19.95373333270217,0</coordinates>
			</Point>
		</Placemark>
		<Placemark>
			<name>6 पहिणे टी पॉइंट</name>
			<visibility>0</visibility>
			<LookAt>
				<longitude>73.54965649831449</longitude>
				<latitude>19.90114178865147</latitude>
				<altitude>0</altitude>
				<heading>-1.238329556024544</heading>
				<tilt>30.00108940939403</tilt>
				<range>242.6828153477759</range>
				<gx:altitudeMode>relativeToSeaFloor</gx:altitudeMode>
			</LookAt>
			<styleUrl>#m_ylw-pushpin</styleUrl>
			<Point>
				<gx:drawOrder>1</gx:drawOrder>
				<coordinates>73.54975480022895,19.90098631158323,0</coordinates>
			</Point>
		</Placemark>
		<Placemark>
			<name>7 गिरणारे</name>
			<visibility>0</visibility>
			<LookAt>
				<longitude>73.65948076633097</longitude>
				<latitude>20.07248337559846</latitude>
				<altitude>0</altitude>
				<heading>-0.1025288281829824</heading>
				<tilt>30.00143687556562</tilt>
				<range>320.1812731659255</range>
				<gx:altitudeMode>relativeToSeaFloor</gx:altitudeMode>
			</LookAt>
			<styleUrl>#m_ylw-pushpin</styleUrl>
			<Point>
				<gx:drawOrder>1</gx:drawOrder>
				<coordinates>73.6591920686127,20.07237291587635,0</coordinates>
			</Point>
		</Placemark>
		<Placemark>
			<name>8 दहावा मैल , Ozhar</name>
			<visibility>0</visibility>
			<LookAt>
				<longitude>73.90386659267614</longitude>
				<latitude>20.0729573797122</latitude>
				<altitude>0</altitude>
				<heading>-0.004372693759773326</heading>
				<tilt>29.37350334073626</tilt>
				<range>180.5685860999757</range>
				<gx:altitudeMode>relativeToSeaFloor</gx:altitudeMode>
			</LookAt>
			<styleUrl>#m_ylw-pushpin</styleUrl>
			<Point>
				<gx:drawOrder>1</gx:drawOrder>
				<coordinates>73.90380479805332,20.07314470892017,0</coordinates>
			</Point>
		</Placemark>
		<Placemark>
			<name>9 उमराळे</name>
			<visibility>0</visibility>
			<LookAt>
				<longitude>73.71967597925956</longitude>
				<latitude>20.19814257576675</latitude>
				<altitude>0</altitude>
				<heading>-0.007245860260165308</heading>
				<tilt>30.00092316756503</tilt>
				<range>205.609606482642</range>
				<gx:altitudeMode>relativeToSeaFloor</gx:altitudeMode>
			</LookAt>
			<styleUrl>#m_ylw-pushpin</styleUrl>
			<Point>
				<gx:drawOrder>1</gx:drawOrder>
				<coordinates>73.71966825613926,20.19802241995942,0</coordinates>
			</Point>
		</Placemark>
		<Placemark>
			<name>10 बोरगाव</name>
			<visibility>0</visibility>
			<LookAt>
				<longitude>73.7543728352238</longitude>
				<latitude>20.50828999128431</latitude>
				<altitude>0</altitude>
				<heading>-4.246149867500168e-05</heading>
				<tilt>19.05761797136066</tilt>
				<range>101.1113069869797</range>
				<gx:altitudeMode>relativeToSeaFloor</gx:altitudeMode>
			</LookAt>
			<styleUrl>#m_ylw-pushpin</styleUrl>
			<Point>
				<gx:drawOrder>1</gx:drawOrder>
				<coordinates>73.75446202109299,20.50835616338951,0</coordinates>
			</Point>
		</Placemark>
		<atom:link rel="app" href="https://www.google.com/earth/about/versions/#earth-pro" title="Google Earth Pro 7.3.7.1155"></atom:link>
	</Folder>
</Document>
</kml>
