<?xml version="1.0" encoding="UTF-8"?>
<kml xmlns="http://www.opengis.net/kml/2.2" xmlns:gx="http://www.google.com/kml/ext/2.2" xmlns:kml="http://www.opengis.net/kml/2.2" xmlns:atom="http://www.w3.org/2005/Atom">
<Document>
	<name>20 तात्पुरते वॉच टॉवर.kml</name>
	<StyleMap id="m_ylw-pushpin">
		<Pair>
			<key>normal</key>
			<styleUrl>#s_ylw-pushpin</styleUrl>
		</Pair>
		<Pair>
			<key>highlight</key>
			<styleUrl>#s_ylw-pushpin_hl</styleUrl>
		</Pair>
	</StyleMap>
	<Style id="s_ylw-pushpin">
		<IconStyle>
			<scale>1.1</scale>
			<Icon>
				<href>http://maps.google.com/mapfiles/kml/pushpin/ylw-pushpin.png</href>
			</Icon>
			<hotSpot x="20" y="2" xunits="pixels" yunits="pixels"/>
		</IconStyle>
	</Style>
	<Style id="s_ylw-pushpin_hl">
		<IconStyle>
			<scale>1.3</scale>
			<Icon>
				<href>http://maps.google.com/mapfiles/kml/pushpin/ylw-pushpin.png</href>
			</Icon>
			<hotSpot x="20" y="2" xunits="pixels" yunits="pixels"/>
		</IconStyle>
	</Style>
	<Folder>
		<name>20 तात्पुरते वॉच टॉवर</name>
		<visibility>0</visibility>
		<Placemark>
			<name>1 आहिल्या गोदा संगम (नाथ आखाडया जवळ)</name>
			<visibility>0</visibility>
			<LookAt>
				<longitude>73.53214349627766</longitude>
				<latitude>19.93182615161134</latitude>
				<altitude>0</altitude>
				<heading>-0.007464422456295009</heading>
				<tilt>30.00084985348506</tilt>
				<range>188.9922815581315</range>
				<gx:altitudeMode>relativeToSeaFloor</gx:altitudeMode>
			</LookAt>
			<styleUrl>#m_ylw-pushpin</styleUrl>
			<Point>
				<gx:drawOrder>1</gx:drawOrder>
				<coordinates>73.53225626656076,19.93207193990163,0</coordinates>
			</Point>
		</Placemark>
		<Placemark>
			<name>2 लढढा अंर्तगत वाहनतळ</name>
			<visibility>0</visibility>
			<LookAt>
				<longitude>73.56119226383161</longitude>
				<latitude>19.9454167372972</latitude>
				<altitude>0</altitude>
				<heading>0.0002705488579177056</heading>
				<tilt>30.00133403062936</tilt>
				<range>297.0084018271817</range>
				<gx:altitudeMode>relativeToSeaFloor</gx:altitudeMode>
			</LookAt>
			<styleUrl>#m_ylw-pushpin</styleUrl>
			<Point>
				<gx:drawOrder>1</gx:drawOrder>
				<coordinates>73.56089783264946,19.94562932577723,0</coordinates>
			</Point>
		</Placemark>
		<Placemark>
			<name>3 पेगलवाडी टी पॉइंट</name>
			<visibility>0</visibility>
			<LookAt>
				<longitude>73.55141385270798</longitude>
				<latitude>19.94468732529786</latitude>
				<altitude>0</altitude>
				<heading>-0.0001007208652540601</heading>
				<tilt>22.27862018079165</tilt>
				<range>190.6020646482479</range>
				<gx:altitudeMode>relativeToSeaFloor</gx:altitudeMode>
			</LookAt>
			<styleUrl>#m_ylw-pushpin</styleUrl>
			<Point>
				<gx:drawOrder>1</gx:drawOrder>
				<coordinates>73.55144931967484,19.94470156917742,0</coordinates>
			</Point>
		</Placemark>
		<Placemark>
			<name>4 साधुग्राम  1</name>
			<visibility>0</visibility>
			<LookAt>
				<longitude>73.54147938468361</longitude>
				<latitude>19.94878517307068</latitude>
				<altitude>0</altitude>
				<heading>-22.66517078783328</heading>
				<tilt>22.2874651576154</tilt>
				<range>2787.769050158425</range>
				<gx:altitudeMode>relativeToSeaFloor</gx:altitudeMode>
			</LookAt>
			<styleUrl>#m_ylw-pushpin</styleUrl>
			<Point>
				<gx:drawOrder>1</gx:drawOrder>
				<coordinates>73.53502777920056,19.95101140859997,0</coordinates>
			</Point>
		</Placemark>
		<Placemark>
			<name>5 साधुग्राम 2</name>
			<visibility>0</visibility>
			<LookAt>
				<longitude>73.54147938468361</longitude>
				<latitude>19.94878517307068</latitude>
				<altitude>0</altitude>
				<heading>-22.66517078783328</heading>
				<tilt>22.2874651576154</tilt>
				<range>2787.769050158425</range>
				<gx:altitudeMode>relativeToSeaFloor</gx:altitudeMode>
			</LookAt>
			<styleUrl>#m_ylw-pushpin</styleUrl>
			<Point>
				<gx:drawOrder>1</gx:drawOrder>
				<coordinates>73.54059399176704,19.95032654769656,0</coordinates>
			</Point>
		</Placemark>
		<Placemark>
			<name>6 साधुग्राम 3</name>
			<visibility>0</visibility>
			<LookAt>
				<longitude>73.5443585131237</longitude>
				<latitude>19.94897982628456</latitude>
				<altitude>0</altitude>
				<heading>-22.66418845071091</heading>
				<tilt>22.29125795254312</tilt>
				<range>3901.487061285745</range>
				<gx:altitudeMode>relativeToSeaFloor</gx:altitudeMode>
			</LookAt>
			<styleUrl>#m_ylw-pushpin</styleUrl>
			<Point>
				<gx:drawOrder>1</gx:drawOrder>
				<coordinates>73.54877763719431,19.94981454934057,0</coordinates>
			</Point>
		</Placemark>
		<Placemark>
			<name>7 नवीन घाट 1</name>
			<visibility>0</visibility>
			<LookAt>
				<longitude>73.54435283617104</longitude>
				<latitude>19.94552248284132</latitude>
				<altitude>0</altitude>
				<heading>-24.12278469418915</heading>
				<tilt>24.66784462965464</tilt>
				<range>2514.897674276264</range>
				<gx:altitudeMode>relativeToSeaFloor</gx:altitudeMode>
			</LookAt>
			<styleUrl>#m_ylw-pushpin</styleUrl>
			<Point>
				<gx:drawOrder>1</gx:drawOrder>
				<coordinates>73.54090990636811,19.94488352048456,0</coordinates>
			</Point>
		</Placemark>
		<Placemark>
			<name>8 नवीन घाट 2</name>
			<visibility>0</visibility>
			<LookAt>
				<longitude>73.54435283617104</longitude>
				<latitude>19.94552248284132</latitude>
				<altitude>0</altitude>
				<heading>-24.12278469418915</heading>
				<tilt>24.66784462965464</tilt>
				<range>2514.897674276264</range>
				<gx:altitudeMode>relativeToSeaFloor</gx:altitudeMode>
			</LookAt>
			<styleUrl>#m_ylw-pushpin</styleUrl>
			<Point>
				<gx:drawOrder>1</gx:drawOrder>
				<coordinates>73.54768399951284,19.94723356463649,0</coordinates>
			</Point>
		</Placemark>
		<Placemark>
			<name>9 खंबाळे बाहय वाहनतळ 1</name>
			<visibility>0</visibility>
			<LookAt>
				<longitude>73.6412358030215</longitude>
				<latitude>19.96107854788836</latitude>
				<altitude>0</altitude>
				<heading>-2.2240962818558e-05</heading>
				<tilt>17.50878505702741</tilt>
				<range>385.7834027540096</range>
				<gx:altitudeMode>relativeToSeaFloor</gx:altitudeMode>
			</LookAt>
			<styleUrl>#m_ylw-pushpin</styleUrl>
			<Point>
				<gx:drawOrder>1</gx:drawOrder>
				<coordinates>73.64147946067231,19.96118951154155,0</coordinates>
			</Point>
		</Placemark>
		<Placemark>
			<name>10 खंबाळे बाहय वाहनतळ 2 (गावालगत)</name>
			<visibility>0</visibility>
			<LookAt>
				<longitude>73.64084931488661</longitude>
				<latitude>19.95967547806231</latitude>
				<altitude>0</altitude>
				<heading>4.235372088035071e-05</heading>
				<tilt>30.00115269065361</tilt>
				<range>256.5681732941819</range>
				<gx:altitudeMode>relativeToSeaFloor</gx:altitudeMode>
			</LookAt>
			<styleUrl>#m_ylw-pushpin</styleUrl>
			<Point>
				<gx:drawOrder>1</gx:drawOrder>
				<coordinates>73.64045809930541,19.9591696049634,0</coordinates>
			</Point>
		</Placemark>
		<Placemark>
			<name>11 संदीप फाउंडेशन मागे, बाहय वाहनतळ</name>
			<visibility>0</visibility>
			<LookAt>
				<longitude>73.67823519141103</longitude>
				<latitude>19.96056666016032</latitude>
				<altitude>0</altitude>
				<heading>0.0001960138087495861</heading>
				<tilt>11.59581360660243</tilt>
				<range>950.3516980141845</range>
				<gx:altitudeMode>relativeToSeaFloor</gx:altitudeMode>
			</LookAt>
			<styleUrl>#m_ylw-pushpin</styleUrl>
			<Point>
				<gx:drawOrder>1</gx:drawOrder>
				<coordinates>73.67785804435559,19.96010361600665,0</coordinates>
			</Point>
		</Placemark>
		<Placemark>
			<name>12 चक्रतीर्थ बेझे</name>
			<visibility>0</visibility>
			<LookAt>
				<longitude>73.59432717213291</longitude>
				<latitude>19.99677194598053</latitude>
				<altitude>0</altitude>
				<heading>-0.002374772455264769</heading>
				<tilt>29.34628047502894</tilt>
				<range>239.7929354447771</range>
				<gx:altitudeMode>relativeToSeaFloor</gx:altitudeMode>
			</LookAt>
			<styleUrl>#m_ylw-pushpin</styleUrl>
			<Point>
				<gx:drawOrder>1</gx:drawOrder>
				<coordinates>73.59418898261855,19.99661571108123,0</coordinates>
			</Point>
		</Placemark>
		<Placemark>
			<name>13 सापगाव टी पॉइंट, सापगाव फाटा</name>
			<visibility>0</visibility>
			<LookAt>
				<longitude>73.51368329484758</longitude>
				<latitude>19.95831619826152</latitude>
				<altitude>0</altitude>
				<heading>7.621293526223489e-06</heading>
				<tilt>25.35522876705813</tilt>
				<range>239.3050546058689</range>
				<gx:altitudeMode>relativeToSeaFloor</gx:altitudeMode>
			</LookAt>
			<styleUrl>#m_ylw-pushpin</styleUrl>
			<Point>
				<gx:drawOrder>1</gx:drawOrder>
				<coordinates>73.51383300139665,19.95827624483022,0</coordinates>
			</Point>
		</Placemark>
		<Placemark>
			<name>14 अंबोली बाहय वाहन पार्किंग</name>
			<visibility>0</visibility>
			<LookAt>
				<longitude>73.49637449568809</longitude>
				<latitude>19.97052129345952</latitude>
				<altitude>0</altitude>
				<heading>-0.0003129376852069654</heading>
				<tilt>17.9953961596764</tilt>
				<range>497.3455823339455</range>
				<gx:altitudeMode>relativeToSeaFloor</gx:altitudeMode>
			</LookAt>
			<styleUrl>#m_ylw-pushpin</styleUrl>
			<Point>
				<gx:drawOrder>1</gx:drawOrder>
				<coordinates>73.4970243092701,19.96977663683037,0</coordinates>
			</Point>
		</Placemark>
		<Placemark>
			<name>15 भिलमाळ बाहय वाहनतळ (घोटी खोडाळा रोड)</name>
			<visibility>0</visibility>
			<LookAt>
				<longitude>73.54635658346272</longitude>
				<latitude>19.90103246982216</latitude>
				<altitude>0</altitude>
				<heading>-0.0001568018356796916</heading>
				<tilt>14.32925280249521</tilt>
				<range>705.1358154913988</range>
				<gx:altitudeMode>relativeToSeaFloor</gx:altitudeMode>
			</LookAt>
			<styleUrl>#m_ylw-pushpin</styleUrl>
			<Point>
				<gx:drawOrder>1</gx:drawOrder>
				<coordinates>73.54695914063102,19.90055073566334,0</coordinates>
			</Point>
		</Placemark>
		<Placemark>
			<name>16 बी जी फार्म, अंर्तगत वाहनतळ</name>
			<visibility>0</visibility>
			<LookAt>
				<longitude>73.55409366473222</longitude>
				<latitude>19.92824903686564</latitude>
				<altitude>0</altitude>
				<heading>-2.883323390499169e-05</heading>
				<tilt>21.20067435057193</tilt>
				<range>246.2658479232883</range>
				<gx:altitudeMode>relativeToSeaFloor</gx:altitudeMode>
			</LookAt>
			<styleUrl>#m_ylw-pushpin</styleUrl>
			<Point>
				<gx:drawOrder>1</gx:drawOrder>
				<coordinates>73.55421000055524,19.92858249863467,0</coordinates>
			</Point>
		</Placemark>
		<Placemark>
			<name>17 कसबे सुकेणे रेल्वे स्टेशन</name>
			<visibility>0</visibility>
			<LookAt>
				<longitude>74.03037701848298</longitude>
				<latitude>20.07321684300282</latitude>
				<altitude>0</altitude>
				<heading>0.08187787236274248</heading>
				<tilt>33.35568411440676</tilt>
				<range>413.5605266525155</range>
				<gx:altitudeMode>relativeToSeaFloor</gx:altitudeMode>
			</LookAt>
			<styleUrl>#m_ylw-pushpin</styleUrl>
			<Point>
				<gx:drawOrder>1</gx:drawOrder>
				<coordinates>74.03031162899427,20.0732383566406,0</coordinates>
			</Point>
		</Placemark>
		<Placemark>
			<name>18 खेरवाडी रेल्वे स्टेशन</name>
			<visibility>0</visibility>
			<LookAt>
				<longitude>73.97321545671259</longitude>
				<latitude>20.04383554537747</latitude>
				<altitude>0</altitude>
				<heading>0.06227175260086385</heading>
				<tilt>33.35947979283082</tilt>
				<range>1182.083699435298</range>
				<gx:altitudeMode>relativeToSeaFloor</gx:altitudeMode>
			</LookAt>
			<styleUrl>#m_ylw-pushpin</styleUrl>
			<Point>
				<gx:drawOrder>1</gx:drawOrder>
				<coordinates>73.97504760084598,20.04380282431774,0</coordinates>
			</Point>
		</Placemark>
		<Placemark>
			<name>19 कावनई तीर्थ</name>
			<visibility>0</visibility>
			<LookAt>
				<longitude>73.61360346413191</longitude>
				<latitude>19.77326112083307</latitude>
				<altitude>0</altitude>
				<heading>-0.0009535816051961243</heading>
				<tilt>22.13386314308513</tilt>
				<range>174.4330412354202</range>
				<gx:altitudeMode>relativeToSeaFloor</gx:altitudeMode>
			</LookAt>
			<styleUrl>#m_ylw-pushpin</styleUrl>
			<Point>
				<gx:drawOrder>1</gx:drawOrder>
				<coordinates>73.61401689354237,19.77345880729283,0</coordinates>
			</Point>
		</Placemark>
		<Placemark>
			<name>20 सर्वतीर्थ टाकेद  देवस्थान परिसर</name>
			<visibility>0</visibility>
			<LookAt>
				<longitude>73.77598278650918</longitude>
				<latitude>19.7005112994447</latitude>
				<altitude>0</altitude>
				<heading>0.01605227451086717</heading>
				<tilt>30.00100755803134</tilt>
				<range>224.3395440245188</range>
				<gx:altitudeMode>relativeToSeaFloor</gx:altitudeMode>
			</LookAt>
			<styleUrl>#m_ylw-pushpin</styleUrl>
			<Point>
				<gx:drawOrder>1</gx:drawOrder>
				<coordinates>73.77614657491553,19.70047224328595,0</coordinates>
			</Point>
		</Placemark>
		<atom:link rel="app" href="https://www.google.com/earth/about/versions/#earth-pro" title="Google Earth Pro 7.3.7.1155"></atom:link>
	</Folder>
</Document>
</kml>
